{
  "type": "FeatureCollection",
  "features": [
    {
      "type": "Feature",
      "properties": { "name": "Monterrey" },
      "geometry": {
        "type": "Point",
        "coordinates": [-100.3161, 25.6866]
      }
    },
    {
      "type": "Feature",
      "properties": { "name": "Mexico City" },
      "geometry": {
        "type": "Point",
        "coordinates": [-99.1332, 19.4326]
      }
    },
    {
      "type": "Feature",
      "properties": { "name": "Guadalajara" },
      "geometry": {
        "type": "Point",
        "coordinates": [-103.3496, 20.6597]
      }
    },
    {
      "type": "Feature",
      "properties": { "name": "Mexicali" },
      "geometry": {
        "type": "Point",
        "coordinates": [-115.4545, 32.6519]
      }
    },
    {
      "type": "Feature",
      "properties": { "name": "Culiacán" },
      "geometry": {
        "type": "Point",
        "coordinates": [-107.3940, 24.7994]
      }
    },
    {
      "type": "Feature",
      "properties": { "name": "Mérida" },
      "geometry": {
        "type": "Point",
        "coordinates": [-89.6226, 20.9674]
      }
    },
    {
      "type": "Feature",
      "properties": { "name": "Durango" },
      "geometry": {
        "type": "Point",
        "coordinates": [-104.6576, 24.0220]
      }
    }
  ]
}
