{
"type": "FeatureCollection",
"name": "zonas_metropolitanas_centroides",
"crs": { "type": "name", "properties": { "name": "urn:ogc:def:crs:OGC:1.3:CRS84" } },
"features": [
{ "type": "Feature", "properties": { "zm_id": "01.1.01", "zm": "Zona metropolitana de Aguascalientes", "NOM_MET": "Aguascalientes" }, "geometry": { "type": "Point", "coordinates": [ -102.386743711847259, 21.860553039829149 ] } },
{ "type": "Feature", "properties": { "zm_id": "02.1.01", "zm": "Zona metropolitana de Tijuana", "NOM_MET": "Tijuana" }, "geometry": { "type": "Point", "coordinates": [ -116.871667747986947, 32.327442180902175 ] } },
{ "type": "Feature", "properties": { "zm_id": "02.2.02", "zm": "Metrópoli municipal de Ensenada", "NOM_MET": "Ensenada" }, "geometry": { "type": "Point", "coordinates": [ -115.13345871597727, 30.836443800219527 ] } },
{ "type": "Feature", "properties": { "zm_id": "02.2.03", "zm": "Metrópoli municipal de Mexicali", "NOM_MET": "Mexicali" }, "geometry": { "type": "Point", "coordinates": [ -115.262878514077357, 31.794388170033177 ] } },
{ "type": "Feature", "properties": { "zm_id": "03.2.01", "zm": "Metrópoli municipal de La Paz", "NOM_MET": "La Paz" }, "geometry": { "type": "Point", "coordinates": [ -110.518542841964418, 24.108432775060194 ] } },
{ "type": "Feature", "properties": { "zm_id": "03.2.02", "zm": "Metrópoli municipal de Los Cabos", "NOM_MET": "Los Cabos" }, "geometry": { "type": "Point", "coordinates": [ -109.689768474377814, 23.271848090014167 ] } },
{ "type": "Feature", "properties": { "zm_id": "04.2.01", "zm": "Metrópoli municipal de Campeche", "NOM_MET": "Campeche" }, "geometry": { "type": "Point", "coordinates": [ -90.254149321863522, 19.591882455277208 ] } },
{ "type": "Feature", "properties": { "zm_id": "05.1.01", "zm": "Zona metropolitana de La Laguna", "NOM_MET": "La Laguna" }, "geometry": { "type": "Point", "coordinates": [ -103.646642150099183, 25.340427899805864 ] } },
{ "type": "Feature", "properties": { "zm_id": "05.1.02", "zm": "Zona metropolitana de Monclova-Frontera", "NOM_MET": "Monclova-Frontera" }, "geometry": { "type": "Point", "coordinates": [ -101.652862612673189, 27.422144692537096 ] } },
{ "type": "Feature", "properties": { "zm_id": "05.1.03", "zm": "Zona metropolitana de Piedras Negras", "NOM_MET": "Piedras Negras" }, "geometry": { "type": "Point", "coordinates": [ -100.543779578386506, 28.637164265204014 ] } },
{ "type": "Feature", "properties": { "zm_id": "05.1.04", "zm": "Zona metropolitana de Saltillo", "NOM_MET": "Saltillo" }, "geometry": { "type": "Point", "coordinates": [ -100.954493456795092, 25.470281813990525 ] } },
{ "type": "Feature", "properties": { "zm_id": "05.3.05", "zm": "Zona conurbada de Sabinas", "NOM_MET": "Sabinas" }, "geometry": { "type": "Point", "coordinates": [ -101.173190656998329, 27.940713215037078 ] } },
{ "type": "Feature", "properties": { "zm_id": "06.1.01", "zm": "Zona metropolitana de Colima-Villa de Álvarez", "NOM_MET": "Colima-Villa de Álvarez" }, "geometry": { "type": "Point", "coordinates": [ -103.571853043993173, 19.191960495184937 ] } },
{ "type": "Feature", "properties": { "zm_id": "06.3.02", "zm": "Zona conurbada de Tecomán", "NOM_MET": "Tecomán" }, "geometry": { "type": "Point", "coordinates": [ -103.92493476732372, 18.919183769896378 ] } },
{ "type": "Feature", "properties": { "zm_id": "07.1.01", "zm": "Zona metropolitana de Tapachula", "NOM_MET": "Tapachula" }, "geometry": { "type": "Point", "coordinates": [ -92.322299470121578, 14.927282060525455 ] } },
{ "type": "Feature", "properties": { "zm_id": "07.1.02", "zm": "Zona metropolitana de Tuxtla Gutiérrez", "NOM_MET": "Tuxtla Gutiérrez" }, "geometry": { "type": "Point", "coordinates": [ -93.038170785836627, 16.661108875879297 ] } },
{ "type": "Feature", "properties": { "zm_id": "08.1.01", "zm": "Zona metropolitana de Chihuahua", "NOM_MET": "Chihuahua" }, "geometry": { "type": "Point", "coordinates": [ -105.699476966232481, 28.941410975053046 ] } },
{ "type": "Feature", "properties": { "zm_id": "08.1.02", "zm": "Zona metropolitana de Delicias", "NOM_MET": "Delicias" }, "geometry": { "type": "Point", "coordinates": [ -105.641265223872637, 28.243672745249516 ] } },
{ "type": "Feature", "properties": { "zm_id": "08.2.03", "zm": "Metrópoli municipal de Ciudad Juárez", "NOM_MET": "Juárez" }, "geometry": { "type": "Point", "coordinates": [ -106.449725673389722, 31.452227524875241 ] } },
{ "type": "Feature", "properties": { "zm_id": "08.3.04", "zm": "Zona conurbada de Hidalgo del Parral", "NOM_MET": "Hidalgo del Parral" }, "geometry": { "type": "Point", "coordinates": [ -105.757552539891321, 27.065812104936569 ] } },
{ "type": "Feature", "properties": { "zm_id": "09.1.01", "zm": "Zona metropolitana de la Ciudad de México", "NOM_MET": "Ciudad de México" }, "geometry": { "type": "Point", "coordinates": [ -98.915012551447916, 19.547654044379904 ] } },
{ "type": "Feature", "properties": { "zm_id": "10.2.01", "zm": "Metrópoli municipal de Durango", "NOM_MET": "Durango" }, "geometry": { "type": "Point", "coordinates": [ -104.919810598541687, 23.911272130167674 ] } },
{ "type": "Feature", "properties": { "zm_id": "11.1.01", "zm": "Zona metropolitana de Celaya", "NOM_MET": "Celaya" }, "geometry": { "type": "Point", "coordinates": [ -100.901790999931364, 20.5085052075055 ] } },
{ "type": "Feature", "properties": { "zm_id": "11.1.02", "zm": "Zona metropolitana de León", "NOM_MET": "León" }, "geometry": { "type": "Point", "coordinates": [ -101.694206674271982, 21.050490594874223 ] } },
{ "type": "Feature", "properties": { "zm_id": "11.2.03", "zm": "Metrópoli municipal de Guanajuato", "NOM_MET": "Guanajuato" }, "geometry": { "type": "Point", "coordinates": [ -101.242782846559265, 21.02405748513949 ] } },
{ "type": "Feature", "properties": { "zm_id": "11.2.04", "zm": "Metrópoli municipal de Irapuato", "NOM_MET": "Irapuato" }, "geometry": { "type": "Point", "coordinates": [ -101.388542304972901, 20.674893650314246 ] } },
{ "type": "Feature", "properties": { "zm_id": "11.3.05", "zm": "Zona conurbada de Moroleón-Uriangato", "NOM_MET": "Moroleon-Uriangato" }, "geometry": { "type": "Point", "coordinates": [ -101.188827599388944, 20.037726860103184 ] } },
{ "type": "Feature", "properties": { "zm_id": "11.3.06", "zm": "Zona conurbada de Silao", "NOM_MET": "Silao" }, "geometry": { "type": "Point", "coordinates": [ -101.456537119127091, 20.920034369970512 ] } },
{ "type": "Feature", "properties": { "zm_id": "12.1.01", "zm": "Zona metropolitana de Chilpancingo", "NOM_MET": "Chilpancingo" }, "geometry": { "type": "Point", "coordinates": [ -99.548542709734448, 17.602001215123856 ] } },
{ "type": "Feature", "properties": { "zm_id": "12.2.02", "zm": "Metrópoli municipal de Acapulco", "NOM_MET": "Acapulco" }, "geometry": { "type": "Point", "coordinates": [ -99.695133586830224, 16.958796510404053 ] } },
{ "type": "Feature", "properties": { "zm_id": "13.1.01", "zm": "Zona metropolitana de Pachuca", "NOM_MET": "Pachuca" }, "geometry": { "type": "Point", "coordinates": [ -98.853757497678089, 20.010049369447426 ] } },
{ "type": "Feature", "properties": { "zm_id": "13.1.02", "zm": "Zona metropolitana de Tulancingo", "NOM_MET": "Tulancingo" }, "geometry": { "type": "Point", "coordinates": [ -98.298630592850856, 20.026999084079304 ] } },
{ "type": "Feature", "properties": { "zm_id": "13.3.03", "zm": "Zona conurbada de Atitalaquia", "NOM_MET": "Atitalaquia" }, "geometry": { "type": "Point", "coordinates": [ -99.228690933321545, 20.076801781500407 ] } },
{ "type": "Feature", "properties": { "zm_id": "14.1.01", "zm": "Zona metropolitana de Guadalajara", "NOM_MET": "Guadalajara" }, "geometry": { "type": "Point", "coordinates": [ -103.406507340285145, 20.67893453039451 ] } },
{ "type": "Feature", "properties": { "zm_id": "14.1.02", "zm": "Zona metropolitana de Puerto Vallarta", "NOM_MET": "Puerto Vallarta" }, "geometry": { "type": "Point", "coordinates": [ -105.178719700404542, 20.729841384945782 ] } },
{ "type": "Feature", "properties": { "zm_id": "14.3.03", "zm": "Zona conurbada de Ocotlán", "NOM_MET": "Ocotlán" }, "geometry": { "type": "Point", "coordinates": [ -102.845683021932388, 20.294418509893468 ] } },
{ "type": "Feature", "properties": { "zm_id": "15.1.01", "zm": "Zona metropolitana de Toluca", "NOM_MET": "Toluca" }, "geometry": { "type": "Point", "coordinates": [ -99.52445137263652, 19.296328214621148 ] } },
{ "type": "Feature", "properties": { "zm_id": "15.3.02", "zm": "Zona conurbada de Ozumba", "NOM_MET": "Ozumba" }, "geometry": { "type": "Point", "coordinates": [ -98.751675504688507, 19.016294484990247 ] } },
{ "type": "Feature", "properties": { "zm_id": "15.3.03", "zm": "Zona conurbada de Tianguistenco", "NOM_MET": "Tianguistenco" }, "geometry": { "type": "Point", "coordinates": [ -99.405817635601636, 19.168004430244505 ] } },
{ "type": "Feature", "properties": { "zm_id": "16.1.01", "zm": "Zona metropolitana de La Piedad-Pénjamo", "NOM_MET": "La Piedad-Pénjamo" }, "geometry": { "type": "Point", "coordinates": [ -101.840521182920526, 20.405300789859176 ] } },
{ "type": "Feature", "properties": { "zm_id": "16.1.02", "zm": "Zona metropolitana de Morelia", "NOM_MET": "Morelia" }, "geometry": { "type": "Point", "coordinates": [ -101.184541597334402, 19.670561909892548 ] } },
{ "type": "Feature", "properties": { "zm_id": "16.1.03", "zm": "Zona metropolitana de Zamora", "NOM_MET": "Zamora" }, "geometry": { "type": "Point", "coordinates": [ -102.257849014045064, 19.995704335225948 ] } },
{ "type": "Feature", "properties": { "zm_id": "16.2.04", "zm": "Metrópoli municipal de Uruapan", "NOM_MET": "Uruapan" }, "geometry": { "type": "Point", "coordinates": [ -102.03434498853602, 19.40621244545801 ] } },
{ "type": "Feature", "properties": { "zm_id": "16.3.05", "zm": "Zona conurbada de Lázaro Cárdenas", "NOM_MET": "Lázaro Cárdenas" }, "geometry": { "type": "Point", "coordinates": [ -102.046657880132827, 18.01014062498804 ] } },
{ "type": "Feature", "properties": { "zm_id": "16.3.06", "zm": "Zona conurbada de Sahuayo", "NOM_MET": "Sahuayo" }, "geometry": { "type": "Point", "coordinates": [ -102.771132266771133, 19.988879800465973 ] } },
{ "type": "Feature", "properties": { "zm_id": "17.1.01", "zm": "Zona metropolitana de Cuautla", "NOM_MET": "Cuautla" }, "geometry": { "type": "Point", "coordinates": [ -99.002003615693923, 18.782093334760212 ] } },
{ "type": "Feature", "properties": { "zm_id": "17.1.02", "zm": "Zona metropolitana de Cuernavaca", "NOM_MET": "Cuernavaca" }, "geometry": { "type": "Point", "coordinates": [ -99.152383887320468, 18.881654366782659 ] } },
{ "type": "Feature", "properties": { "zm_id": "18.1.01", "zm": "Zona metropolitana de Tepic", "NOM_MET": "Tepic" }, "geometry": { "type": "Point", "coordinates": [ -104.856167228644594, 21.578275283941537 ] } },
{ "type": "Feature", "properties": { "zm_id": "19.1.01", "zm": "Zona metropolitana de Monterrey", "NOM_MET": "Monterrey" }, "geometry": { "type": "Point", "coordinates": [ -100.440607474080821, 25.809550124700124 ] } },
{ "type": "Feature", "properties": { "zm_id": "20.1.01", "zm": "Zona metropolitana de Oaxaca", "NOM_MET": "Oaxaca" }, "geometry": { "type": "Point", "coordinates": [ -96.686218908984046, 17.085509116439791 ] } },
{ "type": "Feature", "properties": { "zm_id": "20.3.02", "zm": "Zona conurbada de Juchitán de Zaragoza", "NOM_MET": "Juchitán" }, "geometry": { "type": "Point", "coordinates": [ -94.952864069810602, 16.413380329905728 ] } },
{ "type": "Feature", "properties": { "zm_id": "20.3.03", "zm": "Zona conurbada de Salina Cruz", "NOM_MET": "Salina Cruz" }, "geometry": { "type": "Point", "coordinates": [ -95.213177001354524, 16.197749930523472 ] } },
{ "type": "Feature", "properties": { "zm_id": "20.3.04", "zm": "Zona conurbada de Tehuantepec", "NOM_MET": "Tehuantepec" }, "geometry": { "type": "Point", "coordinates": [ -95.380173389326771, 16.214085245183277 ] } },
{ "type": "Feature", "properties": { "zm_id": "21.1.01", "zm": "Zona metropolitana de Puebla-Tlaxcala", "NOM_MET": "Puebla-Tlaxcala" }, "geometry": { "type": "Point", "coordinates": [ -98.148033519873366, 19.058859199995698 ] } },
{ "type": "Feature", "properties": { "zm_id": "21.1.02", "zm": "Zona metropolitana de San Martín Texmelucan", "NOM_MET": "San Martín Texmelucan" }, "geometry": { "type": "Point", "coordinates": [ -98.499678964308544, 19.221447840656619 ] } },
{ "type": "Feature", "properties": { "zm_id": "21.1.03", "zm": "Zona metropolitana de Tehuacán", "NOM_MET": "Tehuacán" }, "geometry": { "type": "Point", "coordinates": [ -97.397999352207307, 18.466137350232344 ] } },
{ "type": "Feature", "properties": { "zm_id": "21.3.04", "zm": "Zona conurbada de Huauchinango", "NOM_MET": "Huauchinango" }, "geometry": { "type": "Point", "coordinates": [ -98.049072875868632, 20.178249465146486 ] } },
{ "type": "Feature", "properties": { "zm_id": "21.3.05", "zm": "Zona conurbada de Teziutlán", "NOM_MET": "Teziutlán" }, "geometry": { "type": "Point", "coordinates": [ -97.376042496149239, 19.8101764450806 ] } },
{ "type": "Feature", "properties": { "zm_id": "22.1.01", "zm": "Zona metropolitana de Querétaro", "NOM_MET": "Querétaro" }, "geometry": { "type": "Point", "coordinates": [ -100.355868007794498, 20.627725845359734 ] } },
{ "type": "Feature", "properties": { "zm_id": "23.1.01", "zm": "Zona metropolitana de Cancún", "NOM_MET": "Cancún" }, "geometry": { "type": "Point", "coordinates": [ -86.974689231115192, 21.260085674932316 ] } },
{ "type": "Feature", "properties": { "zm_id": "23.2.02", "zm": "Metrópoli municipal de Chetumal", "NOM_MET": "Chetumal" }, "geometry": { "type": "Point", "coordinates": [ -88.825654445943115, 18.437538875305737 ] } },
{ "type": "Feature", "properties": { "zm_id": "23.2.03", "zm": "Metrópoli municipal de Playa del Carmen", "NOM_MET": "Playa del Carmen" }, "geometry": { "type": "Point", "coordinates": [ -87.503452778796671, 20.584374755078912 ] } },
{ "type": "Feature", "properties": { "zm_id": "24.1.01", "zm": "Zona metropolitana de San Luis Potosí", "NOM_MET": "San Luis Potosí" }, "geometry": { "type": "Point", "coordinates": [ -100.897105791640854, 22.308352755101261 ] } },
{ "type": "Feature", "properties": { "zm_id": "24.3.02", "zm": "Zona conurbada de Matehuala", "NOM_MET": "Matehuala" }, "geometry": { "type": "Point", "coordinates": [ -100.604890817376727, 23.523398629796652 ] } },
{ "type": "Feature", "properties": { "zm_id": "24.3.03", "zm": "Zona conurbada de Rioverde", "NOM_MET": "Rioverde" }, "geometry": { "type": "Point", "coordinates": [ -100.128839656392898, 21.980000355149432 ] } },
{ "type": "Feature", "properties": { "zm_id": "25.2.01", "zm": "Metrópoli municipal de Culiacán", "NOM_MET": "Culiacán" }, "geometry": { "type": "Point", "coordinates": [ -107.267552917403137, 24.655306085329315 ] } },
{ "type": "Feature", "properties": { "zm_id": "25.2.02", "zm": "Metrópoli municipal de Los Mochis", "NOM_MET": "Los Mochis" }, "geometry": { "type": "Point", "coordinates": [ -109.20787931759395, 25.923219981644472 ] } },
{ "type": "Feature", "properties": { "zm_id": "25.2.03", "zm": "Metrópoli municipal de Mazatlán", "NOM_MET": "Mazatlán" }, "geometry": { "type": "Point", "coordinates": [ -106.411633281109332, 23.479904514797905 ] } },
{ "type": "Feature", "properties": { "zm_id": "26.1.01", "zm": "Zona metropolitana de Guaymas", "NOM_MET": "Guaymas" }, "geometry": { "type": "Point", "coordinates": [ -110.777053911341255, 28.073884739925294 ] } },
{ "type": "Feature", "properties": { "zm_id": "26.2.02", "zm": "Metrópoli municipal de Ciudad Obregón", "NOM_MET": "Ciudad Obregón" }, "geometry": { "type": "Point", "coordinates": [ -109.902207613828523, 27.711980729955695 ] } },
{ "type": "Feature", "properties": { "zm_id": "26.2.03", "zm": "Metrópoli municipal de Hermosillo", "NOM_MET": "Hermosillo" }, "geometry": { "type": "Point", "coordinates": [ -111.446367640867265, 28.969263990184864 ] } },
{ "type": "Feature", "properties": { "zm_id": "26.2.04", "zm": "Metrópoli municipal de Nogales", "NOM_MET": "Nogales" }, "geometry": { "type": "Point", "coordinates": [ -111.01870944172083, 31.195937369835697 ] } },
{ "type": "Feature", "properties": { "zm_id": "26.3.05", "zm": "Zona conurbada de Caborca", "NOM_MET": "Caborca" }, "geometry": { "type": "Point", "coordinates": [ -112.400365879330138, 30.513311654835739 ] } },
{ "type": "Feature", "properties": { "zm_id": "27.1.01", "zm": "Zona metropolitana de Villahermosa", "NOM_MET": "Villahermosa" }, "geometry": { "type": "Point", "coordinates": [ -92.835686711176464, 18.031153935791231 ] } },
{ "type": "Feature", "properties": { "zm_id": "28.1.01", "zm": "Zona metropolitana de Reynosa", "NOM_MET": "Reynosa" }, "geometry": { "type": "Point", "coordinates": [ -98.258155740157136, 25.803250175289243 ] } },
{ "type": "Feature", "properties": { "zm_id": "28.1.02", "zm": "Zona metropolitana de Tampico", "NOM_MET": "Tampico" }, "geometry": { "type": "Point", "coordinates": [ -98.094214890459966, 22.247347824783905 ] } },
{ "type": "Feature", "properties": { "zm_id": "28.2.03", "zm": "Metrópoli municipal de Ciudad Victoria", "NOM_MET": "Ciudad Victoria" }, "geometry": { "type": "Point", "coordinates": [ -99.129091760397387, 23.688940285174173 ] } },
{ "type": "Feature", "properties": { "zm_id": "28.2.04", "zm": "Metrópoli municipal de Matamoros", "NOM_MET": "Matamoros" }, "geometry": { "type": "Point", "coordinates": [ -97.490474460242524, 25.556315964851002 ] } },
{ "type": "Feature", "properties": { "zm_id": "28.2.05", "zm": "Metrópoli municipal de Nuevo Laredo", "NOM_MET": "Nuevo Laredo" }, "geometry": { "type": "Point", "coordinates": [ -99.676720893055574, 27.474973964658655 ] } },
{ "type": "Feature", "properties": { "zm_id": "29.1.01", "zm": "Zona metropolitana de Tlaxcala-Apizaco", "NOM_MET": "Tlaxcala-Apizaco" }, "geometry": { "type": "Point", "coordinates": [ -98.098565607907688, 19.48017705998792 ] } },
{ "type": "Feature", "properties": { "zm_id": "29.3.02", "zm": "Zona conurbada de Huamantla", "NOM_MET": "Huamantla" }, "geometry": { "type": "Point", "coordinates": [ -97.914566536921257, 19.323331920269894 ] } },
{ "type": "Feature", "properties": { "zm_id": "30.1.01", "zm": "Zona metropolitana de Coatzacoalcos", "NOM_MET": "Coatzacoalcos" }, "geometry": { "type": "Point", "coordinates": [ -94.369316948633212, 18.055093989883481 ] } },
{ "type": "Feature", "properties": { "zm_id": "30.1.02", "zm": "Zona metropolitana de Córdoba", "NOM_MET": "Cordoba" }, "geometry": { "type": "Point", "coordinates": [ -96.901313942969068, 18.886781455452741 ] } },
{ "type": "Feature", "properties": { "zm_id": "30.1.03", "zm": "Zona metropolitana de Minatitlán", "NOM_MET": "Minatitlán" }, "geometry": { "type": "Point", "coordinates": [ -94.39796195889619, 17.729549169638311 ] } },
{ "type": "Feature", "properties": { "zm_id": "30.1.04", "zm": "Zona metropolitana de Orizaba", "NOM_MET": "Orizaba" }, "geometry": { "type": "Point", "coordinates": [ -97.140779835306105, 18.802468744904154 ] } },
{ "type": "Feature", "properties": { "zm_id": "30.1.05", "zm": "Zona metropolitana de Poza Rica", "NOM_MET": "Poza Rica" }, "geometry": { "type": "Point", "coordinates": [ -97.565688469638232, 20.608033225128306 ] } },
{ "type": "Feature", "properties": { "zm_id": "30.1.06", "zm": "Zona metropolitana de Veracruz", "NOM_MET": "Veracruz" }, "geometry": { "type": "Point", "coordinates": [ -96.247234192517524, 19.052434012869966 ] } },
{ "type": "Feature", "properties": { "zm_id": "30.1.07", "zm": "Zona metropolitana de Xalapa", "NOM_MET": "Xalapa" }, "geometry": { "type": "Point", "coordinates": [ -96.939525930008955, 19.532740884986801 ] } },
{ "type": "Feature", "properties": { "zm_id": "30.3.08", "zm": "Zona conurbada de Acayucan", "NOM_MET": "Acayucan" }, "geometry": { "type": "Point", "coordinates": [ -94.989209231815835, 17.992336870215418 ] } },
{ "type": "Feature", "properties": { "zm_id": "31.1.01", "zm": "Zona metropolitana de Mérida", "NOM_MET": "Mérida" }, "geometry": { "type": "Point", "coordinates": [ -89.711342633293526, 20.962511200465563 ] } },
{ "type": "Feature", "properties": { "zm_id": "31.3.02", "zm": "Zona conurbada de Valladolid", "NOM_MET": "Valladolid" }, "geometry": { "type": "Point", "coordinates": [ -88.12049045463246, 20.602082061295288 ] } },
{ "type": "Feature", "properties": { "zm_id": "32.1.01", "zm": "Zona metropolitana de Zacatecas-Guadalupe", "NOM_MET": "Zacatecas-Guadalupe" }, "geometry": { "type": "Point", "coordinates": [ -102.504101284723816, 22.782614744667377 ] } }
]
}
