{
"type": "FeatureCollection",
"name": "M11.01",
"crs": { "type": "name", "properties": { "name": "urn:ogc:def:crs:OGC:1.3:CRS84" } },
"features": [
{ "type": "Feature", "properties": { "difference_1990_2000": 0.0, "difference_1990_2010": 272.0, "difference_1990_2020": 1404.0 }, "geometry": { "type": "Polygon", "coordinates": [ [ [ -100.82761774119804, 20.494884371805767 ], [ -100.823045267489718, 20.49488437180576 ], [ -100.823045267489718, 20.490735064585461 ], [ -100.82761774119804, 20.490735064585461 ], [ -100.82761774119804, 20.494884371805767 ] ] ] } },
{ "type": "Feature", "properties": { "difference_1990_2000": 2.0, "difference_1990_2010": 233.0, "difference_1990_2020": 1608.0 }, "geometry": { "type": "Polygon", "coordinates": [ [ [ -100.82761774119804, 20.490735064585461 ], [ -100.823045267489718, 20.490735064585461 ], [ -100.823045267489718, 20.486585868337528 ], [ -100.82761774119804, 20.486585868337503 ], [ -100.82761774119804, 20.490735064585461 ] ] ] } },
{ "type": "Feature", "properties": { "difference_1990_2000": 0.0, "difference_1990_2010": 200.0, "difference_1990_2020": 245.0 }, "geometry": { "type": "Polygon", "coordinates": [ [ [ -100.82761774119804, 20.569590912860939 ], [ -100.823045267489718, 20.569590912860939 ], [ -100.823045267489718, 20.565439602913852 ], [ -100.82761774119804, 20.565439602913848 ], [ -100.82761774119804, 20.569590912860939 ] ] ] } },
{ "type": "Feature", "properties": { "difference_1990_2000": -257.0, "difference_1990_2010": -726.0, "difference_1990_2020": -906.0 }, "geometry": { "type": "Polygon", "coordinates": [ [ [ -100.82761774119804, 20.523932632137249 ], [ -100.823045267489718, 20.523932632137203 ], [ -100.823045267489718, 20.519782547255772 ], [ -100.82761774119804, 20.519782547255772 ], [ -100.82761774119804, 20.523932632137249 ] ] ] } },
{ "type": "Feature", "properties": { "difference_1990_2000": 226.0, "difference_1990_2010": 302.0, "difference_1990_2020": 388.0 }, "geometry": { "type": "Polygon", "coordinates": [ [ [ -100.82761774119804, 20.503183319285412 ], [ -100.823045267489718, 20.503183319285412 ], [ -100.823045267489718, 20.499033790028896 ], [ -100.82761774119804, 20.499033790028882 ], [ -100.82761774119804, 20.503183319285412 ] ] ] } },
{ "type": "Feature", "properties": { "difference_1990_2000": -98.0, "difference_1990_2010": -148.0, "difference_1990_2020": -498.0 }, "geometry": { "type": "Polygon", "coordinates": [ [ [ -100.82761774119804, 20.548835478045831 ], [ -100.823045267489718, 20.548835478045788 ], [ -100.823045267489718, 20.544684725405748 ], [ -100.82761774119804, 20.54468472540578 ], [ -100.82761774119804, 20.548835478045831 ] ] ] } },
{ "type": "Feature", "properties": { "difference_1990_2000": 0.0, "difference_1990_2010": 38.0, "difference_1990_2020": 103.0 }, "geometry": { "type": "Polygon", "coordinates": [ [ [ -100.82761774119804, 20.573742334361274 ], [ -100.823045267489718, 20.57374233436127 ], [ -100.823045267489718, 20.569590912860939 ], [ -100.82761774119804, 20.569590912860939 ], [ -100.82761774119804, 20.573742334361274 ] ] ] } },
{ "type": "Feature", "properties": { "difference_1990_2000": 0.0, "difference_1990_2010": 0.0, "difference_1990_2020": 1.0 }, "geometry": { "type": "Polygon", "coordinates": [ [ [ -100.82761774119804, 20.486585868337503 ], [ -100.823045267489718, 20.486585868337528 ], [ -100.823045267489718, 20.482436783031353 ], [ -100.82761774119804, 20.482436783031357 ], [ -100.82761774119804, 20.486585868337503 ] ] ] } },
{ "type": "Feature", "properties": { "difference_1990_2000": 933.0, "difference_1990_2010": 896.0, "difference_1990_2020": 688.0 }, "geometry": { "type": "Polygon", "coordinates": [ [ [ -100.82761774119804, 20.51148271102063 ], [ -100.823045267489718, 20.511482711020623 ], [ -100.823045267489718, 20.507332959605794 ], [ -100.82761774119804, 20.507332959605794 ], [ -100.82761774119804, 20.51148271102063 ] ] ] } },
{ "type": "Feature", "properties": { "difference_1990_2000": -129.0, "difference_1990_2010": -670.0, "difference_1990_2020": -910.0 }, "geometry": { "type": "Polygon", "coordinates": [ [ [ -100.82761774119804, 20.528082828235327 ], [ -100.823045267489718, 20.528082828235348 ], [ -100.823045267489718, 20.523932632137203 ], [ -100.82761774119804, 20.523932632137249 ], [ -100.82761774119804, 20.528082828235327 ] ] ] } },
{ "type": "Feature", "properties": { "difference_1990_2000": 902.0, "difference_1990_2010": 948.0, "difference_1990_2020": 819.0 }, "geometry": { "type": "Polygon", "coordinates": [ [ [ -100.82761774119804, 20.507332959605794 ], [ -100.823045267489718, 20.507332959605794 ], [ -100.823045267489718, 20.503183319285412 ], [ -100.82761774119804, 20.503183319285412 ], [ -100.82761774119804, 20.507332959605794 ] ] ] } },
{ "type": "Feature", "properties": { "difference_1990_2000": -251.0, "difference_1990_2010": -753.0, "difference_1990_2020": -1082.0 }, "geometry": { "type": "Polygon", "coordinates": [ [ [ -100.82761774119804, 20.53223313558065 ], [ -100.823045267489718, 20.532233135580647 ], [ -100.823045267489718, 20.528082828235348 ], [ -100.82761774119804, 20.528082828235327 ], [ -100.82761774119804, 20.53223313558065 ] ] ] } },
{ "type": "Feature", "properties": { "difference_1990_2000": 509.0, "difference_1990_2010": 154.0, "difference_1990_2020": -332.0 }, "geometry": { "type": "Polygon", "coordinates": [ [ [ -100.82761774119804, 20.54468472540578 ], [ -100.823045267489718, 20.544684725405748 ], [ -100.823045267489718, 20.540534084135299 ], [ -100.82761774119804, 20.540534084135267 ], [ -100.82761774119804, 20.54468472540578 ] ] ] } },
{ "type": "Feature", "properties": { "difference_1990_2000": 178.0, "difference_1990_2010": -178.0, "difference_1990_2020": -450.0 }, "geometry": { "type": "Polygon", "coordinates": [ [ [ -100.82761774119804, 20.515632573560424 ], [ -100.823045267489718, 20.515632573560435 ], [ -100.823045267489718, 20.511482711020623 ], [ -100.82761774119804, 20.51148271102063 ], [ -100.82761774119804, 20.515632573560424 ] ] ] } },
{ "type": "Feature", "properties": { "difference_1990_2000": -9.0, "difference_1990_2010": -175.0, "difference_1990_2020": -241.0 }, "geometry": { "type": "Polygon", "coordinates": [ [ [ -100.82761774119804, 20.519782547255772 ], [ -100.823045267489718, 20.519782547255772 ], [ -100.823045267489718, 20.515632573560435 ], [ -100.82761774119804, 20.515632573560424 ], [ -100.82761774119804, 20.519782547255772 ] ] ] } },
{ "type": "Feature", "properties": { "difference_1990_2000": -4.0, "difference_1990_2010": 686.0, "difference_1990_2020": 962.0 }, "geometry": { "type": "Polygon", "coordinates": [ [ [ -100.82761774119804, 20.565439602913848 ], [ -100.823045267489718, 20.565439602913852 ], [ -100.823045267489718, 20.561288404489421 ], [ -100.82761774119804, 20.561288404489421 ], [ -100.82761774119804, 20.565439602913848 ] ] ] } },
{ "type": "Feature", "properties": { "difference_1990_2000": -313.0, "difference_1990_2010": -423.0, "difference_1990_2020": -563.0 }, "geometry": { "type": "Polygon", "coordinates": [ [ [ -100.82761774119804, 20.53638355420378 ], [ -100.823045267489718, 20.53638355420378 ], [ -100.823045267489718, 20.532233135580647 ], [ -100.82761774119804, 20.53223313558065 ], [ -100.82761774119804, 20.53638355420378 ] ] ] } },
{ "type": "Feature", "properties": { "difference_1990_2000": 0.0, "difference_1990_2010": 2.0, "difference_1990_2020": 13.0 }, "geometry": { "type": "Polygon", "coordinates": [ [ [ -100.82761774119804, 20.499033790028882 ], [ -100.823045267489718, 20.499033790028896 ], [ -100.823045267489718, 20.49488437180576 ], [ -100.82761774119804, 20.494884371805767 ], [ -100.82761774119804, 20.499033790028882 ] ] ] } },
{ "type": "Feature", "properties": { "difference_1990_2000": 189.0, "difference_1990_2010": 291.0, "difference_1990_2020": 305.0 }, "geometry": { "type": "Polygon", "coordinates": [ [ [ -100.82761774119804, 20.557137317557054 ], [ -100.823045267489718, 20.557137317557054 ], [ -100.823045267489718, 20.552986342086022 ], [ -100.82761774119804, 20.552986342086069 ], [ -100.82761774119804, 20.557137317557054 ] ] ] } },
{ "type": "Feature", "properties": { "difference_1990_2000": 191.0, "difference_1990_2010": 593.0, "difference_1990_2020": 646.0 }, "geometry": { "type": "Polygon", "coordinates": [ [ [ -100.82761774119804, 20.552986342086069 ], [ -100.823045267489718, 20.552986342086022 ], [ -100.823045267489718, 20.548835478045788 ], [ -100.82761774119804, 20.548835478045831 ], [ -100.82761774119804, 20.552986342086069 ] ] ] } },
{ "type": "Feature", "properties": { "difference_1990_2000": 47.0, "difference_1990_2010": 107.0, "difference_1990_2020": 115.0 }, "geometry": { "type": "Polygon", "coordinates": [ [ [ -100.82761774119804, 20.561288404489421 ], [ -100.823045267489718, 20.561288404489421 ], [ -100.823045267489718, 20.557137317557054 ], [ -100.82761774119804, 20.557137317557054 ], [ -100.82761774119804, 20.561288404489421 ] ] ] } },
{ "type": "Feature", "properties": { "difference_1990_2000": 395.0, "difference_1990_2010": 158.0, "difference_1990_2020": -137.0 }, "geometry": { "type": "Polygon", "coordinates": [ [ [ -100.82761774119804, 20.540534084135267 ], [ -100.823045267489718, 20.540534084135299 ], [ -100.823045267489718, 20.53638355420378 ], [ -100.82761774119804, 20.53638355420378 ], [ -100.82761774119804, 20.540534084135267 ] ] ] } },
{ "type": "Feature", "properties": { "difference_1990_2000": -132.0, "difference_1990_2010": -263.0, "difference_1990_2020": -276.0 }, "geometry": { "type": "Polygon", "coordinates": [ [ [ -100.818472793781439, 20.540534084135295 ], [ -100.813900320073159, 20.540534084135292 ], [ -100.813900320073159, 20.536383554203784 ], [ -100.818472793781439, 20.53638355420378 ], [ -100.818472793781439, 20.540534084135295 ] ] ] } },
{ "type": "Feature", "properties": { "difference_1990_2000": 53.0, "difference_1990_2010": 142.0, "difference_1990_2020": 168.0 }, "geometry": { "type": "Polygon", "coordinates": [ [ [ -100.818472793781439, 20.494884371805767 ], [ -100.813900320073159, 20.494884371805767 ], [ -100.813900320073159, 20.490735064585461 ], [ -100.818472793781439, 20.490735064585461 ], [ -100.818472793781439, 20.494884371805767 ] ] ] } },
{ "type": "Feature", "properties": { "difference_1990_2000": 53.0, "difference_1990_2010": 126.0, "difference_1990_2020": 166.0 }, "geometry": { "type": "Polygon", "coordinates": [ [ [ -100.818472793781439, 20.490735064585461 ], [ -100.813900320073159, 20.490735064585461 ], [ -100.813900320073159, 20.486585868337528 ], [ -100.818472793781439, 20.486585868337528 ], [ -100.818472793781439, 20.490735064585461 ] ] ] } },
{ "type": "Feature", "properties": { "difference_1990_2000": 0.0, "difference_1990_2010": 12.0, "difference_1990_2020": 123.0 }, "geometry": { "type": "Polygon", "coordinates": [ [ [ -100.818472793781439, 20.569590912860939 ], [ -100.813900320073159, 20.569590912860932 ], [ -100.813900320073159, 20.565439602913841 ], [ -100.818472793781439, 20.565439602913855 ], [ -100.818472793781439, 20.569590912860939 ] ] ] } },
{ "type": "Feature", "properties": { "difference_1990_2000": -389.0, "difference_1990_2010": -825.0, "difference_1990_2020": -1037.0 }, "geometry": { "type": "Polygon", "coordinates": [ [ [ -100.818472793781439, 20.523932632137242 ], [ -100.813900320073159, 20.523932632137246 ], [ -100.813900320073159, 20.519782547255772 ], [ -100.818472793781439, 20.519782547255769 ], [ -100.818472793781439, 20.523932632137242 ] ] ] } },
{ "type": "Feature", "properties": { "difference_1990_2000": -72.0, "difference_1990_2010": -31.0, "difference_1990_2020": -120.0 }, "geometry": { "type": "Polygon", "coordinates": [ [ [ -100.818472793781439, 20.503183319285416 ], [ -100.813900320073159, 20.503183319285412 ], [ -100.813900320073159, 20.4990337900289 ], [ -100.818472793781439, 20.4990337900289 ], [ -100.818472793781439, 20.503183319285416 ] ] ] } },
{ "type": "Feature", "properties": { "difference_1990_2000": 132.0, "difference_1990_2010": 531.0, "difference_1990_2020": 474.0 }, "geometry": { "type": "Polygon", "coordinates": [ [ [ -100.818472793781439, 20.548835478045827 ], [ -100.813900320073159, 20.548835478045792 ], [ -100.813900320073159, 20.54468472540578 ], [ -100.818472793781439, 20.544684725405777 ], [ -100.818472793781439, 20.548835478045827 ] ] ] } },
{ "type": "Feature", "properties": { "difference_1990_2000": 16.0, "difference_1990_2010": -157.0, "difference_1990_2020": -227.0 }, "geometry": { "type": "Polygon", "coordinates": [ [ [ -100.818472793781439, 20.507332959605776 ], [ -100.813900320073159, 20.507332959605776 ], [ -100.813900320073159, 20.503183319285412 ], [ -100.818472793781439, 20.503183319285416 ], [ -100.818472793781439, 20.507332959605776 ] ] ] } },
{ "type": "Feature", "properties": { "difference_1990_2000": 0.0, "difference_1990_2010": 143.0, "difference_1990_2020": 217.0 }, "geometry": { "type": "Polygon", "coordinates": [ [ [ -100.818472793781439, 20.573742334361274 ], [ -100.813900320073159, 20.573742334361278 ], [ -100.813900320073159, 20.569590912860932 ], [ -100.818472793781439, 20.569590912860939 ], [ -100.818472793781439, 20.573742334361274 ] ] ] } },
{ "type": "Feature", "properties": { "difference_1990_2000": 93.0, "difference_1990_2010": -200.0, "difference_1990_2020": -340.0 }, "geometry": { "type": "Polygon", "coordinates": [ [ [ -100.818472793781439, 20.511482711020623 ], [ -100.813900320073159, 20.511482711020623 ], [ -100.813900320073159, 20.507332959605776 ], [ -100.818472793781439, 20.507332959605776 ], [ -100.818472793781439, 20.511482711020623 ] ] ] } },
{ "type": "Feature", "properties": { "difference_1990_2000": 4.0, "difference_1990_2010": 10.0, "difference_1990_2020": 14.0 }, "geometry": { "type": "Polygon", "coordinates": [ [ [ -100.818472793781439, 20.486585868337528 ], [ -100.813900320073159, 20.486585868337528 ], [ -100.813900320073159, 20.482436783031371 ], [ -100.818472793781439, 20.482436783031371 ], [ -100.818472793781439, 20.486585868337528 ] ] ] } },
{ "type": "Feature", "properties": { "difference_1990_2000": -313.0, "difference_1990_2010": -689.0, "difference_1990_2020": -898.0 }, "geometry": { "type": "Polygon", "coordinates": [ [ [ -100.818472793781439, 20.528082828235345 ], [ -100.813900320073159, 20.528082828235341 ], [ -100.813900320073159, 20.523932632137246 ], [ -100.818472793781439, 20.523932632137242 ], [ -100.818472793781439, 20.528082828235345 ] ] ] } },
{ "type": "Feature", "properties": { "difference_1990_2000": -366.0, "difference_1990_2010": -727.0, "difference_1990_2020": -838.0 }, "geometry": { "type": "Polygon", "coordinates": [ [ [ -100.818472793781439, 20.532233135580647 ], [ -100.813900320073159, 20.53223313558065 ], [ -100.813900320073159, 20.528082828235341 ], [ -100.818472793781439, 20.528082828235345 ], [ -100.818472793781439, 20.532233135580647 ] ] ] } },
{ "type": "Feature", "properties": { "difference_1990_2000": 0.0, "difference_1990_2010": 25.0, "difference_1990_2020": 31.0 }, "geometry": { "type": "Polygon", "coordinates": [ [ [ -100.818472793781439, 20.582045512144404 ], [ -100.813900320073159, 20.582045512144372 ], [ -100.813900320073159, 20.577893867445511 ], [ -100.818472793781439, 20.577893867445528 ], [ -100.818472793781439, 20.582045512144404 ] ] ] } },
{ "type": "Feature", "properties": { "difference_1990_2000": -39.0, "difference_1990_2010": -666.0, "difference_1990_2020": -766.0 }, "geometry": { "type": "Polygon", "coordinates": [ [ [ -100.818472793781439, 20.544684725405777 ], [ -100.813900320073159, 20.54468472540578 ], [ -100.813900320073159, 20.540534084135292 ], [ -100.818472793781439, 20.540534084135295 ], [ -100.818472793781439, 20.544684725405777 ] ] ] } },
{ "type": "Feature", "properties": { "difference_1990_2000": -588.0, "difference_1990_2010": -1081.0, "difference_1990_2020": -1361.0 }, "geometry": { "type": "Polygon", "coordinates": [ [ [ -100.818472793781439, 20.519782547255769 ], [ -100.813900320073159, 20.519782547255772 ], [ -100.813900320073159, 20.515632573560435 ], [ -100.818472793781439, 20.515632573560442 ], [ -100.818472793781439, 20.519782547255769 ] ] ] } },
{ "type": "Feature", "properties": { "difference_1990_2000": -573.0, "difference_1990_2010": -1224.0, "difference_1990_2020": -1543.0 }, "geometry": { "type": "Polygon", "coordinates": [ [ [ -100.818472793781439, 20.515632573560442 ], [ -100.813900320073159, 20.515632573560435 ], [ -100.813900320073159, 20.511482711020623 ], [ -100.818472793781439, 20.511482711020623 ], [ -100.818472793781439, 20.515632573560442 ] ] ] } },
{ "type": "Feature", "properties": { "difference_1990_2000": 0.0, "difference_1990_2010": 165.0, "difference_1990_2020": 204.0 }, "geometry": { "type": "Polygon", "coordinates": [ [ [ -100.818472793781439, 20.577893867445528 ], [ -100.813900320073159, 20.577893867445511 ], [ -100.813900320073159, 20.573742334361278 ], [ -100.818472793781439, 20.573742334361274 ], [ -100.818472793781439, 20.577893867445528 ] ] ] } },
{ "type": "Feature", "properties": { "difference_1990_2000": 0.0, "difference_1990_2010": 39.0, "difference_1990_2020": 133.0 }, "geometry": { "type": "Polygon", "coordinates": [ [ [ -100.818472793781439, 20.565439602913855 ], [ -100.813900320073159, 20.565439602913841 ], [ -100.813900320073159, 20.561288404489421 ], [ -100.818472793781439, 20.561288404489424 ], [ -100.818472793781439, 20.565439602913855 ] ] ] } },
{ "type": "Feature", "properties": { "difference_1990_2000": -128.0, "difference_1990_2010": -91.0, "difference_1990_2020": -77.0 }, "geometry": { "type": "Polygon", "coordinates": [ [ [ -100.818472793781439, 20.53638355420378 ], [ -100.813900320073159, 20.536383554203784 ], [ -100.813900320073159, 20.53223313558065 ], [ -100.818472793781439, 20.532233135580647 ], [ -100.818472793781439, 20.53638355420378 ] ] ] } },
{ "type": "Feature", "properties": { "difference_1990_2000": 45.0, "difference_1990_2010": 245.0, "difference_1990_2020": 173.0 }, "geometry": { "type": "Polygon", "coordinates": [ [ [ -100.818472793781439, 20.4990337900289 ], [ -100.813900320073159, 20.4990337900289 ], [ -100.813900320073159, 20.494884371805767 ], [ -100.818472793781439, 20.494884371805767 ], [ -100.818472793781439, 20.4990337900289 ] ] ] } },
{ "type": "Feature", "properties": { "difference_1990_2000": 188.0, "difference_1990_2010": 206.0, "difference_1990_2020": 209.0 }, "geometry": { "type": "Polygon", "coordinates": [ [ [ -100.818472793781439, 20.557137317557054 ], [ -100.813900320073159, 20.557137317557054 ], [ -100.813900320073159, 20.552986342086079 ], [ -100.818472793781439, 20.552986342086069 ], [ -100.818472793781439, 20.557137317557054 ] ] ] } },
{ "type": "Feature", "properties": { "difference_1990_2000": 139.0, "difference_1990_2010": 444.0, "difference_1990_2020": 401.0 }, "geometry": { "type": "Polygon", "coordinates": [ [ [ -100.818472793781439, 20.552986342086069 ], [ -100.813900320073159, 20.552986342086079 ], [ -100.813900320073159, 20.548835478045792 ], [ -100.818472793781439, 20.548835478045827 ], [ -100.818472793781439, 20.552986342086069 ] ] ] } },
{ "type": "Feature", "properties": { "difference_1990_2000": -15.0, "difference_1990_2010": 16.0, "difference_1990_2020": 40.0 }, "geometry": { "type": "Polygon", "coordinates": [ [ [ -100.818472793781439, 20.561288404489424 ], [ -100.813900320073159, 20.561288404489421 ], [ -100.813900320073159, 20.557137317557054 ], [ -100.818472793781439, 20.557137317557054 ], [ -100.818472793781439, 20.561288404489424 ] ] ] } },
{ "type": "Feature", "properties": { "difference_1990_2000": 941.0, "difference_1990_2010": 838.0, "difference_1990_2020": 773.0 }, "geometry": { "type": "Polygon", "coordinates": [ [ [ -100.80932784636488, 20.540534084135295 ], [ -100.804755372656601, 20.540534084135299 ], [ -100.804755372656601, 20.53638355420378 ], [ -100.80932784636488, 20.53638355420378 ], [ -100.80932784636488, 20.540534084135295 ] ] ] } },
{ "type": "Feature", "properties": { "difference_1990_2000": 927.0, "difference_1990_2010": 1153.0, "difference_1990_2020": 1096.0 }, "geometry": { "type": "Polygon", "coordinates": [ [ [ -100.80932784636488, 20.494884371805767 ], [ -100.804755372656601, 20.494884371805764 ], [ -100.804755372656601, 20.490735064585461 ], [ -100.80932784636488, 20.490735064585461 ], [ -100.80932784636488, 20.494884371805767 ] ] ] } },
{ "type": "Feature", "properties": { "difference_1990_2000": -447.0, "difference_1990_2010": -949.0, "difference_1990_2020": -1070.0 }, "geometry": { "type": "Polygon", "coordinates": [ [ [ -100.80932784636488, 20.523932632137246 ], [ -100.804755372656601, 20.523932632137246 ], [ -100.804755372656601, 20.519782547255772 ], [ -100.80932784636488, 20.519782547255772 ], [ -100.80932784636488, 20.523932632137246 ] ] ] } },
{ "type": "Feature", "properties": { "difference_1990_2000": 777.0, "difference_1990_2010": 1060.0, "difference_1990_2020": 1078.0 }, "geometry": { "type": "Polygon", "coordinates": [ [ [ -100.80932784636488, 20.503183319285409 ], [ -100.804755372656601, 20.503183319285412 ], [ -100.804755372656601, 20.4990337900289 ], [ -100.80932784636488, 20.499033790028896 ], [ -100.80932784636488, 20.503183319285409 ] ] ] } },
{ "type": "Feature", "properties": { "difference_1990_2000": 611.0, "difference_1990_2010": 1131.0, "difference_1990_2020": 1180.0 }, "geometry": { "type": "Polygon", "coordinates": [ [ [ -100.80932784636488, 20.548835478045827 ], [ -100.804755372656601, 20.548835478045827 ], [ -100.804755372656601, 20.544684725405791 ], [ -100.80932784636488, 20.544684725405794 ], [ -100.80932784636488, 20.548835478045827 ] ] ] } },
{ "type": "Feature", "properties": { "difference_1990_2000": 488.0, "difference_1990_2010": 794.0, "difference_1990_2020": 895.0 }, "geometry": { "type": "Polygon", "coordinates": [ [ [ -100.80932784636488, 20.507332959605773 ], [ -100.804755372656601, 20.50733295960579 ], [ -100.804755372656601, 20.503183319285412 ], [ -100.80932784636488, 20.503183319285409 ], [ -100.80932784636488, 20.507332959605773 ] ] ] } },
{ "type": "Feature", "properties": { "difference_1990_2000": 548.0, "difference_1990_2010": 605.0, "difference_1990_2020": 636.0 }, "geometry": { "type": "Polygon", "coordinates": [ [ [ -100.80932784636488, 20.511482711020619 ], [ -100.804755372656601, 20.511482711020658 ], [ -100.804755372656601, 20.50733295960579 ], [ -100.80932784636488, 20.507332959605773 ], [ -100.80932784636488, 20.511482711020619 ] ] ] } },
{ "type": "Feature", "properties": { "difference_1990_2000": -212.0, "difference_1990_2010": -539.0, "difference_1990_2020": -626.0 }, "geometry": { "type": "Polygon", "coordinates": [ [ [ -100.80932784636488, 20.528082828235348 ], [ -100.804755372656601, 20.528082828235345 ], [ -100.804755372656601, 20.523932632137246 ], [ -100.80932784636488, 20.523932632137246 ], [ -100.80932784636488, 20.528082828235348 ] ] ] } },
{ "type": "Feature", "properties": { "difference_1990_2000": -278.0, "difference_1990_2010": -610.0, "difference_1990_2020": -706.0 }, "geometry": { "type": "Polygon", "coordinates": [ [ [ -100.80932784636488, 20.532233135580647 ], [ -100.804755372656601, 20.532233135580647 ], [ -100.804755372656601, 20.528082828235345 ], [ -100.80932784636488, 20.528082828235348 ], [ -100.80932784636488, 20.532233135580647 ] ] ] } },
{ "type": "Feature", "properties": { "difference_1990_2000": 1079.0, "difference_1990_2010": 1447.0, "difference_1990_2020": 1509.0 }, "geometry": { "type": "Polygon", "coordinates": [ [ [ -100.80932784636488, 20.544684725405794 ], [ -100.804755372656601, 20.544684725405791 ], [ -100.804755372656601, 20.540534084135299 ], [ -100.80932784636488, 20.540534084135295 ], [ -100.80932784636488, 20.544684725405794 ] ] ] } },
{ "type": "Feature", "properties": { "difference_1990_2000": 63.0, "difference_1990_2010": -256.0, "difference_1990_2020": -382.0 }, "geometry": { "type": "Polygon", "coordinates": [ [ [ -100.80932784636488, 20.515632573560424 ], [ -100.804755372656601, 20.515632573560438 ], [ -100.804755372656601, 20.511482711020658 ], [ -100.80932784636488, 20.511482711020619 ], [ -100.80932784636488, 20.515632573560424 ] ] ] } },
{ "type": "Feature", "properties": { "difference_1990_2000": -164.0, "difference_1990_2010": -497.0, "difference_1990_2020": -608.0 }, "geometry": { "type": "Polygon", "coordinates": [ [ [ -100.80932784636488, 20.519782547255772 ], [ -100.804755372656601, 20.519782547255772 ], [ -100.804755372656601, 20.515632573560438 ], [ -100.80932784636488, 20.515632573560424 ], [ -100.80932784636488, 20.519782547255772 ] ] ] } },
{ "type": "Feature", "properties": { "difference_1990_2000": 19.0, "difference_1990_2010": -9.0, "difference_1990_2020": 163.0 }, "geometry": { "type": "Polygon", "coordinates": [ [ [ -100.80932784636488, 20.565439602913806 ], [ -100.804755372656601, 20.565439602913813 ], [ -100.804755372656601, 20.561288404489424 ], [ -100.80932784636488, 20.561288404489421 ], [ -100.80932784636488, 20.565439602913806 ] ] ] } },
{ "type": "Feature", "properties": { "difference_1990_2000": 542.0, "difference_1990_2010": 428.0, "difference_1990_2020": 370.0 }, "geometry": { "type": "Polygon", "coordinates": [ [ [ -100.80932784636488, 20.53638355420378 ], [ -100.804755372656601, 20.53638355420378 ], [ -100.804755372656601, 20.532233135580647 ], [ -100.80932784636488, 20.532233135580647 ], [ -100.80932784636488, 20.53638355420378 ] ] ] } },
{ "type": "Feature", "properties": { "difference_1990_2000": 1110.0, "difference_1990_2010": 1374.0, "difference_1990_2020": 1296.0 }, "geometry": { "type": "Polygon", "coordinates": [ [ [ -100.80932784636488, 20.499033790028896 ], [ -100.804755372656601, 20.4990337900289 ], [ -100.804755372656601, 20.494884371805764 ], [ -100.80932784636488, 20.494884371805767 ], [ -100.80932784636488, 20.499033790028896 ] ] ] } },
{ "type": "Feature", "properties": { "difference_1990_2000": 179.0, "difference_1990_2010": 281.0, "difference_1990_2020": 385.0 }, "geometry": { "type": "Polygon", "coordinates": [ [ [ -100.80932784636488, 20.55713731755705 ], [ -100.804755372656601, 20.55713731755705 ], [ -100.804755372656601, 20.552986342086061 ], [ -100.80932784636488, 20.552986342086065 ], [ -100.80932784636488, 20.55713731755705 ] ] ] } },
{ "type": "Feature", "properties": { "difference_1990_2000": 154.0, "difference_1990_2010": 371.0, "difference_1990_2020": 342.0 }, "geometry": { "type": "Polygon", "coordinates": [ [ [ -100.80932784636488, 20.552986342086065 ], [ -100.804755372656601, 20.552986342086061 ], [ -100.804755372656601, 20.548835478045827 ], [ -100.80932784636488, 20.548835478045827 ], [ -100.80932784636488, 20.552986342086065 ] ] ] } },
{ "type": "Feature", "properties": { "difference_1990_2000": 128.0, "difference_1990_2010": 301.0, "difference_1990_2020": 1065.0 }, "geometry": { "type": "Polygon", "coordinates": [ [ [ -100.80932784636488, 20.561288404489421 ], [ -100.804755372656601, 20.561288404489424 ], [ -100.804755372656601, 20.55713731755705 ], [ -100.80932784636488, 20.55713731755705 ], [ -100.80932784636488, 20.561288404489421 ] ] ] } },
{ "type": "Feature", "properties": { "difference_1990_2000": 1111.0, "difference_1990_2010": 1038.0, "difference_1990_2020": 751.0 }, "geometry": { "type": "Polygon", "coordinates": [ [ [ -100.800182898948336, 20.540534084135302 ], [ -100.795610425240056, 20.540534084135292 ], [ -100.795610425240056, 20.536383554203784 ], [ -100.800182898948336, 20.536383554203788 ], [ -100.800182898948336, 20.540534084135302 ] ] ] } },
{ "type": "Feature", "properties": { "difference_1990_2000": -466.0, "difference_1990_2010": -1025.0, "difference_1990_2020": -1567.0 }, "geometry": { "type": "Polygon", "coordinates": [ [ [ -100.800182898948336, 20.523932632137246 ], [ -100.795610425240056, 20.523932632137242 ], [ -100.795610425240056, 20.519782547255772 ], [ -100.800182898948336, 20.519782547255769 ], [ -100.800182898948336, 20.523932632137246 ] ] ] } },
{ "type": "Feature", "properties": { "difference_1990_2000": 616.0, "difference_1990_2010": 803.0, "difference_1990_2020": 892.0 }, "geometry": { "type": "Polygon", "coordinates": [ [ [ -100.800182898948336, 20.503183319285391 ], [ -100.795610425240056, 20.503183319285416 ], [ -100.795610425240056, 20.499033790028893 ], [ -100.800182898948336, 20.499033790028903 ], [ -100.800182898948336, 20.503183319285391 ] ] ] } },
{ "type": "Feature", "properties": { "difference_1990_2000": 198.0, "difference_1990_2010": 237.0, "difference_1990_2020": 166.0 }, "geometry": { "type": "Polygon", "coordinates": [ [ [ -100.800182898948336, 20.548835478045792 ], [ -100.795610425240056, 20.548835478045792 ], [ -100.795610425240056, 20.544684725405773 ], [ -100.800182898948336, 20.54468472540578 ], [ -100.800182898948336, 20.548835478045792 ] ] ] } },
{ "type": "Feature", "properties": { "difference_1990_2000": 655.0, "difference_1990_2010": 550.0, "difference_1990_2020": 458.0 }, "geometry": { "type": "Polygon", "coordinates": [ [ [ -100.800182898948336, 20.511482711020609 ], [ -100.795610425240056, 20.511482711020623 ], [ -100.795610425240056, 20.50733295960578 ], [ -100.800182898948336, 20.50733295960578 ], [ -100.800182898948336, 20.511482711020609 ] ] ] } },
{ "type": "Feature", "properties": { "difference_1990_2000": 1132.0, "difference_1990_2010": 1480.0, "difference_1990_2020": 1638.0 }, "geometry": { "type": "Polygon", "coordinates": [ [ [ -100.800182898948336, 20.50733295960578 ], [ -100.795610425240056, 20.50733295960578 ], [ -100.795610425240056, 20.503183319285416 ], [ -100.800182898948336, 20.503183319285391 ], [ -100.800182898948336, 20.50733295960578 ] ] ] } },
{ "type": "Feature", "properties": { "difference_1990_2000": 484.0, "difference_1990_2010": 215.0, "difference_1990_2020": -148.0 }, "geometry": { "type": "Polygon", "coordinates": [ [ [ -100.800182898948336, 20.528082828235348 ], [ -100.795610425240056, 20.528082828235345 ], [ -100.795610425240056, 20.523932632137242 ], [ -100.800182898948336, 20.523932632137246 ], [ -100.800182898948336, 20.528082828235348 ] ] ] } },
{ "type": "Feature", "properties": { "difference_1990_2000": 907.0, "difference_1990_2010": 882.0, "difference_1990_2020": 663.0 }, "geometry": { "type": "Polygon", "coordinates": [ [ [ -100.800182898948336, 20.53223313558065 ], [ -100.795610425240056, 20.532233135580647 ], [ -100.795610425240056, 20.528082828235345 ], [ -100.800182898948336, 20.528082828235348 ], [ -100.800182898948336, 20.53223313558065 ] ] ] } },
{ "type": "Feature", "properties": { "difference_1990_2000": 404.0, "difference_1990_2010": 262.0, "difference_1990_2020": -11.0 }, "geometry": { "type": "Polygon", "coordinates": [ [ [ -100.800182898948336, 20.54468472540578 ], [ -100.795610425240056, 20.544684725405773 ], [ -100.795610425240056, 20.540534084135292 ], [ -100.800182898948336, 20.540534084135302 ], [ -100.800182898948336, 20.54468472540578 ] ] ] } },
{ "type": "Feature", "properties": { "difference_1990_2000": 27.0, "difference_1990_2010": -84.0, "difference_1990_2020": -245.0 }, "geometry": { "type": "Polygon", "coordinates": [ [ [ -100.800182898948336, 20.515632573560424 ], [ -100.795610425240056, 20.515632573560424 ], [ -100.795610425240056, 20.511482711020623 ], [ -100.800182898948336, 20.511482711020609 ], [ -100.800182898948336, 20.515632573560424 ] ] ] } },
{ "type": "Feature", "properties": { "difference_1990_2000": -114.0, "difference_1990_2010": -232.0, "difference_1990_2020": -337.0 }, "geometry": { "type": "Polygon", "coordinates": [ [ [ -100.800182898948336, 20.519782547255769 ], [ -100.795610425240056, 20.519782547255772 ], [ -100.795610425240056, 20.515632573560424 ], [ -100.800182898948336, 20.515632573560424 ], [ -100.800182898948336, 20.519782547255769 ] ] ] } },
{ "type": "Feature", "properties": { "difference_1990_2000": 38.0, "difference_1990_2010": 274.0, "difference_1990_2020": 353.0 }, "geometry": { "type": "Polygon", "coordinates": [ [ [ -100.800182898948336, 20.565439602913852 ], [ -100.795610425240056, 20.565439602913845 ], [ -100.795610425240056, 20.561288404489424 ], [ -100.800182898948336, 20.561288404489421 ], [ -100.800182898948336, 20.565439602913852 ] ] ] } },
{ "type": "Feature", "properties": { "difference_1990_2000": 551.0, "difference_1990_2010": 677.0, "difference_1990_2020": 520.0 }, "geometry": { "type": "Polygon", "coordinates": [ [ [ -100.800182898948336, 20.536383554203788 ], [ -100.795610425240056, 20.536383554203784 ], [ -100.795610425240056, 20.532233135580647 ], [ -100.800182898948336, 20.53223313558065 ], [ -100.800182898948336, 20.536383554203788 ] ] ] } },
{ "type": "Feature", "properties": { "difference_1990_2000": 200.0, "difference_1990_2010": 369.0, "difference_1990_2020": 504.0 }, "geometry": { "type": "Polygon", "coordinates": [ [ [ -100.800182898948336, 20.557137317557054 ], [ -100.795610425240056, 20.557137317557068 ], [ -100.795610425240056, 20.552986342086058 ], [ -100.800182898948336, 20.552986342086061 ], [ -100.800182898948336, 20.557137317557054 ] ] ] } },
{ "type": "Feature", "properties": { "difference_1990_2000": 274.0, "difference_1990_2010": 376.0, "difference_1990_2020": 361.0 }, "geometry": { "type": "Polygon", "coordinates": [ [ [ -100.800182898948336, 20.552986342086061 ], [ -100.795610425240056, 20.552986342086058 ], [ -100.795610425240056, 20.548835478045792 ], [ -100.800182898948336, 20.548835478045792 ], [ -100.800182898948336, 20.552986342086061 ] ] ] } },
{ "type": "Feature", "properties": { "difference_1990_2000": 105.0, "difference_1990_2010": 462.0, "difference_1990_2020": 875.0 }, "geometry": { "type": "Polygon", "coordinates": [ [ [ -100.800182898948336, 20.561288404489421 ], [ -100.795610425240056, 20.561288404489424 ], [ -100.795610425240056, 20.557137317557068 ], [ -100.800182898948336, 20.557137317557054 ], [ -100.800182898948336, 20.561288404489421 ] ] ] } },
{ "type": "Feature", "properties": { "difference_1990_2000": 4.0, "difference_1990_2010": 211.0, "difference_1990_2020": 218.0 }, "geometry": { "type": "Polygon", "coordinates": [ [ [ -100.791037951531806, 20.540534084135302 ], [ -100.786465477823526, 20.540534084135295 ], [ -100.786465477823526, 20.536383554203788 ], [ -100.791037951531806, 20.53638355420378 ], [ -100.791037951531806, 20.540534084135302 ] ] ] } },
{ "type": "Feature", "properties": { "difference_1990_2000": 80.0, "difference_1990_2010": 118.0, "difference_1990_2020": 130.0 }, "geometry": { "type": "Polygon", "coordinates": [ [ [ -100.791037951531806, 20.523932632137203 ], [ -100.786465477823526, 20.523932632137239 ], [ -100.786465477823526, 20.519782547255772 ], [ -100.791037951531806, 20.519782547255772 ], [ -100.791037951531806, 20.523932632137203 ] ] ] } },
{ "type": "Feature", "properties": { "difference_1990_2000": 62.0, "difference_1990_2010": 172.0, "difference_1990_2020": 154.0 }, "geometry": { "type": "Polygon", "coordinates": [ [ [ -100.791037951531806, 20.503183319285395 ], [ -100.786465477823526, 20.503183319285409 ], [ -100.786465477823526, 20.4990337900289 ], [ -100.791037951531806, 20.4990337900289 ], [ -100.791037951531806, 20.503183319285395 ] ] ] } },
{ "type": "Feature", "properties": { "difference_1990_2000": 667.0, "difference_1990_2010": 1665.0, "difference_1990_2020": 1831.0 }, "geometry": { "type": "Polygon", "coordinates": [ [ [ -100.791037951531806, 20.548835478045827 ], [ -100.786465477823526, 20.548835478045788 ], [ -100.786465477823526, 20.544684725405745 ], [ -100.791037951531806, 20.544684725405794 ], [ -100.791037951531806, 20.548835478045827 ] ] ] } },
{ "type": "Feature", "properties": { "difference_1990_2000": 328.0, "difference_1990_2010": 409.0, "difference_1990_2020": 585.0 }, "geometry": { "type": "Polygon", "coordinates": [ [ [ -100.791037951531806, 20.511482711020612 ], [ -100.786465477823526, 20.51148271102063 ], [ -100.786465477823526, 20.507332959605776 ], [ -100.791037951531806, 20.50733295960579 ], [ -100.791037951531806, 20.511482711020612 ] ] ] } },
{ "type": "Feature", "properties": { "difference_1990_2000": 836.0, "difference_1990_2010": 1517.0, "difference_1990_2020": 1872.0 }, "geometry": { "type": "Polygon", "coordinates": [ [ [ -100.791037951531806, 20.50733295960579 ], [ -100.786465477823526, 20.507332959605776 ], [ -100.786465477823526, 20.503183319285409 ], [ -100.791037951531806, 20.503183319285395 ], [ -100.791037951531806, 20.50733295960579 ] ] ] } },
{ "type": "Feature", "properties": { "difference_1990_2000": 89.0, "difference_1990_2010": 135.0, "difference_1990_2020": 164.0 }, "geometry": { "type": "Polygon", "coordinates": [ [ [ -100.791037951531806, 20.528082828235345 ], [ -100.786465477823526, 20.528082828235341 ], [ -100.786465477823526, 20.523932632137239 ], [ -100.791037951531806, 20.523932632137203 ], [ -100.791037951531806, 20.528082828235345 ] ] ] } },
{ "type": "Feature", "properties": { "difference_1990_2000": 314.0, "difference_1990_2010": 527.0, "difference_1990_2020": 810.0 }, "geometry": { "type": "Polygon", "coordinates": [ [ [ -100.791037951531806, 20.532233135580647 ], [ -100.786465477823526, 20.532233135580647 ], [ -100.786465477823526, 20.528082828235341 ], [ -100.791037951531806, 20.528082828235345 ], [ -100.791037951531806, 20.532233135580647 ] ] ] } },
{ "type": "Feature", "properties": { "difference_1990_2000": 520.0, "difference_1990_2010": 1172.0, "difference_1990_2020": 1331.0 }, "geometry": { "type": "Polygon", "coordinates": [ [ [ -100.791037951531806, 20.544684725405794 ], [ -100.786465477823526, 20.544684725405745 ], [ -100.786465477823526, 20.540534084135295 ], [ -100.791037951531806, 20.540534084135302 ], [ -100.791037951531806, 20.544684725405794 ] ] ] } },
{ "type": "Feature", "properties": { "difference_1990_2000": -333.0, "difference_1990_2010": -423.0, "difference_1990_2020": -436.0 }, "geometry": { "type": "Polygon", "coordinates": [ [ [ -100.791037951531806, 20.519782547255772 ], [ -100.786465477823526, 20.519782547255772 ], [ -100.786465477823526, 20.515632573560424 ], [ -100.791037951531806, 20.515632573560438 ], [ -100.791037951531806, 20.519782547255772 ] ] ] } },
{ "type": "Feature", "properties": { "difference_1990_2000": 42.0, "difference_1990_2010": 41.0, "difference_1990_2020": 68.0 }, "geometry": { "type": "Polygon", "coordinates": [ [ [ -100.791037951531806, 20.515632573560438 ], [ -100.786465477823526, 20.515632573560424 ], [ -100.786465477823526, 20.51148271102063 ], [ -100.791037951531806, 20.511482711020612 ], [ -100.791037951531806, 20.515632573560438 ] ] ] } },
{ "type": "Feature", "properties": { "difference_1990_2000": 442.0, "difference_1990_2010": 717.0, "difference_1990_2020": 835.0 }, "geometry": { "type": "Polygon", "coordinates": [ [ [ -100.791037951531806, 20.53638355420378 ], [ -100.786465477823526, 20.536383554203788 ], [ -100.786465477823526, 20.532233135580647 ], [ -100.791037951531806, 20.532233135580647 ], [ -100.791037951531806, 20.53638355420378 ] ] ] } },
{ "type": "Feature", "properties": { "difference_1990_2000": 159.0, "difference_1990_2010": 956.0, "difference_1990_2020": 1248.0 }, "geometry": { "type": "Polygon", "coordinates": [ [ [ -100.791037951531806, 20.55713731755705 ], [ -100.786465477823526, 20.55713731755705 ], [ -100.786465477823526, 20.552986342086065 ], [ -100.791037951531806, 20.552986342086061 ], [ -100.791037951531806, 20.55713731755705 ] ] ] } },
{ "type": "Feature", "properties": { "difference_1990_2000": 328.0, "difference_1990_2010": 1717.0, "difference_1990_2020": 1759.0 }, "geometry": { "type": "Polygon", "coordinates": [ [ [ -100.791037951531806, 20.552986342086061 ], [ -100.786465477823526, 20.552986342086065 ], [ -100.786465477823526, 20.548835478045788 ], [ -100.791037951531806, 20.548835478045827 ], [ -100.791037951531806, 20.552986342086061 ] ] ] } },
{ "type": "Feature", "properties": { "difference_1990_2000": 44.0, "difference_1990_2010": -10.0, "difference_1990_2020": -241.0 }, "geometry": { "type": "Polygon", "coordinates": [ [ [ -100.832190214906262, 20.540534084135299 ], [ -100.827617741197983, 20.54053408413527 ], [ -100.827617741197983, 20.536383554203784 ], [ -100.832190214906262, 20.53638355420378 ], [ -100.832190214906262, 20.540534084135299 ] ] ] } },
{ "type": "Feature", "properties": { "difference_1990_2000": 0.0, "difference_1990_2010": 0.0, "difference_1990_2020": 929.0 }, "geometry": { "type": "Polygon", "coordinates": [ [ [ -100.832190214906262, 20.494884371805771 ], [ -100.827617741197983, 20.494884371805767 ], [ -100.827617741197983, 20.490735064585461 ], [ -100.832190214906262, 20.490735064585461 ], [ -100.832190214906262, 20.494884371805771 ] ] ] } },
{ "type": "Feature", "properties": { "difference_1990_2000": 0.0, "difference_1990_2010": 0.0, "difference_1990_2020": 720.0 }, "geometry": { "type": "Polygon", "coordinates": [ [ [ -100.832190214906262, 20.490735064585461 ], [ -100.827617741197983, 20.490735064585461 ], [ -100.827617741197983, 20.4865858683375 ], [ -100.832190214906262, 20.486585868337507 ], [ -100.832190214906262, 20.490735064585461 ] ] ] } },
{ "type": "Feature", "properties": { "difference_1990_2000": 10.0, "difference_1990_2010": 53.0, "difference_1990_2020": 237.0 }, "geometry": { "type": "Polygon", "coordinates": [ [ [ -100.832190214906262, 20.569590912860939 ], [ -100.827617741197983, 20.569590912860921 ], [ -100.827617741197983, 20.565439602913848 ], [ -100.832190214906262, 20.565439602913845 ], [ -100.832190214906262, 20.569590912860939 ] ] ] } },
{ "type": "Feature", "properties": { "difference_1990_2000": 9.0, "difference_1990_2010": -171.0, "difference_1990_2020": -265.0 }, "geometry": { "type": "Polygon", "coordinates": [ [ [ -100.832190214906262, 20.523932632137239 ], [ -100.827617741197983, 20.523932632137246 ], [ -100.827617741197983, 20.519782547255769 ], [ -100.832190214906262, 20.519782547255772 ], [ -100.832190214906262, 20.523932632137239 ] ] ] } },
{ "type": "Feature", "properties": { "difference_1990_2000": 614.0, "difference_1990_2010": 965.0, "difference_1990_2020": 941.0 }, "geometry": { "type": "Polygon", "coordinates": [ [ [ -100.832190214906262, 20.503183319285387 ], [ -100.827617741197983, 20.503183319285416 ], [ -100.827617741197983, 20.499033790028879 ], [ -100.832190214906262, 20.499033790028896 ], [ -100.832190214906262, 20.503183319285387 ] ] ] } },
{ "type": "Feature", "properties": { "difference_1990_2000": 891.0, "difference_1990_2010": 1233.0, "difference_1990_2020": 1073.0 }, "geometry": { "type": "Polygon", "coordinates": [ [ [ -100.832190214906262, 20.548835478045831 ], [ -100.827617741197983, 20.548835478045792 ], [ -100.827617741197983, 20.54468472540578 ], [ -100.832190214906262, 20.544684725405769 ], [ -100.832190214906262, 20.548835478045831 ] ] ] } },
{ "type": "Feature", "properties": { "difference_1990_2000": 877.0, "difference_1990_2010": 1175.0, "difference_1990_2020": 1204.0 }, "geometry": { "type": "Polygon", "coordinates": [ [ [ -100.832190214906262, 20.507332959605773 ], [ -100.827617741197983, 20.507332959605769 ], [ -100.827617741197983, 20.503183319285416 ], [ -100.832190214906262, 20.503183319285387 ], [ -100.832190214906262, 20.507332959605773 ] ] ] } },
{ "type": "Feature", "properties": { "difference_1990_2000": 0.0, "difference_1990_2010": 0.0, "difference_1990_2020": 169.0 }, "geometry": { "type": "Polygon", "coordinates": [ [ [ -100.832190214906262, 20.573742334361274 ], [ -100.827617741197983, 20.573742334361274 ], [ -100.827617741197983, 20.569590912860921 ], [ -100.832190214906262, 20.569590912860939 ], [ -100.832190214906262, 20.573742334361274 ] ] ] } },
{ "type": "Feature", "properties": { "difference_1990_2000": 648.0, "difference_1990_2010": 806.0, "difference_1990_2020": 634.0 }, "geometry": { "type": "Polygon", "coordinates": [ [ [ -100.832190214906262, 20.511482711020626 ], [ -100.827617741197983, 20.511482711020626 ], [ -100.827617741197983, 20.507332959605769 ], [ -100.832190214906262, 20.507332959605773 ], [ -100.832190214906262, 20.511482711020626 ] ] ] } },
{ "type": "Feature", "properties": { "difference_1990_2000": 232.0, "difference_1990_2010": -169.0, "difference_1990_2020": -386.0 }, "geometry": { "type": "Polygon", "coordinates": [ [ [ -100.832190214906262, 20.528082828235345 ], [ -100.827617741197983, 20.528082828235327 ], [ -100.827617741197983, 20.523932632137246 ], [ -100.832190214906262, 20.523932632137239 ], [ -100.832190214906262, 20.528082828235345 ] ] ] } },
{ "type": "Feature", "properties": { "difference_1990_2000": -285.0, "difference_1990_2010": -394.0, "difference_1990_2020": -554.0 }, "geometry": { "type": "Polygon", "coordinates": [ [ [ -100.832190214906262, 20.532233135580647 ], [ -100.827617741197983, 20.532233135580647 ], [ -100.827617741197983, 20.528082828235327 ], [ -100.832190214906262, 20.528082828235345 ], [ -100.832190214906262, 20.532233135580647 ] ] ] } },
{ "type": "Feature", "properties": { "difference_1990_2000": 1021.0, "difference_1990_2010": 1027.0, "difference_1990_2020": 791.0 }, "geometry": { "type": "Polygon", "coordinates": [ [ [ -100.832190214906262, 20.544684725405769 ], [ -100.827617741197983, 20.54468472540578 ], [ -100.827617741197983, 20.54053408413527 ], [ -100.832190214906262, 20.540534084135299 ], [ -100.832190214906262, 20.544684725405769 ] ] ] } },
{ "type": "Feature", "properties": { "difference_1990_2000": -83.0, "difference_1990_2010": -217.0, "difference_1990_2020": -300.0 }, "geometry": { "type": "Polygon", "coordinates": [ [ [ -100.832190214906262, 20.519782547255772 ], [ -100.827617741197983, 20.519782547255769 ], [ -100.827617741197983, 20.515632573560424 ], [ -100.832190214906262, 20.515632573560442 ], [ -100.832190214906262, 20.519782547255772 ] ] ] } },
{ "type": "Feature", "properties": { "difference_1990_2000": 841.0, "difference_1990_2010": 868.0, "difference_1990_2020": 635.0 }, "geometry": { "type": "Polygon", "coordinates": [ [ [ -100.832190214906262, 20.515632573560442 ], [ -100.827617741197983, 20.515632573560424 ], [ -100.827617741197983, 20.511482711020626 ], [ -100.832190214906262, 20.511482711020626 ], [ -100.832190214906262, 20.515632573560442 ] ] ] } },
{ "type": "Feature", "properties": { "difference_1990_2000": 121.0, "difference_1990_2010": 441.0, "difference_1990_2020": 566.0 }, "geometry": { "type": "Polygon", "coordinates": [ [ [ -100.832190214906262, 20.565439602913845 ], [ -100.827617741197983, 20.565439602913848 ], [ -100.827617741197983, 20.561288404489417 ], [ -100.832190214906262, 20.561288404489424 ], [ -100.832190214906262, 20.565439602913845 ] ] ] } },
{ "type": "Feature", "properties": { "difference_1990_2000": 214.0, "difference_1990_2010": 623.0, "difference_1990_2020": 672.0 }, "geometry": { "type": "Polygon", "coordinates": [ [ [ -100.832190214906262, 20.557137317557014 ], [ -100.827617741197983, 20.557137317557054 ], [ -100.827617741197983, 20.552986342086069 ], [ -100.832190214906262, 20.552986342086061 ], [ -100.832190214906262, 20.557137317557014 ] ] ] } },
{ "type": "Feature", "properties": { "difference_1990_2000": -473.0, "difference_1990_2010": -511.0, "difference_1990_2020": -671.0 }, "geometry": { "type": "Polygon", "coordinates": [ [ [ -100.832190214906262, 20.53638355420378 ], [ -100.827617741197983, 20.536383554203784 ], [ -100.827617741197983, 20.532233135580647 ], [ -100.832190214906262, 20.532233135580647 ], [ -100.832190214906262, 20.53638355420378 ] ] ] } },
{ "type": "Feature", "properties": { "difference_1990_2000": 0.0, "difference_1990_2010": 0.0, "difference_1990_2020": 7.0 }, "geometry": { "type": "Polygon", "coordinates": [ [ [ -100.832190214906262, 20.499033790028896 ], [ -100.827617741197983, 20.499033790028879 ], [ -100.827617741197983, 20.494884371805767 ], [ -100.832190214906262, 20.494884371805771 ], [ -100.832190214906262, 20.499033790028896 ] ] ] } },
{ "type": "Feature", "properties": { "difference_1990_2000": 336.0, "difference_1990_2010": 899.0, "difference_1990_2020": 913.0 }, "geometry": { "type": "Polygon", "coordinates": [ [ [ -100.832190214906262, 20.552986342086061 ], [ -100.827617741197983, 20.552986342086069 ], [ -100.827617741197983, 20.548835478045792 ], [ -100.832190214906262, 20.548835478045831 ], [ -100.832190214906262, 20.552986342086061 ] ] ] } },
{ "type": "Feature", "properties": { "difference_1990_2000": 371.0, "difference_1990_2010": 947.0, "difference_1990_2020": 1002.0 }, "geometry": { "type": "Polygon", "coordinates": [ [ [ -100.832190214906262, 20.561288404489424 ], [ -100.827617741197983, 20.561288404489417 ], [ -100.827617741197983, 20.557137317557054 ], [ -100.832190214906262, 20.557137317557014 ], [ -100.832190214906262, 20.561288404489424 ] ] ] } },
{ "type": "Feature", "properties": { "difference_1990_2000": 1238.0, "difference_1990_2010": 801.0, "difference_1990_2020": 597.0 }, "geometry": { "type": "Polygon", "coordinates": [ [ [ -100.823045267489718, 20.540534084135299 ], [ -100.818472793781439, 20.540534084135295 ], [ -100.818472793781439, 20.53638355420378 ], [ -100.823045267489718, 20.53638355420378 ], [ -100.823045267489718, 20.540534084135299 ] ] ] } },
{ "type": "Feature", "properties": { "difference_1990_2000": 29.0, "difference_1990_2010": 972.0, "difference_1990_2020": 1506.0 }, "geometry": { "type": "Polygon", "coordinates": [ [ [ -100.823045267489718, 20.49488437180576 ], [ -100.818472793781439, 20.494884371805767 ], [ -100.818472793781439, 20.490735064585461 ], [ -100.823045267489718, 20.490735064585461 ], [ -100.823045267489718, 20.49488437180576 ] ] ] } },
{ "type": "Feature", "properties": { "difference_1990_2000": 46.0, "difference_1990_2010": 299.0, "difference_1990_2020": 511.0 }, "geometry": { "type": "Polygon", "coordinates": [ [ [ -100.823045267489718, 20.490735064585461 ], [ -100.818472793781439, 20.490735064585461 ], [ -100.818472793781439, 20.486585868337528 ], [ -100.823045267489718, 20.486585868337528 ], [ -100.823045267489718, 20.490735064585461 ] ] ] } },
{ "type": "Feature", "properties": { "difference_1990_2000": -632.0, "difference_1990_2010": -1322.0, "difference_1990_2020": -1554.0 }, "geometry": { "type": "Polygon", "coordinates": [ [ [ -100.823045267489718, 20.523932632137203 ], [ -100.818472793781439, 20.523932632137242 ], [ -100.818472793781439, 20.519782547255769 ], [ -100.823045267489718, 20.519782547255772 ], [ -100.823045267489718, 20.523932632137203 ] ] ] } },
{ "type": "Feature", "properties": { "difference_1990_2000": -2.0, "difference_1990_2010": 46.0, "difference_1990_2020": 229.0 }, "geometry": { "type": "Polygon", "coordinates": [ [ [ -100.823045267489718, 20.569590912860939 ], [ -100.818472793781439, 20.569590912860939 ], [ -100.818472793781439, 20.565439602913855 ], [ -100.823045267489718, 20.565439602913852 ], [ -100.823045267489718, 20.569590912860939 ] ] ] } },
{ "type": "Feature", "properties": { "difference_1990_2000": 163.0, "difference_1990_2010": 411.0, "difference_1990_2020": 622.0 }, "geometry": { "type": "Polygon", "coordinates": [ [ [ -100.823045267489718, 20.503183319285412 ], [ -100.818472793781439, 20.503183319285416 ], [ -100.818472793781439, 20.4990337900289 ], [ -100.823045267489718, 20.499033790028896 ], [ -100.823045267489718, 20.503183319285412 ] ] ] } },
{ "type": "Feature", "properties": { "difference_1990_2000": 46.0, "difference_1990_2010": 296.0, "difference_1990_2020": 141.0 }, "geometry": { "type": "Polygon", "coordinates": [ [ [ -100.823045267489718, 20.548835478045788 ], [ -100.818472793781439, 20.548835478045827 ], [ -100.818472793781439, 20.544684725405777 ], [ -100.823045267489718, 20.544684725405748 ], [ -100.823045267489718, 20.548835478045788 ] ] ] } },
{ "type": "Feature", "properties": { "difference_1990_2000": 0.0, "difference_1990_2010": 133.0, "difference_1990_2020": 211.0 }, "geometry": { "type": "Polygon", "coordinates": [ [ [ -100.823045267489718, 20.57374233436127 ], [ -100.818472793781439, 20.573742334361274 ], [ -100.818472793781439, 20.569590912860939 ], [ -100.823045267489718, 20.569590912860939 ], [ -100.823045267489718, 20.57374233436127 ] ] ] } },
{ "type": "Feature", "properties": { "difference_1990_2000": 533.0, "difference_1990_2010": 252.0, "difference_1990_2020": 6.0 }, "geometry": { "type": "Polygon", "coordinates": [ [ [ -100.823045267489718, 20.511482711020623 ], [ -100.818472793781439, 20.511482711020623 ], [ -100.818472793781439, 20.507332959605776 ], [ -100.823045267489718, 20.507332959605794 ], [ -100.823045267489718, 20.511482711020623 ] ] ] } },
{ "type": "Feature", "properties": { "difference_1990_2000": 586.0, "difference_1990_2010": 414.0, "difference_1990_2020": 280.0 }, "geometry": { "type": "Polygon", "coordinates": [ [ [ -100.823045267489718, 20.507332959605794 ], [ -100.818472793781439, 20.507332959605776 ], [ -100.818472793781439, 20.503183319285416 ], [ -100.823045267489718, 20.503183319285412 ], [ -100.823045267489718, 20.507332959605794 ] ] ] } },
{ "type": "Feature", "properties": { "difference_1990_2000": 660.0, "difference_1990_2010": 126.0, "difference_1990_2020": -164.0 }, "geometry": { "type": "Polygon", "coordinates": [ [ [ -100.823045267489718, 20.544684725405748 ], [ -100.818472793781439, 20.544684725405777 ], [ -100.818472793781439, 20.540534084135295 ], [ -100.823045267489718, 20.540534084135299 ], [ -100.823045267489718, 20.544684725405748 ] ] ] } },
{ "type": "Feature", "properties": { "difference_1990_2000": -576.0, "difference_1990_2010": -1239.0, "difference_1990_2020": -1500.0 }, "geometry": { "type": "Polygon", "coordinates": [ [ [ -100.823045267489718, 20.528082828235348 ], [ -100.818472793781439, 20.528082828235345 ], [ -100.818472793781439, 20.523932632137242 ], [ -100.823045267489718, 20.523932632137203 ], [ -100.823045267489718, 20.528082828235348 ] ] ] } },
{ "type": "Feature", "properties": { "difference_1990_2000": -464.0, "difference_1990_2010": -998.0, "difference_1990_2020": -1356.0 }, "geometry": { "type": "Polygon", "coordinates": [ [ [ -100.823045267489718, 20.532233135580647 ], [ -100.818472793781439, 20.532233135580647 ], [ -100.818472793781439, 20.528082828235345 ], [ -100.823045267489718, 20.528082828235348 ], [ -100.823045267489718, 20.532233135580647 ] ] ] } },
{ "type": "Feature", "properties": { "difference_1990_2000": -561.0, "difference_1990_2010": -874.0, "difference_1990_2020": -1145.0 }, "geometry": { "type": "Polygon", "coordinates": [ [ [ -100.823045267489718, 20.519782547255772 ], [ -100.818472793781439, 20.519782547255769 ], [ -100.818472793781439, 20.515632573560442 ], [ -100.823045267489718, 20.515632573560435 ], [ -100.823045267489718, 20.519782547255772 ] ] ] } },
{ "type": "Feature", "properties": { "difference_1990_2000": -524.0, "difference_1990_2010": -1068.0, "difference_1990_2020": -1395.0 }, "geometry": { "type": "Polygon", "coordinates": [ [ [ -100.823045267489718, 20.515632573560435 ], [ -100.818472793781439, 20.515632573560442 ], [ -100.818472793781439, 20.511482711020623 ], [ -100.823045267489718, 20.511482711020623 ], [ -100.823045267489718, 20.515632573560435 ] ] ] } },
{ "type": "Feature", "properties": { "difference_1990_2000": 0.0, "difference_1990_2010": 49.0, "difference_1990_2020": 71.0 }, "geometry": { "type": "Polygon", "coordinates": [ [ [ -100.823045267489718, 20.577893867445525 ], [ -100.818472793781439, 20.577893867445528 ], [ -100.818472793781439, 20.573742334361274 ], [ -100.823045267489718, 20.57374233436127 ], [ -100.823045267489718, 20.577893867445525 ] ] ] } },
{ "type": "Feature", "properties": { "difference_1990_2000": -14.0, "difference_1990_2010": -3.0, "difference_1990_2020": 67.0 }, "geometry": { "type": "Polygon", "coordinates": [ [ [ -100.823045267489718, 20.565439602913852 ], [ -100.818472793781439, 20.565439602913855 ], [ -100.818472793781439, 20.561288404489424 ], [ -100.823045267489718, 20.561288404489421 ], [ -100.823045267489718, 20.565439602913852 ] ] ] } },
{ "type": "Feature", "properties": { "difference_1990_2000": -293.0, "difference_1990_2010": -414.0, "difference_1990_2020": -548.0 }, "geometry": { "type": "Polygon", "coordinates": [ [ [ -100.823045267489718, 20.53638355420378 ], [ -100.818472793781439, 20.53638355420378 ], [ -100.818472793781439, 20.532233135580647 ], [ -100.823045267489718, 20.532233135580647 ], [ -100.823045267489718, 20.53638355420378 ] ] ] } },
{ "type": "Feature", "properties": { "difference_1990_2000": 101.0, "difference_1990_2010": 266.0, "difference_1990_2020": 294.0 }, "geometry": { "type": "Polygon", "coordinates": [ [ [ -100.823045267489718, 20.499033790028896 ], [ -100.818472793781439, 20.4990337900289 ], [ -100.818472793781439, 20.494884371805767 ], [ -100.823045267489718, 20.49488437180576 ], [ -100.823045267489718, 20.499033790028896 ] ] ] } },
{ "type": "Feature", "properties": { "difference_1990_2000": 140.0, "difference_1990_2010": 491.0, "difference_1990_2020": 454.0 }, "geometry": { "type": "Polygon", "coordinates": [ [ [ -100.823045267489718, 20.552986342086022 ], [ -100.818472793781439, 20.552986342086069 ], [ -100.818472793781439, 20.548835478045827 ], [ -100.823045267489718, 20.548835478045788 ], [ -100.823045267489718, 20.552986342086022 ] ] ] } },
{ "type": "Feature", "properties": { "difference_1990_2000": 188.0, "difference_1990_2010": 208.0, "difference_1990_2020": 210.0 }, "geometry": { "type": "Polygon", "coordinates": [ [ [ -100.823045267489718, 20.557137317557054 ], [ -100.818472793781439, 20.557137317557054 ], [ -100.818472793781439, 20.552986342086069 ], [ -100.823045267489718, 20.552986342086022 ], [ -100.823045267489718, 20.557137317557054 ] ] ] } },
{ "type": "Feature", "properties": { "difference_1990_2000": 2.0, "difference_1990_2010": 18.0, "difference_1990_2020": 33.0 }, "geometry": { "type": "Polygon", "coordinates": [ [ [ -100.823045267489718, 20.561288404489421 ], [ -100.818472793781439, 20.561288404489424 ], [ -100.818472793781439, 20.557137317557054 ], [ -100.823045267489718, 20.557137317557054 ], [ -100.823045267489718, 20.561288404489421 ] ] ] } },
{ "type": "Feature", "properties": { "difference_1990_2000": -85.0, "difference_1990_2010": -25.0, "difference_1990_2020": -6.0 }, "geometry": { "type": "Polygon", "coordinates": [ [ [ -100.813900320073174, 20.540534084135292 ], [ -100.809327846364894, 20.540534084135295 ], [ -100.809327846364894, 20.53638355420378 ], [ -100.813900320073174, 20.536383554203784 ], [ -100.813900320073174, 20.540534084135292 ] ] ] } },
{ "type": "Feature", "properties": { "difference_1990_2000": 230.0, "difference_1990_2010": 344.0, "difference_1990_2020": 356.0 }, "geometry": { "type": "Polygon", "coordinates": [ [ [ -100.813900320073174, 20.494884371805767 ], [ -100.809327846364894, 20.494884371805767 ], [ -100.809327846364894, 20.490735064585461 ], [ -100.813900320073174, 20.490735064585461 ], [ -100.813900320073174, 20.494884371805767 ] ] ] } },
{ "type": "Feature", "properties": { "difference_1990_2000": 54.0, "difference_1990_2010": 126.0, "difference_1990_2020": 167.0 }, "geometry": { "type": "Polygon", "coordinates": [ [ [ -100.813900320073174, 20.490735064585461 ], [ -100.809327846364894, 20.490735064585461 ], [ -100.809327846364894, 20.486585868337503 ], [ -100.813900320073174, 20.486585868337528 ], [ -100.813900320073174, 20.490735064585461 ] ] ] } },
{ "type": "Feature", "properties": { "difference_1990_2000": 0.0, "difference_1990_2010": 203.0, "difference_1990_2020": 254.0 }, "geometry": { "type": "Polygon", "coordinates": [ [ [ -100.813900320073174, 20.569590912860932 ], [ -100.809327846364894, 20.569590912860935 ], [ -100.809327846364894, 20.565439602913806 ], [ -100.813900320073174, 20.565439602913841 ], [ -100.813900320073174, 20.569590912860932 ] ] ] } },
{ "type": "Feature", "properties": { "difference_1990_2000": -439.0, "difference_1990_2010": -917.0, "difference_1990_2020": -1046.0 }, "geometry": { "type": "Polygon", "coordinates": [ [ [ -100.813900320073174, 20.523932632137246 ], [ -100.809327846364894, 20.523932632137246 ], [ -100.809327846364894, 20.519782547255769 ], [ -100.813900320073174, 20.519782547255772 ], [ -100.813900320073174, 20.523932632137246 ] ] ] } },
{ "type": "Feature", "properties": { "difference_1990_2000": 574.0, "difference_1990_2010": 730.0, "difference_1990_2020": 675.0 }, "geometry": { "type": "Polygon", "coordinates": [ [ [ -100.813900320073174, 20.503183319285412 ], [ -100.809327846364894, 20.503183319285409 ], [ -100.809327846364894, 20.499033790028896 ], [ -100.813900320073174, 20.4990337900289 ], [ -100.813900320073174, 20.503183319285412 ] ] ] } },
{ "type": "Feature", "properties": { "difference_1990_2000": 384.0, "difference_1990_2010": 851.0, "difference_1990_2020": 851.0 }, "geometry": { "type": "Polygon", "coordinates": [ [ [ -100.813900320073174, 20.548835478045792 ], [ -100.809327846364894, 20.548835478045827 ], [ -100.809327846364894, 20.544684725405794 ], [ -100.813900320073174, 20.54468472540578 ], [ -100.813900320073174, 20.548835478045792 ] ] ] } },
{ "type": "Feature", "properties": { "difference_1990_2000": 432.0, "difference_1990_2010": 495.0, "difference_1990_2020": 529.0 }, "geometry": { "type": "Polygon", "coordinates": [ [ [ -100.813900320073174, 20.507332959605776 ], [ -100.809327846364894, 20.507332959605773 ], [ -100.809327846364894, 20.503183319285409 ], [ -100.813900320073174, 20.503183319285412 ], [ -100.813900320073174, 20.507332959605776 ] ] ] } },
{ "type": "Feature", "properties": { "difference_1990_2000": 0.0, "difference_1990_2010": 198.0, "difference_1990_2020": 245.0 }, "geometry": { "type": "Polygon", "coordinates": [ [ [ -100.813900320073174, 20.573742334361278 ], [ -100.809327846364894, 20.573742334361274 ], [ -100.809327846364894, 20.569590912860935 ], [ -100.813900320073174, 20.569590912860932 ], [ -100.813900320073174, 20.573742334361278 ] ] ] } },
{ "type": "Feature", "properties": { "difference_1990_2000": 502.0, "difference_1990_2010": 333.0, "difference_1990_2020": 247.0 }, "geometry": { "type": "Polygon", "coordinates": [ [ [ -100.813900320073174, 20.511482711020623 ], [ -100.809327846364894, 20.511482711020619 ], [ -100.809327846364894, 20.507332959605773 ], [ -100.813900320073174, 20.507332959605776 ], [ -100.813900320073174, 20.511482711020623 ] ] ] } },
{ "type": "Feature", "properties": { "difference_1990_2000": 0.0, "difference_1990_2010": 189.0, "difference_1990_2020": 234.0 }, "geometry": { "type": "Polygon", "coordinates": [ [ [ -100.813900320073174, 20.582045512144372 ], [ -100.809327846364894, 20.582045512144372 ], [ -100.809327846364894, 20.577893867445521 ], [ -100.813900320073174, 20.577893867445511 ], [ -100.813900320073174, 20.582045512144372 ] ] ] } },
{ "type": "Feature", "properties": { "difference_1990_2000": 32.0, "difference_1990_2010": 35.0, "difference_1990_2020": 58.0 }, "geometry": { "type": "Polygon", "coordinates": [ [ [ -100.813900320073174, 20.486585868337528 ], [ -100.809327846364894, 20.486585868337503 ], [ -100.809327846364894, 20.482436783031375 ], [ -100.813900320073174, 20.482436783031371 ], [ -100.813900320073174, 20.486585868337528 ] ] ] } },
{ "type": "Feature", "properties": { "difference_1990_2000": -243.0, "difference_1990_2010": -579.0, "difference_1990_2020": -722.0 }, "geometry": { "type": "Polygon", "coordinates": [ [ [ -100.813900320073174, 20.528082828235341 ], [ -100.809327846364894, 20.528082828235348 ], [ -100.809327846364894, 20.523932632137246 ], [ -100.813900320073174, 20.523932632137246 ], [ -100.813900320073174, 20.528082828235341 ] ] ] } },
{ "type": "Feature", "properties": { "difference_1990_2000": -370.0, "difference_1990_2010": -733.0, "difference_1990_2020": -837.0 }, "geometry": { "type": "Polygon", "coordinates": [ [ [ -100.813900320073174, 20.53223313558065 ], [ -100.809327846364894, 20.532233135580647 ], [ -100.809327846364894, 20.528082828235348 ], [ -100.813900320073174, 20.528082828235341 ], [ -100.813900320073174, 20.53223313558065 ] ] ] } },
{ "type": "Feature", "properties": { "difference_1990_2000": 999.0, "difference_1990_2010": 1622.0, "difference_1990_2020": 1761.0 }, "geometry": { "type": "Polygon", "coordinates": [ [ [ -100.813900320073174, 20.54468472540578 ], [ -100.809327846364894, 20.544684725405794 ], [ -100.809327846364894, 20.540534084135295 ], [ -100.813900320073174, 20.540534084135292 ], [ -100.813900320073174, 20.54468472540578 ] ] ] } },
{ "type": "Feature", "properties": { "difference_1990_2000": -44.0, "difference_1990_2010": -602.0, "difference_1990_2020": -885.0 }, "geometry": { "type": "Polygon", "coordinates": [ [ [ -100.813900320073174, 20.519782547255772 ], [ -100.809327846364894, 20.519782547255769 ], [ -100.809327846364894, 20.515632573560424 ], [ -100.813900320073174, 20.515632573560435 ], [ -100.813900320073174, 20.519782547255772 ] ] ] } },
{ "type": "Feature", "properties": { "difference_1990_2000": 406.0, "difference_1990_2010": -134.0, "difference_1990_2020": -431.0 }, "geometry": { "type": "Polygon", "coordinates": [ [ [ -100.813900320073174, 20.515632573560435 ], [ -100.809327846364894, 20.515632573560424 ], [ -100.809327846364894, 20.511482711020619 ], [ -100.813900320073174, 20.511482711020623 ], [ -100.813900320073174, 20.515632573560435 ] ] ] } },
{ "type": "Feature", "properties": { "difference_1990_2000": 0.0, "difference_1990_2010": 208.0, "difference_1990_2020": 257.0 }, "geometry": { "type": "Polygon", "coordinates": [ [ [ -100.813900320073174, 20.577893867445511 ], [ -100.809327846364894, 20.577893867445521 ], [ -100.809327846364894, 20.573742334361274 ], [ -100.813900320073174, 20.573742334361278 ], [ -100.813900320073174, 20.577893867445511 ] ] ] } },
{ "type": "Feature", "properties": { "difference_1990_2000": 0.0, "difference_1990_2010": 100.0, "difference_1990_2020": 162.0 }, "geometry": { "type": "Polygon", "coordinates": [ [ [ -100.813900320073174, 20.565439602913841 ], [ -100.809327846364894, 20.565439602913806 ], [ -100.809327846364894, 20.561288404489421 ], [ -100.813900320073174, 20.561288404489421 ], [ -100.813900320073174, 20.565439602913841 ] ] ] } },
{ "type": "Feature", "properties": { "difference_1990_2000": -151.0, "difference_1990_2010": -140.0, "difference_1990_2020": -135.0 }, "geometry": { "type": "Polygon", "coordinates": [ [ [ -100.813900320073174, 20.536383554203784 ], [ -100.809327846364894, 20.53638355420378 ], [ -100.809327846364894, 20.532233135580647 ], [ -100.813900320073174, 20.53223313558065 ], [ -100.813900320073174, 20.536383554203784 ] ] ] } },
{ "type": "Feature", "properties": { "difference_1990_2000": 485.0, "difference_1990_2010": 709.0, "difference_1990_2020": 634.0 }, "geometry": { "type": "Polygon", "coordinates": [ [ [ -100.813900320073174, 20.4990337900289 ], [ -100.809327846364894, 20.499033790028896 ], [ -100.809327846364894, 20.494884371805767 ], [ -100.813900320073174, 20.494884371805767 ], [ -100.813900320073174, 20.4990337900289 ] ] ] } },
{ "type": "Feature", "properties": { "difference_1990_2000": 174.0, "difference_1990_2010": 198.0, "difference_1990_2020": 204.0 }, "geometry": { "type": "Polygon", "coordinates": [ [ [ -100.813900320073174, 20.557137317557054 ], [ -100.809327846364894, 20.55713731755705 ], [ -100.809327846364894, 20.552986342086065 ], [ -100.813900320073174, 20.552986342086079 ], [ -100.813900320073174, 20.557137317557054 ] ] ] } },
{ "type": "Feature", "properties": { "difference_1990_2000": 13.0, "difference_1990_2010": 45.0, "difference_1990_2020": 248.0 }, "geometry": { "type": "Polygon", "coordinates": [ [ [ -100.813900320073174, 20.561288404489421 ], [ -100.809327846364894, 20.561288404489421 ], [ -100.809327846364894, 20.55713731755705 ], [ -100.813900320073174, 20.557137317557054 ], [ -100.813900320073174, 20.561288404489421 ] ] ] } },
{ "type": "Feature", "properties": { "difference_1990_2000": 146.0, "difference_1990_2010": 408.0, "difference_1990_2020": 371.0 }, "geometry": { "type": "Polygon", "coordinates": [ [ [ -100.813900320073174, 20.552986342086079 ], [ -100.809327846364894, 20.552986342086065 ], [ -100.809327846364894, 20.548835478045827 ], [ -100.813900320073174, 20.548835478045792 ], [ -100.813900320073174, 20.552986342086079 ] ] ] } },
{ "type": "Feature", "properties": { "difference_1990_2000": 797.0, "difference_1990_2010": 574.0, "difference_1990_2020": 351.0 }, "geometry": { "type": "Polygon", "coordinates": [ [ [ -100.804755372656629, 20.540534084135299 ], [ -100.800182898948336, 20.540534084135302 ], [ -100.800182898948336, 20.536383554203788 ], [ -100.804755372656629, 20.53638355420378 ], [ -100.804755372656629, 20.540534084135299 ] ] ] } },
{ "type": "Feature", "properties": { "difference_1990_2000": -380.0, "difference_1990_2010": -854.0, "difference_1990_2020": -993.0 }, "geometry": { "type": "Polygon", "coordinates": [ [ [ -100.804755372656629, 20.523932632137246 ], [ -100.800182898948336, 20.523932632137246 ], [ -100.800182898948336, 20.519782547255769 ], [ -100.804755372656629, 20.519782547255772 ], [ -100.804755372656629, 20.523932632137246 ] ] ] } },
{ "type": "Feature", "properties": { "difference_1990_2000": 386.0, "difference_1990_2010": 693.0, "difference_1990_2020": 796.0 }, "geometry": { "type": "Polygon", "coordinates": [ [ [ -100.804755372656629, 20.503183319285412 ], [ -100.800182898948336, 20.503183319285391 ], [ -100.800182898948336, 20.499033790028903 ], [ -100.804755372656629, 20.4990337900289 ], [ -100.804755372656629, 20.503183319285412 ] ] ] } },
{ "type": "Feature", "properties": { "difference_1990_2000": 260.0, "difference_1990_2010": 368.0, "difference_1990_2020": 339.0 }, "geometry": { "type": "Polygon", "coordinates": [ [ [ -100.804755372656629, 20.548835478045792 ], [ -100.800182898948336, 20.548835478045792 ], [ -100.800182898948336, 20.54468472540578 ], [ -100.804755372656629, 20.544684725405791 ], [ -100.804755372656629, 20.548835478045792 ] ] ] } },
{ "type": "Feature", "properties": { "difference_1990_2000": 497.0, "difference_1990_2010": 840.0, "difference_1990_2020": 959.0 }, "geometry": { "type": "Polygon", "coordinates": [ [ [ -100.804755372656629, 20.507332959605773 ], [ -100.800182898948336, 20.50733295960578 ], [ -100.800182898948336, 20.503183319285391 ], [ -100.804755372656629, 20.503183319285412 ], [ -100.804755372656629, 20.507332959605773 ] ] ] } },
{ "type": "Feature", "properties": { "difference_1990_2000": 93.0, "difference_1990_2010": 6.0, "difference_1990_2020": -146.0 }, "geometry": { "type": "Polygon", "coordinates": [ [ [ -100.804755372656629, 20.528082828235345 ], [ -100.800182898948336, 20.528082828235348 ], [ -100.800182898948336, 20.523932632137246 ], [ -100.804755372656629, 20.523932632137246 ], [ -100.804755372656629, 20.528082828235345 ] ] ] } },
{ "type": "Feature", "properties": { "difference_1990_2000": 143.0, "difference_1990_2010": 105.0, "difference_1990_2020": -49.0 }, "geometry": { "type": "Polygon", "coordinates": [ [ [ -100.804755372656629, 20.532233135580647 ], [ -100.800182898948336, 20.53223313558065 ], [ -100.800182898948336, 20.528082828235348 ], [ -100.804755372656629, 20.528082828235345 ], [ -100.804755372656629, 20.532233135580647 ] ] ] } },
{ "type": "Feature", "properties": { "difference_1990_2000": 558.0, "difference_1990_2010": 834.0, "difference_1990_2020": 925.0 }, "geometry": { "type": "Polygon", "coordinates": [ [ [ -100.804755372656629, 20.511482711020658 ], [ -100.800182898948336, 20.511482711020609 ], [ -100.800182898948336, 20.50733295960578 ], [ -100.804755372656629, 20.507332959605773 ], [ -100.804755372656629, 20.511482711020658 ] ] ] } },
{ "type": "Feature", "properties": { "difference_1990_2000": 325.0, "difference_1990_2010": 222.0, "difference_1990_2020": 55.0 }, "geometry": { "type": "Polygon", "coordinates": [ [ [ -100.804755372656629, 20.544684725405791 ], [ -100.800182898948336, 20.54468472540578 ], [ -100.800182898948336, 20.540534084135302 ], [ -100.804755372656629, 20.540534084135299 ], [ -100.804755372656629, 20.544684725405791 ] ] ] } },
{ "type": "Feature", "properties": { "difference_1990_2000": -697.0, "difference_1990_2010": -904.0, "difference_1990_2020": -920.0 }, "geometry": { "type": "Polygon", "coordinates": [ [ [ -100.804755372656629, 20.519782547255772 ], [ -100.800182898948336, 20.519782547255769 ], [ -100.800182898948336, 20.515632573560424 ], [ -100.804755372656629, 20.515632573560438 ], [ -100.804755372656629, 20.519782547255772 ] ] ] } },
{ "type": "Feature", "properties": { "difference_1990_2000": -256.0, "difference_1990_2010": -262.0, "difference_1990_2020": -239.0 }, "geometry": { "type": "Polygon", "coordinates": [ [ [ -100.804755372656629, 20.515632573560438 ], [ -100.800182898948336, 20.515632573560424 ], [ -100.800182898948336, 20.511482711020609 ], [ -100.804755372656629, 20.511482711020658 ], [ -100.804755372656629, 20.515632573560438 ] ] ] } },
{ "type": "Feature", "properties": { "difference_1990_2000": 82.0, "difference_1990_2010": 571.0, "difference_1990_2020": 685.0 }, "geometry": { "type": "Polygon", "coordinates": [ [ [ -100.804755372656629, 20.565439602913813 ], [ -100.800182898948336, 20.565439602913852 ], [ -100.800182898948336, 20.561288404489421 ], [ -100.804755372656629, 20.561288404489424 ], [ -100.804755372656629, 20.565439602913813 ] ] ] } },
{ "type": "Feature", "properties": { "difference_1990_2000": 628.0, "difference_1990_2010": 520.0, "difference_1990_2020": 376.0 }, "geometry": { "type": "Polygon", "coordinates": [ [ [ -100.804755372656629, 20.53638355420378 ], [ -100.800182898948336, 20.536383554203788 ], [ -100.800182898948336, 20.53223313558065 ], [ -100.804755372656629, 20.532233135580647 ], [ -100.804755372656629, 20.53638355420378 ] ] ] } },
{ "type": "Feature", "properties": { "difference_1990_2000": 440.0, "difference_1990_2010": 682.0, "difference_1990_2020": 737.0 }, "geometry": { "type": "Polygon", "coordinates": [ [ [ -100.804755372656629, 20.4990337900289 ], [ -100.800182898948336, 20.499033790028903 ], [ -100.800182898948336, 20.494884371805771 ], [ -100.804755372656629, 20.494884371805764 ], [ -100.804755372656629, 20.4990337900289 ] ] ] } },
{ "type": "Feature", "properties": { "difference_1990_2000": 198.0, "difference_1990_2010": 378.0, "difference_1990_2020": 541.0 }, "geometry": { "type": "Polygon", "coordinates": [ [ [ -100.804755372656629, 20.55713731755705 ], [ -100.800182898948336, 20.557137317557054 ], [ -100.800182898948336, 20.552986342086061 ], [ -100.804755372656629, 20.552986342086061 ], [ -100.804755372656629, 20.55713731755705 ] ] ] } },
{ "type": "Feature", "properties": { "difference_1990_2000": 238.0, "difference_1990_2010": 356.0, "difference_1990_2020": 340.0 }, "geometry": { "type": "Polygon", "coordinates": [ [ [ -100.804755372656629, 20.552986342086061 ], [ -100.800182898948336, 20.552986342086061 ], [ -100.800182898948336, 20.548835478045792 ], [ -100.804755372656629, 20.548835478045792 ], [ -100.804755372656629, 20.552986342086061 ] ] ] } },
{ "type": "Feature", "properties": { "difference_1990_2000": 144.0, "difference_1990_2010": 630.0, "difference_1990_2020": 1193.0 }, "geometry": { "type": "Polygon", "coordinates": [ [ [ -100.804755372656629, 20.561288404489424 ], [ -100.800182898948336, 20.561288404489421 ], [ -100.800182898948336, 20.557137317557054 ], [ -100.804755372656629, 20.55713731755705 ], [ -100.804755372656629, 20.561288404489424 ] ] ] } },
{ "type": "Feature", "properties": { "difference_1990_2000": 67.0, "difference_1990_2010": 284.0, "difference_1990_2020": 287.0 }, "geometry": { "type": "Polygon", "coordinates": [ [ [ -100.795610425240056, 20.540534084135292 ], [ -100.791037951531777, 20.540534084135302 ], [ -100.791037951531777, 20.53638355420378 ], [ -100.795610425240056, 20.536383554203784 ], [ -100.795610425240056, 20.540534084135292 ] ] ] } },
{ "type": "Feature", "properties": { "difference_1990_2000": -681.0, "difference_1990_2010": -821.0, "difference_1990_2020": -1188.0 }, "geometry": { "type": "Polygon", "coordinates": [ [ [ -100.795610425240056, 20.523932632137242 ], [ -100.791037951531777, 20.523932632137203 ], [ -100.791037951531777, 20.519782547255772 ], [ -100.795610425240056, 20.519782547255772 ], [ -100.795610425240056, 20.523932632137242 ] ] ] } },
{ "type": "Feature", "properties": { "difference_1990_2000": 566.0, "difference_1990_2010": 726.0, "difference_1990_2020": 794.0 }, "geometry": { "type": "Polygon", "coordinates": [ [ [ -100.795610425240056, 20.503183319285416 ], [ -100.791037951531777, 20.503183319285395 ], [ -100.791037951531777, 20.499033790028903 ], [ -100.795610425240056, 20.499033790028893 ], [ -100.795610425240056, 20.503183319285416 ] ] ] } },
{ "type": "Feature", "properties": { "difference_1990_2000": 444.0, "difference_1990_2010": 1329.0, "difference_1990_2020": 1403.0 }, "geometry": { "type": "Polygon", "coordinates": [ [ [ -100.795610425240056, 20.548835478045792 ], [ -100.791037951531777, 20.548835478045827 ], [ -100.791037951531777, 20.544684725405794 ], [ -100.795610425240056, 20.544684725405773 ], [ -100.795610425240056, 20.548835478045792 ] ] ] } },
{ "type": "Feature", "properties": { "difference_1990_2000": 982.0, "difference_1990_2010": 1476.0, "difference_1990_2020": 1609.0 }, "geometry": { "type": "Polygon", "coordinates": [ [ [ -100.795610425240056, 20.50733295960578 ], [ -100.791037951531777, 20.507332959605794 ], [ -100.791037951531777, 20.503183319285395 ], [ -100.795610425240056, 20.503183319285416 ], [ -100.795610425240056, 20.50733295960578 ] ] ] } },
{ "type": "Feature", "properties": { "difference_1990_2000": 637.0, "difference_1990_2010": 859.0, "difference_1990_2020": 789.0 }, "geometry": { "type": "Polygon", "coordinates": [ [ [ -100.795610425240056, 20.511482711020623 ], [ -100.791037951531777, 20.511482711020612 ], [ -100.791037951531777, 20.507332959605794 ], [ -100.795610425240056, 20.50733295960578 ], [ -100.795610425240056, 20.511482711020623 ] ] ] } },
{ "type": "Feature", "properties": { "difference_1990_2000": 800.0, "difference_1990_2010": 773.0, "difference_1990_2020": 563.0 }, "geometry": { "type": "Polygon", "coordinates": [ [ [ -100.795610425240056, 20.528082828235345 ], [ -100.791037951531777, 20.528082828235345 ], [ -100.791037951531777, 20.523932632137203 ], [ -100.795610425240056, 20.523932632137242 ], [ -100.795610425240056, 20.528082828235345 ] ] ] } },
{ "type": "Feature", "properties": { "difference_1990_2000": 816.0, "difference_1990_2010": 888.0, "difference_1990_2020": 859.0 }, "geometry": { "type": "Polygon", "coordinates": [ [ [ -100.795610425240056, 20.532233135580647 ], [ -100.791037951531777, 20.532233135580647 ], [ -100.791037951531777, 20.528082828235345 ], [ -100.795610425240056, 20.528082828235345 ], [ -100.795610425240056, 20.532233135580647 ] ] ] } },
{ "type": "Feature", "properties": { "difference_1990_2000": 927.0, "difference_1990_2010": 1500.0, "difference_1990_2020": 1594.0 }, "geometry": { "type": "Polygon", "coordinates": [ [ [ -100.795610425240056, 20.544684725405773 ], [ -100.791037951531777, 20.544684725405794 ], [ -100.791037951531777, 20.540534084135302 ], [ -100.795610425240056, 20.540534084135292 ], [ -100.795610425240056, 20.544684725405773 ] ] ] } },
{ "type": "Feature", "properties": { "difference_1990_2000": 372.0, "difference_1990_2010": 435.0, "difference_1990_2020": 442.0 }, "geometry": { "type": "Polygon", "coordinates": [ [ [ -100.795610425240056, 20.515632573560424 ], [ -100.791037951531777, 20.515632573560438 ], [ -100.791037951531777, 20.511482711020612 ], [ -100.795610425240056, 20.511482711020623 ], [ -100.795610425240056, 20.515632573560424 ] ] ] } },
{ "type": "Feature", "properties": { "difference_1990_2000": -293.0, "difference_1990_2010": -422.0, "difference_1990_2020": -593.0 }, "geometry": { "type": "Polygon", "coordinates": [ [ [ -100.795610425240056, 20.519782547255772 ], [ -100.791037951531777, 20.519782547255772 ], [ -100.791037951531777, 20.515632573560438 ], [ -100.795610425240056, 20.515632573560424 ], [ -100.795610425240056, 20.519782547255772 ] ] ] } },
{ "type": "Feature", "properties": { "difference_1990_2000": 738.0, "difference_1990_2010": 961.0, "difference_1990_2020": 844.0 }, "geometry": { "type": "Polygon", "coordinates": [ [ [ -100.795610425240056, 20.536383554203784 ], [ -100.791037951531777, 20.53638355420378 ], [ -100.791037951531777, 20.532233135580647 ], [ -100.795610425240056, 20.532233135580647 ], [ -100.795610425240056, 20.536383554203784 ] ] ] } },
{ "type": "Feature", "properties": { "difference_1990_2000": 142.0, "difference_1990_2010": 255.0, "difference_1990_2020": 274.0 }, "geometry": { "type": "Polygon", "coordinates": [ [ [ -100.795610425240056, 20.557137317557068 ], [ -100.791037951531777, 20.55713731755705 ], [ -100.791037951531777, 20.552986342086065 ], [ -100.795610425240056, 20.552986342086058 ], [ -100.795610425240056, 20.557137317557068 ] ] ] } },
{ "type": "Feature", "properties": { "difference_1990_2000": 294.0, "difference_1990_2010": 883.0, "difference_1990_2020": 889.0 }, "geometry": { "type": "Polygon", "coordinates": [ [ [ -100.795610425240056, 20.552986342086058 ], [ -100.791037951531777, 20.552986342086065 ], [ -100.791037951531777, 20.548835478045827 ], [ -100.795610425240056, 20.548835478045792 ], [ -100.795610425240056, 20.552986342086058 ] ] ] } }
]
}
