{
"type": "FeatureCollection",
"name": "M11.03",
"crs": { "type": "name", "properties": { "name": "urn:ogc:def:crs:OGC:1.3:CRS84" } },
"features": [
{ "type": "Feature", "properties": { "difference_1990_2000": 128.0, "difference_1990_2010": 240.0, "difference_1990_2020": 191.0 }, "geometry": { "type": "Polygon", "coordinates": [ [ [ -101.266575217192496, 21.031086756718757 ], [ -101.262002743484246, 21.031086756718725 ], [ -101.262002743484246, 21.026922875833257 ], [ -101.266575217192496, 21.026922875833286 ], [ -101.266575217192496, 21.031086756718757 ] ] ] } },
{ "type": "Feature", "properties": { "difference_1990_2000": -696.0, "difference_1990_2010": -1221.0, "difference_1990_2020": -1564.0 }, "geometry": { "type": "Polygon", "coordinates": [ [ [ -101.266575217192496, 21.022759109911149 ], [ -101.262002743484246, 21.022759109911153 ], [ -101.262002743484246, 21.018595458921077 ], [ -101.266575217192496, 21.01859545892107 ], [ -101.266575217192496, 21.022759109911149 ] ] ] } },
{ "type": "Feature", "properties": { "difference_1990_2000": 20.0, "difference_1990_2010": 43.0, "difference_1990_2020": 16.0 }, "geometry": { "type": "Polygon", "coordinates": [ [ [ -101.266575217192496, 21.047743430522335 ], [ -101.262002743484246, 21.047743430522342 ], [ -101.262002743484246, 21.043579089469461 ], [ -101.266575217192496, 21.043579089469457 ], [ -101.266575217192496, 21.047743430522335 ] ] ] } },
{ "type": "Feature", "properties": { "difference_1990_2000": 10.0, "difference_1990_2010": 21.0, "difference_1990_2020": 11.0 }, "geometry": { "type": "Polygon", "coordinates": [ [ [ -101.266575217192496, 21.03525075259903 ], [ -101.262002743484246, 21.035250752599048 ], [ -101.262002743484246, 21.031086756718725 ], [ -101.266575217192496, 21.031086756718757 ], [ -101.266575217192496, 21.03525075259903 ] ] ] } },
{ "type": "Feature", "properties": { "difference_1990_2000": 10.0, "difference_1990_2010": 32.0, "difference_1990_2020": 35.0 }, "geometry": { "type": "Polygon", "coordinates": [ [ [ -101.266575217192496, 21.039414863505506 ], [ -101.262002743484246, 21.039414863505506 ], [ -101.262002743484246, 21.035250752599048 ], [ -101.266575217192496, 21.03525075259903 ], [ -101.266575217192496, 21.039414863505506 ] ] ] } },
{ "type": "Feature", "properties": { "difference_1990_2000": -329.0, "difference_1990_2010": -401.0, "difference_1990_2020": -525.0 }, "geometry": { "type": "Polygon", "coordinates": [ [ [ -101.266575217192496, 21.01859545892107 ], [ -101.262002743484246, 21.018595458921077 ], [ -101.262002743484246, 21.014431922831676 ], [ -101.266575217192496, 21.014431922831672 ], [ -101.266575217192496, 21.01859545892107 ] ] ] } },
{ "type": "Feature", "properties": { "difference_1990_2000": 7.0, "difference_1990_2010": 20.0, "difference_1990_2020": 21.0 }, "geometry": { "type": "Polygon", "coordinates": [ [ [ -101.266575217192496, 21.043579089469457 ], [ -101.262002743484246, 21.043579089469461 ], [ -101.262002743484246, 21.039414863505506 ], [ -101.266575217192496, 21.039414863505506 ], [ -101.266575217192496, 21.043579089469457 ] ] ] } },
{ "type": "Feature", "properties": { "difference_1990_2000": -56.0, "difference_1990_2010": -149.0, "difference_1990_2020": -232.0 }, "geometry": { "type": "Polygon", "coordinates": [ [ [ -101.266575217192496, 21.014431922831672 ], [ -101.262002743484246, 21.014431922831676 ], [ -101.262002743484246, 21.010268501611545 ], [ -101.266575217192496, 21.010268501611577 ], [ -101.266575217192496, 21.014431922831672 ] ] ] } },
{ "type": "Feature", "properties": { "difference_1990_2000": 15.0, "difference_1990_2010": 12.0, "difference_1990_2020": 22.0 }, "geometry": { "type": "Polygon", "coordinates": [ [ [ -101.266575217192496, 21.010268501611577 ], [ -101.262002743484246, 21.010268501611545 ], [ -101.262002743484246, 21.006105195229473 ], [ -101.266575217192496, 21.006105195229487 ], [ -101.266575217192496, 21.010268501611577 ] ] ] } },
{ "type": "Feature", "properties": { "difference_1990_2000": 129.0, "difference_1990_2010": 73.0, "difference_1990_2020": -52.0 }, "geometry": { "type": "Polygon", "coordinates": [ [ [ -101.266575217192496, 21.026922875833286 ], [ -101.262002743484246, 21.026922875833257 ], [ -101.262002743484246, 21.022759109911153 ], [ -101.266575217192496, 21.022759109911149 ], [ -101.266575217192496, 21.026922875833286 ] ] ] } },
{ "type": "Feature", "properties": { "difference_1990_2000": -78.0, "difference_1990_2010": -41.0, "difference_1990_2020": -123.0 }, "geometry": { "type": "Polygon", "coordinates": [ [ [ -101.25743026977598, 21.031086756718757 ], [ -101.252857796067687, 21.031086756718757 ], [ -101.252857796067687, 21.026922875833254 ], [ -101.25743026977598, 21.026922875833293 ], [ -101.25743026977598, 21.031086756718757 ] ] ] } },
{ "type": "Feature", "properties": { "difference_1990_2000": -120.0, "difference_1990_2010": -460.0, "difference_1990_2020": -787.0 }, "geometry": { "type": "Polygon", "coordinates": [ [ [ -101.25743026977598, 21.022759109911153 ], [ -101.252857796067687, 21.022759109911149 ], [ -101.252857796067687, 21.018595458921038 ], [ -101.25743026977598, 21.018595458921073 ], [ -101.25743026977598, 21.022759109911153 ] ] ] } },
{ "type": "Feature", "properties": { "difference_1990_2000": 4.0, "difference_1990_2010": 7.0, "difference_1990_2020": 3.0 }, "geometry": { "type": "Polygon", "coordinates": [ [ [ -101.25743026977598, 21.047743430522338 ], [ -101.252857796067687, 21.047743430522335 ], [ -101.252857796067687, 21.043579089469464 ], [ -101.25743026977598, 21.043579089469457 ], [ -101.25743026977598, 21.047743430522338 ] ] ] } },
{ "type": "Feature", "properties": { "difference_1990_2000": -29.0, "difference_1990_2010": 12.0, "difference_1990_2020": -7.0 }, "geometry": { "type": "Polygon", "coordinates": [ [ [ -101.25743026977598, 21.035250752599048 ], [ -101.252857796067687, 21.035250752599048 ], [ -101.252857796067687, 21.031086756718757 ], [ -101.25743026977598, 21.031086756718757 ], [ -101.25743026977598, 21.035250752599048 ] ] ] } },
{ "type": "Feature", "properties": { "difference_1990_2000": 23.0, "difference_1990_2010": 15.0, "difference_1990_2020": 44.0 }, "geometry": { "type": "Polygon", "coordinates": [ [ [ -101.25743026977598, 21.039414863505506 ], [ -101.252857796067687, 21.03941486350551 ], [ -101.252857796067687, 21.035250752599048 ], [ -101.25743026977598, 21.035250752599048 ], [ -101.25743026977598, 21.039414863505506 ] ] ] } },
{ "type": "Feature", "properties": { "difference_1990_2000": -448.0, "difference_1990_2010": -1344.0, "difference_1990_2020": -1555.0 }, "geometry": { "type": "Polygon", "coordinates": [ [ [ -101.25743026977598, 21.018595458921073 ], [ -101.252857796067687, 21.018595458921038 ], [ -101.252857796067687, 21.014431922831672 ], [ -101.25743026977598, 21.014431922831672 ], [ -101.25743026977598, 21.018595458921073 ] ] ] } },
{ "type": "Feature", "properties": { "difference_1990_2000": 27.0, "difference_1990_2010": -17.0, "difference_1990_2020": 26.0 }, "geometry": { "type": "Polygon", "coordinates": [ [ [ -101.25743026977598, 21.043579089469457 ], [ -101.252857796067687, 21.043579089469464 ], [ -101.252857796067687, 21.03941486350551 ], [ -101.25743026977598, 21.039414863505506 ], [ -101.25743026977598, 21.043579089469457 ] ] ] } },
{ "type": "Feature", "properties": { "difference_1990_2000": 32.0, "difference_1990_2010": -119.0, "difference_1990_2020": -147.0 }, "geometry": { "type": "Polygon", "coordinates": [ [ [ -101.25743026977598, 21.014431922831672 ], [ -101.252857796067687, 21.014431922831672 ], [ -101.252857796067687, 21.010268501611542 ], [ -101.25743026977598, 21.010268501611574 ], [ -101.25743026977598, 21.014431922831672 ] ] ] } },
{ "type": "Feature", "properties": { "difference_1990_2000": 34.0, "difference_1990_2010": 48.0, "difference_1990_2020": 49.0 }, "geometry": { "type": "Polygon", "coordinates": [ [ [ -101.25743026977598, 21.006105195229434 ], [ -101.252857796067687, 21.006105195229438 ], [ -101.252857796067687, 21.001942003654005 ], [ -101.25743026977598, 21.001942003653998 ], [ -101.25743026977598, 21.006105195229434 ] ] ] } },
{ "type": "Feature", "properties": { "difference_1990_2000": 13.0, "difference_1990_2010": 26.0, "difference_1990_2020": 50.0 }, "geometry": { "type": "Polygon", "coordinates": [ [ [ -101.25743026977598, 21.010268501611574 ], [ -101.252857796067687, 21.010268501611542 ], [ -101.252857796067687, 21.006105195229438 ], [ -101.25743026977598, 21.006105195229434 ], [ -101.25743026977598, 21.010268501611574 ] ] ] } },
{ "type": "Feature", "properties": { "difference_1990_2000": -319.0, "difference_1990_2010": -500.0, "difference_1990_2020": -614.0 }, "geometry": { "type": "Polygon", "coordinates": [ [ [ -101.25743026977598, 21.026922875833293 ], [ -101.252857796067687, 21.026922875833254 ], [ -101.252857796067687, 21.022759109911149 ], [ -101.25743026977598, 21.022759109911153 ], [ -101.25743026977598, 21.026922875833293 ] ] ] } },
{ "type": "Feature", "properties": { "difference_1990_2000": -18.0, "difference_1990_2010": 51.0, "difference_1990_2020": 1.0 }, "geometry": { "type": "Polygon", "coordinates": [ [ [ -101.248285322359393, 21.031086756718757 ], [ -101.243712848651114, 21.031086756718725 ], [ -101.243712848651114, 21.026922875833286 ], [ -101.248285322359393, 21.026922875833257 ], [ -101.248285322359393, 21.031086756718757 ] ] ] } },
{ "type": "Feature", "properties": { "difference_1990_2000": 82.0, "difference_1990_2010": 50.0, "difference_1990_2020": 22.0 }, "geometry": { "type": "Polygon", "coordinates": [ [ [ -101.248285322359393, 21.022759109911153 ], [ -101.243712848651114, 21.022759109911153 ], [ -101.243712848651114, 21.018595458921073 ], [ -101.248285322359393, 21.018595458921073 ], [ -101.248285322359393, 21.022759109911153 ] ] ] } },
{ "type": "Feature", "properties": { "difference_1990_2000": -4.0, "difference_1990_2010": 26.0, "difference_1990_2020": -2.0 }, "geometry": { "type": "Polygon", "coordinates": [ [ [ -101.248285322359393, 21.035250752599048 ], [ -101.243712848651114, 21.035250752599048 ], [ -101.243712848651114, 21.031086756718725 ], [ -101.248285322359393, 21.031086756718757 ], [ -101.248285322359393, 21.035250752599048 ] ] ] } },
{ "type": "Feature", "properties": { "difference_1990_2000": 4.0, "difference_1990_2010": -91.0, "difference_1990_2020": -149.0 }, "geometry": { "type": "Polygon", "coordinates": [ [ [ -101.248285322359393, 21.018595458921073 ], [ -101.243712848651114, 21.018595458921073 ], [ -101.243712848651114, 21.014431922831672 ], [ -101.248285322359393, 21.014431922831669 ], [ -101.248285322359393, 21.018595458921073 ] ] ] } },
{ "type": "Feature", "properties": { "difference_1990_2000": -82.0, "difference_1990_2010": -214.0, "difference_1990_2020": -418.0 }, "geometry": { "type": "Polygon", "coordinates": [ [ [ -101.248285322359393, 21.014431922831669 ], [ -101.243712848651114, 21.014431922831672 ], [ -101.243712848651114, 21.010268501611574 ], [ -101.248285322359393, 21.010268501611577 ], [ -101.248285322359393, 21.014431922831669 ] ] ] } },
{ "type": "Feature", "properties": { "difference_1990_2000": -15.0, "difference_1990_2010": 20.0, "difference_1990_2020": -60.0 }, "geometry": { "type": "Polygon", "coordinates": [ [ [ -101.248285322359393, 21.006105195229466 ], [ -101.243712848651114, 21.006105195229431 ], [ -101.243712848651114, 21.001942003654001 ], [ -101.248285322359393, 21.001942003654001 ], [ -101.248285322359393, 21.006105195229466 ] ] ] } },
{ "type": "Feature", "properties": { "difference_1990_2000": 29.0, "difference_1990_2010": 57.0, "difference_1990_2020": 49.0 }, "geometry": { "type": "Polygon", "coordinates": [ [ [ -101.248285322359393, 21.001942003654001 ], [ -101.243712848651114, 21.001942003654001 ], [ -101.243712848651114, 20.997778926853819 ], [ -101.248285322359393, 20.99777892685379 ], [ -101.248285322359393, 21.001942003654001 ] ] ] } },
{ "type": "Feature", "properties": { "difference_1990_2000": 814.0, "difference_1990_2010": 892.0, "difference_1990_2020": 676.0 }, "geometry": { "type": "Polygon", "coordinates": [ [ [ -101.248285322359393, 21.010268501611577 ], [ -101.243712848651114, 21.010268501611574 ], [ -101.243712848651114, 21.006105195229431 ], [ -101.248285322359393, 21.006105195229466 ], [ -101.248285322359393, 21.010268501611577 ] ] ] } },
{ "type": "Feature", "properties": { "difference_1990_2000": 259.0, "difference_1990_2010": 311.0, "difference_1990_2020": 316.0 }, "geometry": { "type": "Polygon", "coordinates": [ [ [ -101.248285322359393, 21.026922875833257 ], [ -101.243712848651114, 21.026922875833286 ], [ -101.243712848651114, 21.022759109911153 ], [ -101.248285322359393, 21.022759109911153 ], [ -101.248285322359393, 21.026922875833257 ] ] ] } },
{ "type": "Feature", "properties": { "difference_1990_2000": -7.0, "difference_1990_2010": -5.0, "difference_1990_2020": 4.0 }, "geometry": { "type": "Polygon", "coordinates": [ [ [ -101.239140374942835, 21.014431922831672 ], [ -101.23456790123457, 21.014431922831637 ], [ -101.23456790123457, 21.010268501611581 ], [ -101.239140374942835, 21.010268501611581 ], [ -101.239140374942835, 21.014431922831672 ] ] ] } },
{ "type": "Feature", "properties": { "difference_1990_2000": -9.0, "difference_1990_2010": 2.0, "difference_1990_2020": 4.0 }, "geometry": { "type": "Polygon", "coordinates": [ [ [ -101.239140374942835, 21.00610519522947 ], [ -101.23456790123457, 21.00610519522947 ], [ -101.23456790123457, 21.001942003654001 ], [ -101.239140374942835, 21.001942003653994 ], [ -101.239140374942835, 21.00610519522947 ] ] ] } },
{ "type": "Feature", "properties": { "difference_1990_2000": 11.0, "difference_1990_2010": -2.0, "difference_1990_2020": 17.0 }, "geometry": { "type": "Polygon", "coordinates": [ [ [ -101.239140374942835, 21.001942003653994 ], [ -101.23456790123457, 21.001942003654001 ], [ -101.23456790123457, 20.997778926853787 ], [ -101.239140374942835, 20.997778926853819 ], [ -101.239140374942835, 21.001942003653994 ] ] ] } },
{ "type": "Feature", "properties": { "difference_1990_2000": -15.0, "difference_1990_2010": -7.0, "difference_1990_2020": 8.0 }, "geometry": { "type": "Polygon", "coordinates": [ [ [ -101.239140374942835, 21.010268501611581 ], [ -101.23456790123457, 21.010268501611581 ], [ -101.23456790123457, 21.00610519522947 ], [ -101.239140374942835, 21.00610519522947 ], [ -101.239140374942835, 21.010268501611581 ] ] ] } },
{ "type": "Feature", "properties": { "difference_1990_2000": 0.0, "difference_1990_2010": 0.0, "difference_1990_2020": 484.0 }, "geometry": { "type": "Polygon", "coordinates": [ [ [ -101.307727480566996, 20.960316395374452 ], [ -101.303155006858702, 20.960316395374452 ], [ -101.303155006858702, 20.956154464605579 ], [ -101.307727480566996, 20.956154464605579 ], [ -101.307727480566996, 20.960316395374452 ] ] ] } },
{ "type": "Feature", "properties": { "difference_1990_2000": 0.0, "difference_1990_2010": 0.0, "difference_1990_2020": 293.0 }, "geometry": { "type": "Polygon", "coordinates": [ [ [ -101.307727480566996, 20.964478440605738 ], [ -101.303155006858702, 20.96447844060571 ], [ -101.303155006858702, 20.960316395374452 ], [ -101.307727480566996, 20.960316395374452 ], [ -101.307727480566996, 20.964478440605738 ] ] ] } },
{ "type": "Feature", "properties": { "difference_1990_2000": 0.0, "difference_1990_2010": 166.0, "difference_1990_2020": 188.0 }, "geometry": { "type": "Polygon", "coordinates": [ [ [ -101.307727480566996, 20.993615964797598 ], [ -101.303155006858702, 20.993615964797602 ], [ -101.303155006858702, 20.989453117454069 ], [ -101.307727480566996, 20.989453117454087 ], [ -101.307727480566996, 20.993615964797598 ] ] ] } },
{ "type": "Feature", "properties": { "difference_1990_2000": -8.0, "difference_1990_2010": 33.0, "difference_1990_2020": 64.0 }, "geometry": { "type": "Polygon", "coordinates": [ [ [ -101.307727480566996, 20.989453117454087 ], [ -101.303155006858702, 20.989453117454069 ], [ -101.303155006858702, 20.98529038479187 ], [ -101.307727480566996, 20.985290384791917 ], [ -101.307727480566996, 20.989453117454087 ] ] ] } },
{ "type": "Feature", "properties": { "difference_1990_2000": 1.0, "difference_1990_2010": 835.0, "difference_1990_2020": 1471.0 }, "geometry": { "type": "Polygon", "coordinates": [ [ [ -101.298582533150437, 20.972802874580395 ], [ -101.294010059442158, 20.972802874580392 ], [ -101.294010059442158, 20.968640600330613 ], [ -101.298582533150437, 20.968640600330613 ], [ -101.298582533150437, 20.972802874580395 ] ] ] } },
{ "type": "Feature", "properties": { "difference_1990_2000": 0.0, "difference_1990_2010": 0.0, "difference_1990_2020": 936.0 }, "geometry": { "type": "Polygon", "coordinates": [ [ [ -101.298582533150437, 20.960316395374456 ], [ -101.294010059442158, 20.960316395374456 ], [ -101.294010059442158, 20.956154464605579 ], [ -101.298582533150437, 20.956154464605579 ], [ -101.298582533150437, 20.960316395374456 ] ] ] } },
{ "type": "Feature", "properties": { "difference_1990_2000": 0.0, "difference_1990_2010": 18.0, "difference_1990_2020": 27.0 }, "geometry": { "type": "Polygon", "coordinates": [ [ [ -101.298582533150437, 20.981127766779736 ], [ -101.294010059442158, 20.981127766779739 ], [ -101.294010059442158, 20.976965263386305 ], [ -101.298582533150437, 20.976965263386329 ], [ -101.298582533150437, 20.981127766779736 ] ] ] } },
{ "type": "Feature", "properties": { "difference_1990_2000": 0.0, "difference_1990_2010": 0.0, "difference_1990_2020": 963.0 }, "geometry": { "type": "Polygon", "coordinates": [ [ [ -101.298582533150437, 20.96447844060571 ], [ -101.294010059442158, 20.964478440605738 ], [ -101.294010059442158, 20.960316395374456 ], [ -101.298582533150437, 20.960316395374456 ], [ -101.298582533150437, 20.96447844060571 ] ] ] } },
{ "type": "Feature", "properties": { "difference_1990_2000": 0.0, "difference_1990_2010": 45.0, "difference_1990_2020": 185.0 }, "geometry": { "type": "Polygon", "coordinates": [ [ [ -101.298582533150437, 20.968640600330613 ], [ -101.294010059442158, 20.968640600330613 ], [ -101.294010059442158, 20.964478440605738 ], [ -101.298582533150437, 20.96447844060571 ], [ -101.298582533150437, 20.968640600330613 ] ] ] } },
{ "type": "Feature", "properties": { "difference_1990_2000": 0.0, "difference_1990_2010": 194.0, "difference_1990_2020": 293.0 }, "geometry": { "type": "Polygon", "coordinates": [ [ [ -101.298582533150437, 20.976965263386329 ], [ -101.294010059442158, 20.976965263386305 ], [ -101.294010059442158, 20.972802874580392 ], [ -101.298582533150437, 20.972802874580395 ], [ -101.298582533150437, 20.976965263386329 ] ] ] } },
{ "type": "Feature", "properties": { "difference_1990_2000": 0.0, "difference_1990_2010": 43.0, "difference_1990_2020": 116.0 }, "geometry": { "type": "Polygon", "coordinates": [ [ [ -101.298582533150437, 20.98529038479187 ], [ -101.294010059442158, 20.985290384791877 ], [ -101.294010059442158, 20.981127766779739 ], [ -101.298582533150437, 20.981127766779736 ], [ -101.298582533150437, 20.98529038479187 ] ] ] } },
{ "type": "Feature", "properties": { "difference_1990_2000": 1598.0, "difference_1990_2010": 2566.0, "difference_1990_2020": 1791.0 }, "geometry": { "type": "Polygon", "coordinates": [ [ [ -101.298582533150437, 20.997778926853822 ], [ -101.294010059442158, 20.997778926853819 ], [ -101.294010059442158, 20.993615964797602 ], [ -101.298582533150437, 20.993615964797598 ], [ -101.298582533150437, 20.997778926853822 ] ] ] } },
{ "type": "Feature", "properties": { "difference_1990_2000": 0.0, "difference_1990_2010": 1.0, "difference_1990_2020": 1.0 }, "geometry": { "type": "Polygon", "coordinates": [ [ [ -101.298582533150437, 21.00610519522947 ], [ -101.294010059442158, 21.006105195229466 ], [ -101.294010059442158, 21.001942003653998 ], [ -101.298582533150437, 21.001942003654005 ], [ -101.298582533150437, 21.00610519522947 ] ] ] } },
{ "type": "Feature", "properties": { "difference_1990_2000": 343.0, "difference_1990_2010": 387.0, "difference_1990_2020": 486.0 }, "geometry": { "type": "Polygon", "coordinates": [ [ [ -101.298582533150437, 21.001942003654005 ], [ -101.294010059442158, 21.001942003653998 ], [ -101.294010059442158, 20.997778926853819 ], [ -101.298582533150437, 20.997778926853822 ], [ -101.298582533150437, 21.001942003654005 ] ] ] } },
{ "type": "Feature", "properties": { "difference_1990_2000": -195.0, "difference_1990_2010": 29.0, "difference_1990_2020": 285.0 }, "geometry": { "type": "Polygon", "coordinates": [ [ [ -101.298582533150437, 20.993615964797598 ], [ -101.294010059442158, 20.993615964797602 ], [ -101.294010059442158, 20.989453117454065 ], [ -101.298582533150437, 20.989453117454055 ], [ -101.298582533150437, 20.993615964797598 ] ] ] } },
{ "type": "Feature", "properties": { "difference_1990_2000": -35.0, "difference_1990_2010": -26.0, "difference_1990_2020": 49.0 }, "geometry": { "type": "Polygon", "coordinates": [ [ [ -101.298582533150437, 20.989453117454055 ], [ -101.294010059442158, 20.989453117454065 ], [ -101.294010059442158, 20.985290384791877 ], [ -101.298582533150437, 20.98529038479187 ], [ -101.298582533150437, 20.989453117454055 ] ] ] } },
{ "type": "Feature", "properties": { "difference_1990_2000": 117.0, "difference_1990_2010": 2050.0, "difference_1990_2020": 2152.0 }, "geometry": { "type": "Polygon", "coordinates": [ [ [ -101.289437585733907, 20.972802874580395 ], [ -101.284865112025614, 20.972802874580371 ], [ -101.284865112025614, 20.968640600330616 ], [ -101.289437585733907, 20.968640600330616 ], [ -101.289437585733907, 20.972802874580395 ] ] ] } },
{ "type": "Feature", "properties": { "difference_1990_2000": 33.0, "difference_1990_2010": 62.0, "difference_1990_2020": 1563.0 }, "geometry": { "type": "Polygon", "coordinates": [ [ [ -101.289437585733907, 20.960316395374452 ], [ -101.284865112025614, 20.960316395374448 ], [ -101.284865112025614, 20.956154464605579 ], [ -101.289437585733907, 20.95615446460555 ], [ -101.289437585733907, 20.960316395374452 ] ] ] } },
{ "type": "Feature", "properties": { "difference_1990_2000": 285.0, "difference_1990_2010": 459.0, "difference_1990_2020": 544.0 }, "geometry": { "type": "Polygon", "coordinates": [ [ [ -101.289437585733907, 20.981127766779736 ], [ -101.284865112025614, 20.981127766779736 ], [ -101.284865112025614, 20.976965263386308 ], [ -101.289437585733907, 20.976965263386369 ], [ -101.289437585733907, 20.981127766779736 ] ] ] } },
{ "type": "Feature", "properties": { "difference_1990_2000": 178.0, "difference_1990_2010": 457.0, "difference_1990_2020": 1009.0 }, "geometry": { "type": "Polygon", "coordinates": [ [ [ -101.289437585733907, 20.964478440605706 ], [ -101.284865112025614, 20.964478440605706 ], [ -101.284865112025614, 20.960316395374448 ], [ -101.289437585733907, 20.960316395374452 ], [ -101.289437585733907, 20.964478440605706 ] ] ] } },
{ "type": "Feature", "properties": { "difference_1990_2000": 199.0, "difference_1990_2010": 1187.0, "difference_1990_2020": 1251.0 }, "geometry": { "type": "Polygon", "coordinates": [ [ [ -101.289437585733907, 20.968640600330616 ], [ -101.284865112025614, 20.968640600330616 ], [ -101.284865112025614, 20.964478440605706 ], [ -101.289437585733907, 20.964478440605706 ], [ -101.289437585733907, 20.968640600330616 ] ] ] } },
{ "type": "Feature", "properties": { "difference_1990_2000": 276.0, "difference_1990_2010": 483.0, "difference_1990_2020": 587.0 }, "geometry": { "type": "Polygon", "coordinates": [ [ [ -101.289437585733907, 20.976965263386369 ], [ -101.284865112025614, 20.976965263386308 ], [ -101.284865112025614, 20.972802874580371 ], [ -101.289437585733907, 20.972802874580395 ], [ -101.289437585733907, 20.976965263386369 ] ] ] } },
{ "type": "Feature", "properties": { "difference_1990_2000": 51.0, "difference_1990_2010": 227.0, "difference_1990_2020": 374.0 }, "geometry": { "type": "Polygon", "coordinates": [ [ [ -101.289437585733907, 21.014431922831672 ], [ -101.284865112025614, 21.014431922831672 ], [ -101.284865112025614, 21.010268501611581 ], [ -101.289437585733907, 21.010268501611577 ], [ -101.289437585733907, 21.014431922831672 ] ] ] } },
{ "type": "Feature", "properties": { "difference_1990_2000": 181.0, "difference_1990_2010": 252.0, "difference_1990_2020": 400.0 }, "geometry": { "type": "Polygon", "coordinates": [ [ [ -101.289437585733907, 20.985290384791917 ], [ -101.284865112025614, 20.985290384791863 ], [ -101.284865112025614, 20.981127766779736 ], [ -101.289437585733907, 20.981127766779736 ], [ -101.289437585733907, 20.985290384791917 ] ] ] } },
{ "type": "Feature", "properties": { "difference_1990_2000": 148.0, "difference_1990_2010": 184.0, "difference_1990_2020": 231.0 }, "geometry": { "type": "Polygon", "coordinates": [ [ [ -101.289437585733907, 20.997778926853819 ], [ -101.284865112025614, 20.997778926853819 ], [ -101.284865112025614, 20.993615964797563 ], [ -101.289437585733907, 20.993615964797563 ], [ -101.289437585733907, 20.997778926853819 ] ] ] } },
{ "type": "Feature", "properties": { "difference_1990_2000": 660.0, "difference_1990_2010": 1073.0, "difference_1990_2020": 1002.0 }, "geometry": { "type": "Polygon", "coordinates": [ [ [ -101.289437585733907, 21.00610519522947 ], [ -101.284865112025614, 21.006105195229466 ], [ -101.284865112025614, 21.001942003653998 ], [ -101.289437585733907, 21.001942003653998 ], [ -101.289437585733907, 21.00610519522947 ] ] ] } },
{ "type": "Feature", "properties": { "difference_1990_2000": 0.0, "difference_1990_2010": 0.0, "difference_1990_2020": 1290.0 }, "geometry": { "type": "Polygon", "coordinates": [ [ [ -101.289437585733907, 20.95615446460555 ], [ -101.284865112025614, 20.956154464605579 ], [ -101.284865112025614, 20.951992648267741 ], [ -101.289437585733907, 20.951992648267737 ], [ -101.289437585733907, 20.95615446460555 ] ] ] } },
{ "type": "Feature", "properties": { "difference_1990_2000": 727.0, "difference_1990_2010": 782.0, "difference_1990_2020": 747.0 }, "geometry": { "type": "Polygon", "coordinates": [ [ [ -101.289437585733907, 21.001942003653998 ], [ -101.284865112025614, 21.001942003653998 ], [ -101.284865112025614, 20.997778926853819 ], [ -101.289437585733907, 20.997778926853819 ], [ -101.289437585733907, 21.001942003653998 ] ] ] } },
{ "type": "Feature", "properties": { "difference_1990_2000": 508.0, "difference_1990_2010": 908.0, "difference_1990_2020": 898.0 }, "geometry": { "type": "Polygon", "coordinates": [ [ [ -101.289437585733907, 21.010268501611577 ], [ -101.284865112025614, 21.010268501611581 ], [ -101.284865112025614, 21.006105195229466 ], [ -101.289437585733907, 21.00610519522947 ], [ -101.289437585733907, 21.010268501611577 ] ] ] } },
{ "type": "Feature", "properties": { "difference_1990_2000": -103.0, "difference_1990_2010": -31.0, "difference_1990_2020": 28.0 }, "geometry": { "type": "Polygon", "coordinates": [ [ [ -101.289437585733907, 20.993615964797563 ], [ -101.284865112025614, 20.993615964797563 ], [ -101.284865112025614, 20.989453117454065 ], [ -101.289437585733907, 20.989453117454069 ], [ -101.289437585733907, 20.993615964797563 ] ] ] } },
{ "type": "Feature", "properties": { "difference_1990_2000": 115.0, "difference_1990_2010": 164.0, "difference_1990_2020": 313.0 }, "geometry": { "type": "Polygon", "coordinates": [ [ [ -101.289437585733907, 20.989453117454069 ], [ -101.284865112025614, 20.989453117454065 ], [ -101.284865112025614, 20.985290384791863 ], [ -101.289437585733907, 20.985290384791917 ], [ -101.289437585733907, 20.989453117454069 ] ] ] } },
{ "type": "Feature", "properties": { "difference_1990_2000": 268.0, "difference_1990_2010": 579.0, "difference_1990_2020": 618.0 }, "geometry": { "type": "Polygon", "coordinates": [ [ [ -101.280292638317334, 20.972802874580392 ], [ -101.275720164609055, 20.972802874580431 ], [ -101.275720164609055, 20.968640600330616 ], [ -101.280292638317334, 20.968640600330655 ], [ -101.280292638317334, 20.972802874580392 ] ] ] } },
{ "type": "Feature", "properties": { "difference_1990_2000": 339.0, "difference_1990_2010": 804.0, "difference_1990_2020": 1195.0 }, "geometry": { "type": "Polygon", "coordinates": [ [ [ -101.280292638317334, 21.022759109911149 ], [ -101.275720164609055, 21.022759109911153 ], [ -101.275720164609055, 21.018595458921073 ], [ -101.280292638317334, 21.018595458921077 ], [ -101.280292638317334, 21.022759109911149 ] ] ] } },
{ "type": "Feature", "properties": { "difference_1990_2000": 168.0, "difference_1990_2010": 238.0, "difference_1990_2020": 443.0 }, "geometry": { "type": "Polygon", "coordinates": [ [ [ -101.280292638317334, 20.960316395374448 ], [ -101.275720164609055, 20.960316395374452 ], [ -101.275720164609055, 20.956154464605579 ], [ -101.280292638317334, 20.956154464605579 ], [ -101.280292638317334, 20.960316395374448 ] ] ] } },
{ "type": "Feature", "properties": { "difference_1990_2000": 7.0, "difference_1990_2010": 1040.0, "difference_1990_2020": 1178.0 }, "geometry": { "type": "Polygon", "coordinates": [ [ [ -101.280292638317334, 20.981127766779739 ], [ -101.275720164609055, 20.981127766779757 ], [ -101.275720164609055, 20.976965263386329 ], [ -101.280292638317334, 20.976965263386333 ], [ -101.280292638317334, 20.981127766779739 ] ] ] } },
{ "type": "Feature", "properties": { "difference_1990_2000": 262.0, "difference_1990_2010": 507.0, "difference_1990_2020": 558.0 }, "geometry": { "type": "Polygon", "coordinates": [ [ [ -101.280292638317334, 20.964478440605706 ], [ -101.275720164609055, 20.964478440605706 ], [ -101.275720164609055, 20.960316395374452 ], [ -101.280292638317334, 20.960316395374448 ], [ -101.280292638317334, 20.964478440605706 ] ] ] } },
{ "type": "Feature", "properties": { "difference_1990_2000": 289.0, "difference_1990_2010": 578.0, "difference_1990_2020": 642.0 }, "geometry": { "type": "Polygon", "coordinates": [ [ [ -101.280292638317334, 20.968640600330655 ], [ -101.275720164609055, 20.968640600330616 ], [ -101.275720164609055, 20.964478440605706 ], [ -101.280292638317334, 20.964478440605706 ], [ -101.280292638317334, 20.968640600330655 ] ] ] } },
{ "type": "Feature", "properties": { "difference_1990_2000": 39.0, "difference_1990_2010": 909.0, "difference_1990_2020": 742.0 }, "geometry": { "type": "Polygon", "coordinates": [ [ [ -101.280292638317334, 20.976965263386333 ], [ -101.275720164609055, 20.976965263386329 ], [ -101.275720164609055, 20.972802874580431 ], [ -101.280292638317334, 20.972802874580392 ], [ -101.280292638317334, 20.976965263386333 ] ] ] } },
{ "type": "Feature", "properties": { "difference_1990_2000": 479.0, "difference_1990_2010": 875.0, "difference_1990_2020": 1068.0 }, "geometry": { "type": "Polygon", "coordinates": [ [ [ -101.280292638317334, 21.018595458921077 ], [ -101.275720164609055, 21.018595458921073 ], [ -101.275720164609055, 21.014431922831672 ], [ -101.280292638317334, 21.014431922831669 ], [ -101.280292638317334, 21.018595458921077 ] ] ] } },
{ "type": "Feature", "properties": { "difference_1990_2000": 22.0, "difference_1990_2010": 29.0, "difference_1990_2020": 35.0 }, "geometry": { "type": "Polygon", "coordinates": [ [ [ -101.280292638317334, 20.985290384791863 ], [ -101.275720164609055, 20.985290384791917 ], [ -101.275720164609055, 20.981127766779757 ], [ -101.280292638317334, 20.981127766779739 ], [ -101.280292638317334, 20.985290384791863 ] ] ] } },
{ "type": "Feature", "properties": { "difference_1990_2000": 224.0, "difference_1990_2010": 370.0, "difference_1990_2020": 414.0 }, "geometry": { "type": "Polygon", "coordinates": [ [ [ -101.280292638317334, 21.014431922831669 ], [ -101.275720164609055, 21.014431922831672 ], [ -101.275720164609055, 21.010268501611577 ], [ -101.280292638317334, 21.010268501611581 ], [ -101.280292638317334, 21.014431922831669 ] ] ] } },
{ "type": "Feature", "properties": { "difference_1990_2000": 49.0, "difference_1990_2010": 86.0, "difference_1990_2020": 55.0 }, "geometry": { "type": "Polygon", "coordinates": [ [ [ -101.280292638317334, 21.00610519522947 ], [ -101.275720164609055, 21.00610519522948 ], [ -101.275720164609055, 21.001942003653998 ], [ -101.280292638317334, 21.001942003654015 ], [ -101.280292638317334, 21.00610519522947 ] ] ] } },
{ "type": "Feature", "properties": { "difference_1990_2000": 41.0, "difference_1990_2010": 37.0, "difference_1990_2020": 37.0 }, "geometry": { "type": "Polygon", "coordinates": [ [ [ -101.280292638317334, 20.997778926853847 ], [ -101.275720164609055, 20.997778926853819 ], [ -101.275720164609055, 20.993615964797616 ], [ -101.280292638317334, 20.993615964797602 ], [ -101.280292638317334, 20.997778926853847 ] ] ] } },
{ "type": "Feature", "properties": { "difference_1990_2000": 37.0, "difference_1990_2010": 69.0, "difference_1990_2020": 57.0 }, "geometry": { "type": "Polygon", "coordinates": [ [ [ -101.280292638317334, 21.010268501611581 ], [ -101.275720164609055, 21.010268501611577 ], [ -101.275720164609055, 21.00610519522948 ], [ -101.280292638317334, 21.00610519522947 ], [ -101.280292638317334, 21.010268501611581 ] ] ] } },
{ "type": "Feature", "properties": { "difference_1990_2000": 14.0, "difference_1990_2010": 15.0, "difference_1990_2020": 13.0 }, "geometry": { "type": "Polygon", "coordinates": [ [ [ -101.280292638317334, 21.001942003654015 ], [ -101.275720164609055, 21.001942003653998 ], [ -101.275720164609055, 20.997778926853819 ], [ -101.280292638317334, 20.997778926853847 ], [ -101.280292638317334, 21.001942003654015 ] ] ] } },
{ "type": "Feature", "properties": { "difference_1990_2000": 29.0, "difference_1990_2010": 40.0, "difference_1990_2020": 43.0 }, "geometry": { "type": "Polygon", "coordinates": [ [ [ -101.280292638317334, 20.993615964797602 ], [ -101.275720164609055, 20.993615964797616 ], [ -101.275720164609055, 20.989453117454069 ], [ -101.280292638317334, 20.989453117454069 ], [ -101.280292638317334, 20.993615964797602 ] ] ] } },
{ "type": "Feature", "properties": { "difference_1990_2000": 24.0, "difference_1990_2010": 38.0, "difference_1990_2020": 42.0 }, "geometry": { "type": "Polygon", "coordinates": [ [ [ -101.280292638317334, 21.026922875833254 ], [ -101.275720164609055, 21.026922875833286 ], [ -101.275720164609055, 21.022759109911153 ], [ -101.280292638317334, 21.022759109911149 ], [ -101.280292638317334, 21.026922875833254 ] ] ] } },
{ "type": "Feature", "properties": { "difference_1990_2000": 44.0, "difference_1990_2010": 69.0, "difference_1990_2020": 67.0 }, "geometry": { "type": "Polygon", "coordinates": [ [ [ -101.280292638317334, 20.989453117454069 ], [ -101.275720164609055, 20.989453117454069 ], [ -101.275720164609055, 20.985290384791917 ], [ -101.280292638317334, 20.985290384791863 ], [ -101.280292638317334, 20.989453117454069 ] ] ] } },
{ "type": "Feature", "properties": { "difference_1990_2000": 8.0, "difference_1990_2010": 16.0, "difference_1990_2020": 18.0 }, "geometry": { "type": "Polygon", "coordinates": [ [ [ -101.271147690900776, 20.972802874580395 ], [ -101.266575217192496, 20.972802874580395 ], [ -101.266575217192496, 20.968640600330616 ], [ -101.271147690900776, 20.968640600330613 ], [ -101.271147690900776, 20.972802874580395 ] ] ] } },
{ "type": "Feature", "properties": { "difference_1990_2000": 18.0, "difference_1990_2010": 34.0, "difference_1990_2020": 116.0 }, "geometry": { "type": "Polygon", "coordinates": [ [ [ -101.271147690900776, 21.031086756718757 ], [ -101.266575217192496, 21.031086756718757 ], [ -101.266575217192496, 21.026922875833286 ], [ -101.271147690900776, 21.026922875833286 ], [ -101.271147690900776, 21.031086756718757 ] ] ] } },
{ "type": "Feature", "properties": { "difference_1990_2000": 84.0, "difference_1990_2010": 180.0, "difference_1990_2020": 179.0 }, "geometry": { "type": "Polygon", "coordinates": [ [ [ -101.271147690900776, 21.022759109911149 ], [ -101.266575217192496, 21.022759109911149 ], [ -101.266575217192496, 21.01859545892107 ], [ -101.271147690900776, 21.018595458921077 ], [ -101.271147690900776, 21.022759109911149 ] ] ] } },
{ "type": "Feature", "properties": { "difference_1990_2000": 27.0, "difference_1990_2010": 57.0, "difference_1990_2020": 69.0 }, "geometry": { "type": "Polygon", "coordinates": [ [ [ -101.271147690900776, 20.960316395374452 ], [ -101.266575217192496, 20.960316395374452 ], [ -101.266575217192496, 20.956154464605579 ], [ -101.271147690900776, 20.956154464605603 ], [ -101.271147690900776, 20.960316395374452 ] ] ] } },
{ "type": "Feature", "properties": { "difference_1990_2000": 107.0, "difference_1990_2010": 163.0, "difference_1990_2020": 228.0 }, "geometry": { "type": "Polygon", "coordinates": [ [ [ -101.271147690900776, 20.964478440605703 ], [ -101.266575217192496, 20.964478440605706 ], [ -101.266575217192496, 20.960316395374452 ], [ -101.271147690900776, 20.960316395374452 ], [ -101.271147690900776, 20.964478440605703 ] ] ] } },
{ "type": "Feature", "properties": { "difference_1990_2000": 37.0, "difference_1990_2010": 73.0, "difference_1990_2020": 80.0 }, "geometry": { "type": "Polygon", "coordinates": [ [ [ -101.271147690900776, 20.968640600330613 ], [ -101.266575217192496, 20.968640600330616 ], [ -101.266575217192496, 20.964478440605706 ], [ -101.271147690900776, 20.964478440605703 ], [ -101.271147690900776, 20.968640600330613 ] ] ] } },
{ "type": "Feature", "properties": { "difference_1990_2000": 142.0, "difference_1990_2010": 54.0, "difference_1990_2020": 176.0 }, "geometry": { "type": "Polygon", "coordinates": [ [ [ -101.271147690900776, 21.018595458921077 ], [ -101.266575217192496, 21.01859545892107 ], [ -101.266575217192496, 21.014431922831672 ], [ -101.271147690900776, 21.014431922831672 ], [ -101.271147690900776, 21.018595458921077 ] ] ] } },
{ "type": "Feature", "properties": { "difference_1990_2000": -4.0, "difference_1990_2010": -173.0, "difference_1990_2020": -135.0 }, "geometry": { "type": "Polygon", "coordinates": [ [ [ -101.271147690900776, 21.014431922831672 ], [ -101.266575217192496, 21.014431922831672 ], [ -101.266575217192496, 21.010268501611577 ], [ -101.271147690900776, 21.010268501611545 ], [ -101.271147690900776, 21.014431922831672 ] ] ] } },
{ "type": "Feature", "properties": { "difference_1990_2000": 1.0, "difference_1990_2010": -1.0, "difference_1990_2020": 0.0 }, "geometry": { "type": "Polygon", "coordinates": [ [ [ -101.271147690900776, 21.006105195229473 ], [ -101.266575217192496, 21.006105195229487 ], [ -101.266575217192496, 21.001942003654015 ], [ -101.271147690900776, 21.001942003654015 ], [ -101.271147690900776, 21.006105195229473 ] ] ] } },
{ "type": "Feature", "properties": { "difference_1990_2000": 12.0, "difference_1990_2010": -67.0, "difference_1990_2020": -33.0 }, "geometry": { "type": "Polygon", "coordinates": [ [ [ -101.271147690900776, 21.010268501611545 ], [ -101.266575217192496, 21.010268501611577 ], [ -101.266575217192496, 21.006105195229487 ], [ -101.271147690900776, 21.006105195229473 ], [ -101.271147690900776, 21.010268501611545 ] ] ] } },
{ "type": "Feature", "properties": { "difference_1990_2000": 0.0, "difference_1990_2010": 7.0, "difference_1990_2020": 11.0 }, "geometry": { "type": "Polygon", "coordinates": [ [ [ -101.271147690900776, 20.956154464605603 ], [ -101.266575217192496, 20.956154464605579 ], [ -101.266575217192496, 20.951992648267773 ], [ -101.271147690900776, 20.951992648267726 ], [ -101.271147690900776, 20.956154464605603 ] ] ] } },
{ "type": "Feature", "properties": { "difference_1990_2000": 380.0, "difference_1990_2010": 309.0, "difference_1990_2020": 590.0 }, "geometry": { "type": "Polygon", "coordinates": [ [ [ -101.271147690900776, 21.026922875833286 ], [ -101.266575217192496, 21.026922875833286 ], [ -101.266575217192496, 21.022759109911149 ], [ -101.271147690900776, 21.022759109911149 ], [ -101.271147690900776, 21.026922875833286 ] ] ] } },
{ "type": "Feature", "properties": { "difference_1990_2000": 126.0, "difference_1990_2010": 190.0, "difference_1990_2020": -116.0 }, "geometry": { "type": "Polygon", "coordinates": [ [ [ -101.262002743484246, 21.031086756718725 ], [ -101.25743026977598, 21.031086756718757 ], [ -101.25743026977598, 21.026922875833293 ], [ -101.262002743484246, 21.026922875833257 ], [ -101.262002743484246, 21.031086756718725 ] ] ] } },
{ "type": "Feature", "properties": { "difference_1990_2000": -536.0, "difference_1990_2010": -1235.0, "difference_1990_2020": -1344.0 }, "geometry": { "type": "Polygon", "coordinates": [ [ [ -101.262002743484246, 21.022759109911153 ], [ -101.25743026977598, 21.022759109911153 ], [ -101.25743026977598, 21.018595458921073 ], [ -101.262002743484246, 21.018595458921077 ], [ -101.262002743484246, 21.022759109911153 ] ] ] } },
{ "type": "Feature", "properties": { "difference_1990_2000": 41.0, "difference_1990_2010": 85.0, "difference_1990_2020": 32.0 }, "geometry": { "type": "Polygon", "coordinates": [ [ [ -101.262002743484246, 21.047743430522342 ], [ -101.25743026977598, 21.047743430522324 ], [ -101.25743026977598, 21.043579089469457 ], [ -101.262002743484246, 21.043579089469461 ], [ -101.262002743484246, 21.047743430522342 ] ] ] } },
{ "type": "Feature", "properties": { "difference_1990_2000": 47.0, "difference_1990_2010": 105.0, "difference_1990_2020": 54.0 }, "geometry": { "type": "Polygon", "coordinates": [ [ [ -101.262002743484246, 21.035250752599048 ], [ -101.25743026977598, 21.035250752599048 ], [ -101.25743026977598, 21.031086756718757 ], [ -101.262002743484246, 21.031086756718725 ], [ -101.262002743484246, 21.035250752599048 ] ] ] } },
{ "type": "Feature", "properties": { "difference_1990_2000": 39.0, "difference_1990_2010": 116.0, "difference_1990_2020": 118.0 }, "geometry": { "type": "Polygon", "coordinates": [ [ [ -101.262002743484246, 21.039414863505506 ], [ -101.25743026977598, 21.039414863505506 ], [ -101.25743026977598, 21.035250752599048 ], [ -101.262002743484246, 21.035250752599048 ], [ -101.262002743484246, 21.039414863505506 ] ] ] } },
{ "type": "Feature", "properties": { "difference_1990_2000": -390.0, "difference_1990_2010": -859.0, "difference_1990_2020": -1042.0 }, "geometry": { "type": "Polygon", "coordinates": [ [ [ -101.262002743484246, 21.018595458921077 ], [ -101.25743026977598, 21.018595458921073 ], [ -101.25743026977598, 21.014431922831672 ], [ -101.262002743484246, 21.014431922831676 ], [ -101.262002743484246, 21.018595458921077 ] ] ] } },
{ "type": "Feature", "properties": { "difference_1990_2000": 40.0, "difference_1990_2010": 101.0, "difference_1990_2020": 73.0 }, "geometry": { "type": "Polygon", "coordinates": [ [ [ -101.262002743484246, 21.043579089469461 ], [ -101.25743026977598, 21.043579089469457 ], [ -101.25743026977598, 21.039414863505506 ], [ -101.262002743484246, 21.039414863505506 ], [ -101.262002743484246, 21.043579089469461 ] ] ] } },
{ "type": "Feature", "properties": { "difference_1990_2000": 202.0, "difference_1990_2010": 274.0, "difference_1990_2020": 284.0 }, "geometry": { "type": "Polygon", "coordinates": [ [ [ -101.262002743484246, 21.014431922831676 ], [ -101.25743026977598, 21.014431922831672 ], [ -101.25743026977598, 21.010268501611574 ], [ -101.262002743484246, 21.010268501611545 ], [ -101.262002743484246, 21.014431922831676 ] ] ] } },
{ "type": "Feature", "properties": { "difference_1990_2000": 5.0, "difference_1990_2010": 7.0, "difference_1990_2020": 8.0 }, "geometry": { "type": "Polygon", "coordinates": [ [ [ -101.262002743484246, 21.010268501611545 ], [ -101.25743026977598, 21.010268501611574 ], [ -101.25743026977598, 21.006105195229434 ], [ -101.262002743484246, 21.006105195229473 ], [ -101.262002743484246, 21.010268501611545 ] ] ] } },
{ "type": "Feature", "properties": { "difference_1990_2000": -168.0, "difference_1990_2010": -636.0, "difference_1990_2020": -805.0 }, "geometry": { "type": "Polygon", "coordinates": [ [ [ -101.262002743484246, 21.026922875833257 ], [ -101.25743026977598, 21.026922875833293 ], [ -101.25743026977598, 21.022759109911153 ], [ -101.262002743484246, 21.022759109911153 ], [ -101.262002743484246, 21.026922875833257 ] ] ] } },
{ "type": "Feature", "properties": { "difference_1990_2000": -64.0, "difference_1990_2010": 11.0, "difference_1990_2020": -45.0 }, "geometry": { "type": "Polygon", "coordinates": [ [ [ -101.252857796067687, 21.031086756718757 ], [ -101.248285322359393, 21.031086756718757 ], [ -101.248285322359393, 21.026922875833257 ], [ -101.252857796067687, 21.026922875833254 ], [ -101.252857796067687, 21.031086756718757 ] ] ] } },
{ "type": "Feature", "properties": { "difference_1990_2000": -82.0, "difference_1990_2010": -352.0, "difference_1990_2020": -639.0 }, "geometry": { "type": "Polygon", "coordinates": [ [ [ -101.252857796067687, 21.022759109911149 ], [ -101.248285322359393, 21.022759109911153 ], [ -101.248285322359393, 21.018595458921073 ], [ -101.252857796067687, 21.018595458921038 ], [ -101.252857796067687, 21.022759109911149 ] ] ] } },
{ "type": "Feature", "properties": { "difference_1990_2000": 23.0, "difference_1990_2010": -131.0, "difference_1990_2020": -32.0 }, "geometry": { "type": "Polygon", "coordinates": [ [ [ -101.252857796067687, 21.035250752599048 ], [ -101.248285322359393, 21.035250752599048 ], [ -101.248285322359393, 21.031086756718757 ], [ -101.252857796067687, 21.031086756718757 ], [ -101.252857796067687, 21.035250752599048 ] ] ] } },
{ "type": "Feature", "properties": { "difference_1990_2000": 1.0, "difference_1990_2010": -2.0, "difference_1990_2020": 1.0 }, "geometry": { "type": "Polygon", "coordinates": [ [ [ -101.252857796067687, 21.03941486350551 ], [ -101.248285322359393, 21.039414863505506 ], [ -101.248285322359393, 21.035250752599048 ], [ -101.252857796067687, 21.035250752599048 ], [ -101.252857796067687, 21.03941486350551 ] ] ] } },
{ "type": "Feature", "properties": { "difference_1990_2000": -515.0, "difference_1990_2010": -1109.0, "difference_1990_2020": -1342.0 }, "geometry": { "type": "Polygon", "coordinates": [ [ [ -101.252857796067687, 21.018595458921038 ], [ -101.248285322359393, 21.018595458921073 ], [ -101.248285322359393, 21.014431922831669 ], [ -101.252857796067687, 21.014431922831672 ], [ -101.252857796067687, 21.018595458921038 ] ] ] } },
{ "type": "Feature", "properties": { "difference_1990_2000": -562.0, "difference_1990_2010": -1061.0, "difference_1990_2020": -1351.0 }, "geometry": { "type": "Polygon", "coordinates": [ [ [ -101.252857796067687, 21.014431922831672 ], [ -101.248285322359393, 21.014431922831669 ], [ -101.248285322359393, 21.010268501611577 ], [ -101.252857796067687, 21.010268501611542 ], [ -101.252857796067687, 21.014431922831672 ] ] ] } },
{ "type": "Feature", "properties": { "difference_1990_2000": 181.0, "difference_1990_2010": 199.0, "difference_1990_2020": 65.0 }, "geometry": { "type": "Polygon", "coordinates": [ [ [ -101.252857796067687, 21.006105195229438 ], [ -101.248285322359393, 21.006105195229466 ], [ -101.248285322359393, 21.001942003654001 ], [ -101.252857796067687, 21.001942003654005 ], [ -101.252857796067687, 21.006105195229438 ] ] ] } },
{ "type": "Feature", "properties": { "difference_1990_2000": 153.0, "difference_1990_2010": 127.0, "difference_1990_2020": -32.0 }, "geometry": { "type": "Polygon", "coordinates": [ [ [ -101.252857796067687, 21.010268501611542 ], [ -101.248285322359393, 21.010268501611577 ], [ -101.248285322359393, 21.006105195229466 ], [ -101.252857796067687, 21.006105195229438 ], [ -101.252857796067687, 21.010268501611542 ] ] ] } },
{ "type": "Feature", "properties": { "difference_1990_2000": 46.0, "difference_1990_2010": 56.0, "difference_1990_2020": 24.0 }, "geometry": { "type": "Polygon", "coordinates": [ [ [ -101.252857796067687, 21.001942003654005 ], [ -101.248285322359393, 21.001942003654001 ], [ -101.248285322359393, 20.99777892685379 ], [ -101.252857796067687, 20.997778926853819 ], [ -101.252857796067687, 21.001942003654005 ] ] ] } },
{ "type": "Feature", "properties": { "difference_1990_2000": 232.0, "difference_1990_2010": 322.0, "difference_1990_2020": 256.0 }, "geometry": { "type": "Polygon", "coordinates": [ [ [ -101.252857796067687, 21.026922875833254 ], [ -101.248285322359393, 21.026922875833257 ], [ -101.248285322359393, 21.022759109911153 ], [ -101.252857796067687, 21.022759109911149 ], [ -101.252857796067687, 21.026922875833254 ] ] ] } },
{ "type": "Feature", "properties": { "difference_1990_2000": 67.0, "difference_1990_2010": 83.0, "difference_1990_2020": 98.0 }, "geometry": { "type": "Polygon", "coordinates": [ [ [ -101.243712848651114, 21.022759109911153 ], [ -101.239140374942835, 21.022759109911149 ], [ -101.239140374942835, 21.018595458921073 ], [ -101.243712848651114, 21.018595458921073 ], [ -101.243712848651114, 21.022759109911153 ] ] ] } },
{ "type": "Feature", "properties": { "difference_1990_2000": 95.0, "difference_1990_2010": 119.0, "difference_1990_2020": 139.0 }, "geometry": { "type": "Polygon", "coordinates": [ [ [ -101.243712848651114, 21.018595458921073 ], [ -101.239140374942835, 21.018595458921073 ], [ -101.239140374942835, 21.014431922831672 ], [ -101.243712848651114, 21.014431922831672 ], [ -101.243712848651114, 21.018595458921073 ] ] ] } },
{ "type": "Feature", "properties": { "difference_1990_2000": 123.0, "difference_1990_2010": 148.0, "difference_1990_2020": 131.0 }, "geometry": { "type": "Polygon", "coordinates": [ [ [ -101.243712848651114, 21.014431922831672 ], [ -101.239140374942835, 21.014431922831672 ], [ -101.239140374942835, 21.010268501611581 ], [ -101.243712848651114, 21.010268501611574 ], [ -101.243712848651114, 21.014431922831672 ] ] ] } },
{ "type": "Feature", "properties": { "difference_1990_2000": -182.0, "difference_1990_2010": -99.0, "difference_1990_2020": -117.0 }, "geometry": { "type": "Polygon", "coordinates": [ [ [ -101.243712848651114, 21.006105195229431 ], [ -101.239140374942835, 21.00610519522947 ], [ -101.239140374942835, 21.001942003653994 ], [ -101.243712848651114, 21.001942003654001 ], [ -101.243712848651114, 21.006105195229431 ] ] ] } },
{ "type": "Feature", "properties": { "difference_1990_2000": 17.0, "difference_1990_2010": 51.0, "difference_1990_2020": 40.0 }, "geometry": { "type": "Polygon", "coordinates": [ [ [ -101.243712848651114, 21.001942003654001 ], [ -101.239140374942835, 21.001942003653994 ], [ -101.239140374942835, 20.997778926853819 ], [ -101.243712848651114, 20.997778926853819 ], [ -101.243712848651114, 21.001942003654001 ] ] ] } },
{ "type": "Feature", "properties": { "difference_1990_2000": 11.0, "difference_1990_2010": 165.0, "difference_1990_2020": 145.0 }, "geometry": { "type": "Polygon", "coordinates": [ [ [ -101.243712848651114, 21.010268501611574 ], [ -101.239140374942835, 21.010268501611581 ], [ -101.239140374942835, 21.00610519522947 ], [ -101.243712848651114, 21.006105195229431 ], [ -101.243712848651114, 21.010268501611574 ] ] ] } },
{ "type": "Feature", "properties": { "difference_1990_2000": 10.0, "difference_1990_2010": 10.0, "difference_1990_2020": 14.0 }, "geometry": { "type": "Polygon", "coordinates": [ [ [ -101.243712848651114, 21.026922875833286 ], [ -101.239140374942835, 21.026922875833282 ], [ -101.239140374942835, 21.022759109911149 ], [ -101.243712848651114, 21.022759109911153 ], [ -101.243712848651114, 21.026922875833286 ] ] ] } },
{ "type": "Feature", "properties": { "difference_1990_2000": 0.0, "difference_1990_2010": 0.0, "difference_1990_2020": 64.0 }, "geometry": { "type": "Polygon", "coordinates": [ [ [ -101.303155006858745, 20.972802874580392 ], [ -101.298582533150437, 20.972802874580395 ], [ -101.298582533150437, 20.968640600330613 ], [ -101.303155006858745, 20.968640600330613 ], [ -101.303155006858745, 20.972802874580392 ] ] ] } },
{ "type": "Feature", "properties": { "difference_1990_2000": 0.0, "difference_1990_2010": 0.0, "difference_1990_2020": 1417.0 }, "geometry": { "type": "Polygon", "coordinates": [ [ [ -101.303155006858745, 20.960316395374452 ], [ -101.298582533150437, 20.960316395374456 ], [ -101.298582533150437, 20.956154464605579 ], [ -101.303155006858745, 20.956154464605579 ], [ -101.303155006858745, 20.960316395374452 ] ] ] } },
{ "type": "Feature", "properties": { "difference_1990_2000": 0.0, "difference_1990_2010": 0.0, "difference_1990_2020": 740.0 }, "geometry": { "type": "Polygon", "coordinates": [ [ [ -101.303155006858745, 20.96447844060571 ], [ -101.298582533150437, 20.96447844060571 ], [ -101.298582533150437, 20.960316395374456 ], [ -101.303155006858745, 20.960316395374452 ], [ -101.303155006858745, 20.96447844060571 ] ] ] } },
{ "type": "Feature", "properties": { "difference_1990_2000": 0.0, "difference_1990_2010": 0.0, "difference_1990_2020": 11.0 }, "geometry": { "type": "Polygon", "coordinates": [ [ [ -101.303155006858745, 20.968640600330613 ], [ -101.298582533150437, 20.968640600330613 ], [ -101.298582533150437, 20.96447844060571 ], [ -101.303155006858745, 20.96447844060571 ], [ -101.303155006858745, 20.968640600330613 ] ] ] } },
{ "type": "Feature", "properties": { "difference_1990_2000": 0.0, "difference_1990_2010": 293.0, "difference_1990_2020": 329.0 }, "geometry": { "type": "Polygon", "coordinates": [ [ [ -101.303155006858745, 20.997778926853826 ], [ -101.298582533150437, 20.997778926853822 ], [ -101.298582533150437, 20.993615964797598 ], [ -101.303155006858745, 20.993615964797602 ], [ -101.303155006858745, 20.997778926853826 ] ] ] } },
{ "type": "Feature", "properties": { "difference_1990_2000": 0.0, "difference_1990_2010": 1064.0, "difference_1990_2020": 1185.0 }, "geometry": { "type": "Polygon", "coordinates": [ [ [ -101.303155006858745, 20.993615964797602 ], [ -101.298582533150437, 20.993615964797598 ], [ -101.298582533150437, 20.989453117454055 ], [ -101.303155006858745, 20.989453117454069 ], [ -101.303155006858745, 20.993615964797602 ] ] ] } },
{ "type": "Feature", "properties": { "difference_1990_2000": -28.0, "difference_1990_2010": 118.0, "difference_1990_2020": 215.0 }, "geometry": { "type": "Polygon", "coordinates": [ [ [ -101.303155006858745, 20.989453117454069 ], [ -101.298582533150437, 20.989453117454055 ], [ -101.298582533150437, 20.98529038479187 ], [ -101.303155006858745, 20.98529038479187 ], [ -101.303155006858745, 20.989453117454069 ] ] ] } },
{ "type": "Feature", "properties": { "difference_1990_2000": 256.0, "difference_1990_2010": 1024.0, "difference_1990_2020": 1482.0 }, "geometry": { "type": "Polygon", "coordinates": [ [ [ -101.294010059442158, 20.972802874580392 ], [ -101.289437585733907, 20.972802874580395 ], [ -101.289437585733907, 20.968640600330616 ], [ -101.294010059442158, 20.968640600330613 ], [ -101.294010059442158, 20.972802874580392 ] ] ] } },
{ "type": "Feature", "properties": { "difference_1990_2000": 0.0, "difference_1990_2010": 0.0, "difference_1990_2020": 457.0 }, "geometry": { "type": "Polygon", "coordinates": [ [ [ -101.294010059442158, 20.960316395374456 ], [ -101.289437585733907, 20.960316395374452 ], [ -101.289437585733907, 20.95615446460555 ], [ -101.294010059442158, 20.956154464605579 ], [ -101.294010059442158, 20.960316395374456 ] ] ] } },
{ "type": "Feature", "properties": { "difference_1990_2000": 129.0, "difference_1990_2010": 231.0, "difference_1990_2020": 277.0 }, "geometry": { "type": "Polygon", "coordinates": [ [ [ -101.294010059442158, 20.981127766779739 ], [ -101.289437585733907, 20.981127766779736 ], [ -101.289437585733907, 20.976965263386369 ], [ -101.294010059442158, 20.976965263386305 ], [ -101.294010059442158, 20.981127766779739 ] ] ] } },
{ "type": "Feature", "properties": { "difference_1990_2000": 0.0, "difference_1990_2010": 22.0, "difference_1990_2020": 399.0 }, "geometry": { "type": "Polygon", "coordinates": [ [ [ -101.294010059442158, 20.964478440605738 ], [ -101.289437585733907, 20.964478440605706 ], [ -101.289437585733907, 20.960316395374452 ], [ -101.294010059442158, 20.960316395374456 ], [ -101.294010059442158, 20.964478440605738 ] ] ] } },
{ "type": "Feature", "properties": { "difference_1990_2000": 41.0, "difference_1990_2010": 465.0, "difference_1990_2020": 658.0 }, "geometry": { "type": "Polygon", "coordinates": [ [ [ -101.294010059442158, 20.968640600330613 ], [ -101.289437585733907, 20.968640600330616 ], [ -101.289437585733907, 20.964478440605706 ], [ -101.294010059442158, 20.964478440605738 ], [ -101.294010059442158, 20.968640600330613 ] ] ] } },
{ "type": "Feature", "properties": { "difference_1990_2000": 218.0, "difference_1990_2010": 795.0, "difference_1990_2020": 1032.0 }, "geometry": { "type": "Polygon", "coordinates": [ [ [ -101.294010059442158, 20.976965263386305 ], [ -101.289437585733907, 20.976965263386369 ], [ -101.289437585733907, 20.972802874580395 ], [ -101.294010059442158, 20.972802874580392 ], [ -101.294010059442158, 20.976965263386305 ] ] ] } },
{ "type": "Feature", "properties": { "difference_1990_2000": 22.0, "difference_1990_2010": 150.0, "difference_1990_2020": 243.0 }, "geometry": { "type": "Polygon", "coordinates": [ [ [ -101.294010059442158, 20.985290384791877 ], [ -101.289437585733907, 20.985290384791917 ], [ -101.289437585733907, 20.981127766779736 ], [ -101.294010059442158, 20.981127766779739 ], [ -101.294010059442158, 20.985290384791877 ] ] ] } },
{ "type": "Feature", "properties": { "difference_1990_2000": 13.0, "difference_1990_2010": 27.0, "difference_1990_2020": 29.0 }, "geometry": { "type": "Polygon", "coordinates": [ [ [ -101.294010059442158, 21.014431922831672 ], [ -101.289437585733907, 21.014431922831672 ], [ -101.289437585733907, 21.010268501611577 ], [ -101.294010059442158, 21.010268501611595 ], [ -101.294010059442158, 21.014431922831672 ] ] ] } },
{ "type": "Feature", "properties": { "difference_1990_2000": 1411.0, "difference_1990_2010": 1188.0, "difference_1990_2020": 1276.0 }, "geometry": { "type": "Polygon", "coordinates": [ [ [ -101.294010059442158, 20.997778926853819 ], [ -101.289437585733907, 20.997778926853819 ], [ -101.289437585733907, 20.993615964797563 ], [ -101.294010059442158, 20.993615964797602 ], [ -101.294010059442158, 20.997778926853819 ] ] ] } },
{ "type": "Feature", "properties": { "difference_1990_2000": 189.0, "difference_1990_2010": 565.0, "difference_1990_2020": 780.0 }, "geometry": { "type": "Polygon", "coordinates": [ [ [ -101.294010059442158, 21.006105195229466 ], [ -101.289437585733907, 21.00610519522947 ], [ -101.289437585733907, 21.001942003653998 ], [ -101.294010059442158, 21.001942003653998 ], [ -101.294010059442158, 21.006105195229466 ] ] ] } },
{ "type": "Feature", "properties": { "difference_1990_2000": 482.0, "difference_1990_2010": 871.0, "difference_1990_2020": 953.0 }, "geometry": { "type": "Polygon", "coordinates": [ [ [ -101.294010059442158, 21.001942003653998 ], [ -101.289437585733907, 21.001942003653998 ], [ -101.289437585733907, 20.997778926853819 ], [ -101.294010059442158, 20.997778926853819 ], [ -101.294010059442158, 21.001942003653998 ] ] ] } },
{ "type": "Feature", "properties": { "difference_1990_2000": 0.0, "difference_1990_2010": 0.0, "difference_1990_2020": 1722.0 }, "geometry": { "type": "Polygon", "coordinates": [ [ [ -101.294010059442158, 20.956154464605579 ], [ -101.289437585733907, 20.95615446460555 ], [ -101.289437585733907, 20.951992648267737 ], [ -101.294010059442158, 20.951992648267741 ], [ -101.294010059442158, 20.956154464605579 ] ] ] } },
{ "type": "Feature", "properties": { "difference_1990_2000": 145.0, "difference_1990_2010": 323.0, "difference_1990_2020": 392.0 }, "geometry": { "type": "Polygon", "coordinates": [ [ [ -101.294010059442158, 21.010268501611595 ], [ -101.289437585733907, 21.010268501611577 ], [ -101.289437585733907, 21.00610519522947 ], [ -101.294010059442158, 21.006105195229466 ], [ -101.294010059442158, 21.010268501611595 ] ] ] } },
{ "type": "Feature", "properties": { "difference_1990_2000": -123.0, "difference_1990_2010": -37.0, "difference_1990_2020": 6.0 }, "geometry": { "type": "Polygon", "coordinates": [ [ [ -101.294010059442158, 20.993615964797602 ], [ -101.289437585733907, 20.993615964797563 ], [ -101.289437585733907, 20.989453117454069 ], [ -101.294010059442158, 20.989453117454065 ], [ -101.294010059442158, 20.993615964797602 ] ] ] } },
{ "type": "Feature", "properties": { "difference_1990_2000": 38.0, "difference_1990_2010": 116.0, "difference_1990_2020": 293.0 }, "geometry": { "type": "Polygon", "coordinates": [ [ [ -101.294010059442158, 20.989453117454065 ], [ -101.289437585733907, 20.989453117454069 ], [ -101.289437585733907, 20.985290384791917 ], [ -101.294010059442158, 20.985290384791877 ], [ -101.294010059442158, 20.989453117454065 ] ] ] } },
{ "type": "Feature", "properties": { "difference_1990_2000": 380.0, "difference_1990_2010": 832.0, "difference_1990_2020": 1001.0 }, "geometry": { "type": "Polygon", "coordinates": [ [ [ -101.284865112025614, 20.972802874580371 ], [ -101.280292638317334, 20.972802874580392 ], [ -101.280292638317334, 20.968640600330655 ], [ -101.284865112025614, 20.968640600330616 ], [ -101.284865112025614, 20.972802874580371 ] ] ] } },
{ "type": "Feature", "properties": { "difference_1990_2000": 127.0, "difference_1990_2010": 262.0, "difference_1990_2020": 314.0 }, "geometry": { "type": "Polygon", "coordinates": [ [ [ -101.284865112025614, 20.960316395374448 ], [ -101.280292638317334, 20.960316395374448 ], [ -101.280292638317334, 20.956154464605579 ], [ -101.284865112025614, 20.956154464605579 ], [ -101.284865112025614, 20.960316395374448 ] ] ] } },
{ "type": "Feature", "properties": { "difference_1990_2000": 211.0, "difference_1990_2010": 413.0, "difference_1990_2020": 643.0 }, "geometry": { "type": "Polygon", "coordinates": [ [ [ -101.284865112025614, 20.981127766779736 ], [ -101.280292638317334, 20.981127766779739 ], [ -101.280292638317334, 20.976965263386333 ], [ -101.284865112025614, 20.976965263386308 ], [ -101.284865112025614, 20.981127766779736 ] ] ] } },
{ "type": "Feature", "properties": { "difference_1990_2000": 378.0, "difference_1990_2010": 818.0, "difference_1990_2020": 923.0 }, "geometry": { "type": "Polygon", "coordinates": [ [ [ -101.284865112025614, 20.964478440605706 ], [ -101.280292638317334, 20.964478440605706 ], [ -101.280292638317334, 20.960316395374448 ], [ -101.284865112025614, 20.960316395374448 ], [ -101.284865112025614, 20.964478440605706 ] ] ] } },
{ "type": "Feature", "properties": { "difference_1990_2000": 403.0, "difference_1990_2010": 883.0, "difference_1990_2020": 998.0 }, "geometry": { "type": "Polygon", "coordinates": [ [ [ -101.284865112025614, 20.968640600330616 ], [ -101.280292638317334, 20.968640600330655 ], [ -101.280292638317334, 20.964478440605706 ], [ -101.284865112025614, 20.964478440605706 ], [ -101.284865112025614, 20.968640600330616 ] ] ] } },
{ "type": "Feature", "properties": { "difference_1990_2000": 323.0, "difference_1990_2010": 636.0, "difference_1990_2020": 757.0 }, "geometry": { "type": "Polygon", "coordinates": [ [ [ -101.284865112025614, 20.976965263386308 ], [ -101.280292638317334, 20.976965263386333 ], [ -101.280292638317334, 20.972802874580392 ], [ -101.284865112025614, 20.972802874580371 ], [ -101.284865112025614, 20.976965263386308 ] ] ] } },
{ "type": "Feature", "properties": { "difference_1990_2000": -39.0, "difference_1990_2010": 20.0, "difference_1990_2020": 37.0 }, "geometry": { "type": "Polygon", "coordinates": [ [ [ -101.284865112025614, 21.018595458921073 ], [ -101.280292638317334, 21.018595458921077 ], [ -101.280292638317334, 21.014431922831669 ], [ -101.284865112025614, 21.014431922831672 ], [ -101.284865112025614, 21.018595458921073 ] ] ] } },
{ "type": "Feature", "properties": { "difference_1990_2000": 171.0, "difference_1990_2010": 242.0, "difference_1990_2020": 304.0 }, "geometry": { "type": "Polygon", "coordinates": [ [ [ -101.284865112025614, 20.985290384791863 ], [ -101.280292638317334, 20.985290384791863 ], [ -101.280292638317334, 20.981127766779739 ], [ -101.284865112025614, 20.981127766779736 ], [ -101.284865112025614, 20.985290384791863 ] ] ] } },
{ "type": "Feature", "properties": { "difference_1990_2000": -73.0, "difference_1990_2010": 120.0, "difference_1990_2020": 258.0 }, "geometry": { "type": "Polygon", "coordinates": [ [ [ -101.284865112025614, 21.014431922831672 ], [ -101.280292638317334, 21.014431922831669 ], [ -101.280292638317334, 21.010268501611581 ], [ -101.284865112025614, 21.010268501611581 ], [ -101.284865112025614, 21.014431922831672 ] ] ] } },
{ "type": "Feature", "properties": { "difference_1990_2000": 134.0, "difference_1990_2010": 193.0, "difference_1990_2020": 158.0 }, "geometry": { "type": "Polygon", "coordinates": [ [ [ -101.284865112025614, 20.997778926853819 ], [ -101.280292638317334, 20.997778926853847 ], [ -101.280292638317334, 20.993615964797602 ], [ -101.284865112025614, 20.993615964797563 ], [ -101.284865112025614, 20.997778926853819 ] ] ] } },
{ "type": "Feature", "properties": { "difference_1990_2000": 427.0, "difference_1990_2010": 718.0, "difference_1990_2020": 499.0 }, "geometry": { "type": "Polygon", "coordinates": [ [ [ -101.284865112025614, 21.006105195229466 ], [ -101.280292638317334, 21.00610519522947 ], [ -101.280292638317334, 21.001942003654015 ], [ -101.284865112025614, 21.001942003653998 ], [ -101.284865112025614, 21.006105195229466 ] ] ] } },
{ "type": "Feature", "properties": { "difference_1990_2000": 255.0, "difference_1990_2010": 279.0, "difference_1990_2020": 217.0 }, "geometry": { "type": "Polygon", "coordinates": [ [ [ -101.284865112025614, 21.001942003653998 ], [ -101.280292638317334, 21.001942003654015 ], [ -101.280292638317334, 20.997778926853847 ], [ -101.284865112025614, 20.997778926853819 ], [ -101.284865112025614, 21.001942003653998 ] ] ] } },
{ "type": "Feature", "properties": { "difference_1990_2000": 142.0, "difference_1990_2010": 358.0, "difference_1990_2020": 328.0 }, "geometry": { "type": "Polygon", "coordinates": [ [ [ -101.284865112025614, 21.010268501611581 ], [ -101.280292638317334, 21.010268501611581 ], [ -101.280292638317334, 21.00610519522947 ], [ -101.284865112025614, 21.006105195229466 ], [ -101.284865112025614, 21.010268501611581 ] ] ] } },
{ "type": "Feature", "properties": { "difference_1990_2000": 177.0, "difference_1990_2010": 273.0, "difference_1990_2020": 272.0 }, "geometry": { "type": "Polygon", "coordinates": [ [ [ -101.284865112025614, 20.993615964797563 ], [ -101.280292638317334, 20.993615964797602 ], [ -101.280292638317334, 20.989453117454069 ], [ -101.284865112025614, 20.989453117454065 ], [ -101.284865112025614, 20.993615964797563 ] ] ] } },
{ "type": "Feature", "properties": { "difference_1990_2000": 176.0, "difference_1990_2010": 272.0, "difference_1990_2020": 273.0 }, "geometry": { "type": "Polygon", "coordinates": [ [ [ -101.284865112025614, 20.989453117454065 ], [ -101.280292638317334, 20.989453117454069 ], [ -101.280292638317334, 20.985290384791863 ], [ -101.284865112025614, 20.985290384791863 ], [ -101.284865112025614, 20.989453117454065 ] ] ] } },
{ "type": "Feature", "properties": { "difference_1990_2000": 254.0, "difference_1990_2010": 491.0, "difference_1990_2020": 540.0 }, "geometry": { "type": "Polygon", "coordinates": [ [ [ -101.275720164609055, 20.972802874580431 ], [ -101.271147690900776, 20.972802874580395 ], [ -101.271147690900776, 20.968640600330613 ], [ -101.275720164609055, 20.968640600330616 ], [ -101.275720164609055, 20.972802874580431 ] ] ] } },
{ "type": "Feature", "properties": { "difference_1990_2000": 5.0, "difference_1990_2010": 8.0, "difference_1990_2020": 23.0 }, "geometry": { "type": "Polygon", "coordinates": [ [ [ -101.275720164609055, 21.031086756718764 ], [ -101.271147690900776, 21.031086756718757 ], [ -101.271147690900776, 21.026922875833286 ], [ -101.275720164609055, 21.026922875833286 ], [ -101.275720164609055, 21.031086756718764 ] ] ] } },
{ "type": "Feature", "properties": { "difference_1990_2000": 1007.0, "difference_1990_2010": 1610.0, "difference_1990_2020": 1912.0 }, "geometry": { "type": "Polygon", "coordinates": [ [ [ -101.275720164609055, 21.022759109911153 ], [ -101.271147690900776, 21.022759109911149 ], [ -101.271147690900776, 21.018595458921077 ], [ -101.275720164609055, 21.018595458921073 ], [ -101.275720164609055, 21.022759109911153 ] ] ] } },
{ "type": "Feature", "properties": { "difference_1990_2000": 153.0, "difference_1990_2010": 258.0, "difference_1990_2020": 433.0 }, "geometry": { "type": "Polygon", "coordinates": [ [ [ -101.275720164609055, 20.960316395374452 ], [ -101.271147690900776, 20.960316395374452 ], [ -101.271147690900776, 20.956154464605603 ], [ -101.275720164609055, 20.956154464605579 ], [ -101.275720164609055, 20.960316395374452 ] ] ] } },
{ "type": "Feature", "properties": { "difference_1990_2000": 262.0, "difference_1990_2010": 507.0, "difference_1990_2020": 558.0 }, "geometry": { "type": "Polygon", "coordinates": [ [ [ -101.275720164609055, 20.964478440605706 ], [ -101.271147690900776, 20.964478440605703 ], [ -101.271147690900776, 20.960316395374452 ], [ -101.275720164609055, 20.960316395374452 ], [ -101.275720164609055, 20.964478440605706 ] ] ] } },
{ "type": "Feature", "properties": { "difference_1990_2000": 25.0, "difference_1990_2010": 73.0, "difference_1990_2020": 225.0 }, "geometry": { "type": "Polygon", "coordinates": [ [ [ -101.275720164609055, 20.981127766779757 ], [ -101.271147690900776, 20.981127766779736 ], [ -101.271147690900776, 20.976965263386329 ], [ -101.275720164609055, 20.976965263386329 ], [ -101.275720164609055, 20.981127766779757 ] ] ] } },
{ "type": "Feature", "properties": { "difference_1990_2000": 262.0, "difference_1990_2010": 507.0, "difference_1990_2020": 558.0 }, "geometry": { "type": "Polygon", "coordinates": [ [ [ -101.275720164609055, 20.968640600330616 ], [ -101.271147690900776, 20.968640600330613 ], [ -101.271147690900776, 20.964478440605703 ], [ -101.275720164609055, 20.964478440605706 ], [ -101.275720164609055, 20.968640600330616 ] ] ] } },
{ "type": "Feature", "properties": { "difference_1990_2000": 140.0, "difference_1990_2010": 278.0, "difference_1990_2020": 335.0 }, "geometry": { "type": "Polygon", "coordinates": [ [ [ -101.275720164609055, 20.976965263386329 ], [ -101.271147690900776, 20.976965263386329 ], [ -101.271147690900776, 20.972802874580395 ], [ -101.275720164609055, 20.972802874580431 ], [ -101.275720164609055, 20.976965263386329 ] ] ] } },
{ "type": "Feature", "properties": { "difference_1990_2000": 624.0, "difference_1990_2010": 625.0, "difference_1990_2020": 762.0 }, "geometry": { "type": "Polygon", "coordinates": [ [ [ -101.275720164609055, 21.018595458921073 ], [ -101.271147690900776, 21.018595458921077 ], [ -101.271147690900776, 21.014431922831672 ], [ -101.275720164609055, 21.014431922831672 ], [ -101.275720164609055, 21.018595458921073 ] ] ] } },
{ "type": "Feature", "properties": { "difference_1990_2000": 319.0, "difference_1990_2010": 362.0, "difference_1990_2020": 416.0 }, "geometry": { "type": "Polygon", "coordinates": [ [ [ -101.275720164609055, 21.014431922831672 ], [ -101.271147690900776, 21.014431922831672 ], [ -101.271147690900776, 21.010268501611545 ], [ -101.275720164609055, 21.010268501611577 ], [ -101.275720164609055, 21.014431922831672 ] ] ] } },
{ "type": "Feature", "properties": { "difference_1990_2000": 0.0, "difference_1990_2010": 0.0, "difference_1990_2020": 2.0 }, "geometry": { "type": "Polygon", "coordinates": [ [ [ -101.275720164609055, 21.00610519522948 ], [ -101.271147690900776, 21.006105195229473 ], [ -101.271147690900776, 21.001942003654015 ], [ -101.275720164609055, 21.001942003653998 ], [ -101.275720164609055, 21.00610519522948 ] ] ] } },
{ "type": "Feature", "properties": { "difference_1990_2000": 0.0, "difference_1990_2010": 19.0, "difference_1990_2020": 29.0 }, "geometry": { "type": "Polygon", "coordinates": [ [ [ -101.275720164609055, 20.956154464605579 ], [ -101.271147690900776, 20.956154464605603 ], [ -101.271147690900776, 20.951992648267726 ], [ -101.275720164609055, 20.951992648267769 ], [ -101.275720164609055, 20.956154464605579 ] ] ] } },
{ "type": "Feature", "properties": { "difference_1990_2000": 0.0, "difference_1990_2010": 0.0, "difference_1990_2020": 17.0 }, "geometry": { "type": "Polygon", "coordinates": [ [ [ -101.275720164609055, 21.010268501611577 ], [ -101.271147690900776, 21.010268501611545 ], [ -101.271147690900776, 21.006105195229473 ], [ -101.275720164609055, 21.00610519522948 ], [ -101.275720164609055, 21.010268501611577 ] ] ] } },
{ "type": "Feature", "properties": { "difference_1990_2000": 486.0, "difference_1990_2010": 769.0, "difference_1990_2020": 1067.0 }, "geometry": { "type": "Polygon", "coordinates": [ [ [ -101.275720164609055, 21.026922875833286 ], [ -101.271147690900776, 21.026922875833286 ], [ -101.271147690900776, 21.022759109911149 ], [ -101.275720164609055, 21.022759109911153 ], [ -101.275720164609055, 21.026922875833286 ] ] ] } }
]
}
