{
"type": "FeatureCollection",
"name": "M16.01",
"crs": { "type": "name", "properties": { "name": "urn:ogc:def:crs:OGC:1.3:CRS84" } },
"features": [
{ "type": "Feature", "properties": { "difference_1990_2000": 1.0, "difference_1990_2010": 0.0, "difference_1990_2020": 3.0 }, "geometry": { "type": "Polygon", "coordinates": [ [ [ -102.066758116140846, 20.358015660714521 ], [ -102.062185642432567, 20.358015660714525 ], [ -102.062185642432567, 20.353869999505747 ], [ -102.066758116140846, 20.353869999505747 ], [ -102.066758116140846, 20.358015660714521 ] ] ] } },
{ "type": "Feature", "properties": { "difference_1990_2000": 131.0, "difference_1990_2010": 0.0, "difference_1990_2020": 353.0 }, "geometry": { "type": "Polygon", "coordinates": [ [ [ -102.057613168724274, 20.358015660714525 ], [ -102.053040695016023, 20.358015660714525 ], [ -102.053040695016023, 20.353869999505743 ], [ -102.057613168724274, 20.353869999505743 ], [ -102.057613168724274, 20.358015660714525 ] ] ] } },
{ "type": "Feature", "properties": { "difference_1990_2000": -17.0, "difference_1990_2010": 0.0, "difference_1990_2020": 73.0 }, "geometry": { "type": "Polygon", "coordinates": [ [ [ -102.057613168724274, 20.366307313159751 ], [ -102.053040695016023, 20.366307313159766 ], [ -102.053040695016023, 20.36216143192242 ], [ -102.057613168724274, 20.362161431922392 ], [ -102.057613168724274, 20.366307313159751 ] ] ] } },
{ "type": "Feature", "properties": { "difference_1990_2000": 126.0, "difference_1990_2010": 0.0, "difference_1990_2020": 223.0 }, "geometry": { "type": "Polygon", "coordinates": [ [ [ -102.057613168724274, 20.345579006964364 ], [ -102.053040695016023, 20.345579006964332 ], [ -102.053040695016023, 20.341433675571125 ], [ -102.057613168724274, 20.341433675571125 ], [ -102.057613168724274, 20.345579006964364 ] ] ] } },
{ "type": "Feature", "properties": { "difference_1990_2000": 131.0, "difference_1990_2010": 0.0, "difference_1990_2020": 269.0 }, "geometry": { "type": "Polygon", "coordinates": [ [ [ -102.057613168724274, 20.353869999505743 ], [ -102.053040695016023, 20.353869999505743 ], [ -102.053040695016023, 20.349724448265739 ], [ -102.057613168724274, 20.349724448265778 ], [ -102.057613168724274, 20.353869999505743 ] ] ] } },
{ "type": "Feature", "properties": { "difference_1990_2000": 45.0, "difference_1990_2010": 0.0, "difference_1990_2020": 227.0 }, "geometry": { "type": "Polygon", "coordinates": [ [ [ -102.057613168724274, 20.362161431922392 ], [ -102.053040695016023, 20.36216143192242 ], [ -102.053040695016023, 20.358015660714525 ], [ -102.057613168724274, 20.358015660714525 ], [ -102.057613168724274, 20.362161431922392 ] ] ] } },
{ "type": "Feature", "properties": { "difference_1990_2000": 2.0, "difference_1990_2010": 0.0, "difference_1990_2020": 3.0 }, "geometry": { "type": "Polygon", "coordinates": [ [ [ -102.057613168724274, 20.341433675571125 ], [ -102.053040695016023, 20.341433675571125 ], [ -102.053040695016023, 20.337288454055834 ], [ -102.057613168724274, 20.33728845405583 ], [ -102.057613168724274, 20.341433675571125 ] ] ] } },
{ "type": "Feature", "properties": { "difference_1990_2000": 131.0, "difference_1990_2010": 0.0, "difference_1990_2020": 230.0 }, "geometry": { "type": "Polygon", "coordinates": [ [ [ -102.057613168724274, 20.349724448265778 ], [ -102.053040695016023, 20.349724448265739 ], [ -102.053040695016023, 20.345579006964332 ], [ -102.057613168724274, 20.345579006964364 ], [ -102.057613168724274, 20.349724448265778 ] ] ] } },
{ "type": "Feature", "properties": { "difference_1990_2000": 1.0, "difference_1990_2010": 0.0, "difference_1990_2020": 10.0 }, "geometry": { "type": "Polygon", "coordinates": [ [ [ -102.048468221307715, 20.378745617351665 ], [ -102.043895747599436, 20.378745617351665 ], [ -102.043895747599436, 20.374599405844076 ], [ -102.048468221307715, 20.374599405844048 ], [ -102.048468221307715, 20.378745617351665 ] ] ] } },
{ "type": "Feature", "properties": { "difference_1990_2000": 6.0, "difference_1990_2010": 0.0, "difference_1990_2020": 72.0 }, "geometry": { "type": "Polygon", "coordinates": [ [ [ -102.048468221307715, 20.370453304456852 ], [ -102.043895747599436, 20.370453304456873 ], [ -102.043895747599436, 20.366307313159769 ], [ -102.048468221307715, 20.366307313159755 ], [ -102.048468221307715, 20.370453304456852 ] ] ] } },
{ "type": "Feature", "properties": { "difference_1990_2000": 7.0, "difference_1990_2010": 0.0, "difference_1990_2020": 80.0 }, "geometry": { "type": "Polygon", "coordinates": [ [ [ -102.048468221307715, 20.374599405844048 ], [ -102.043895747599436, 20.374599405844076 ], [ -102.043895747599436, 20.370453304456873 ], [ -102.048468221307715, 20.370453304456852 ], [ -102.048468221307715, 20.374599405844048 ] ] ] } },
{ "type": "Feature", "properties": { "difference_1990_2000": 162.0, "difference_1990_2010": 0.0, "difference_1990_2020": 375.0 }, "geometry": { "type": "Polygon", "coordinates": [ [ [ -102.048468221307715, 20.358015660714528 ], [ -102.043895747599436, 20.358015660714521 ], [ -102.043895747599436, 20.353869999505747 ], [ -102.048468221307715, 20.353869999505712 ], [ -102.048468221307715, 20.358015660714528 ] ] ] } },
{ "type": "Feature", "properties": { "difference_1990_2000": 25.0, "difference_1990_2010": 0.0, "difference_1990_2020": 109.0 }, "geometry": { "type": "Polygon", "coordinates": [ [ [ -102.048468221307715, 20.366307313159755 ], [ -102.043895747599436, 20.366307313159769 ], [ -102.043895747599436, 20.362161431922427 ], [ -102.048468221307715, 20.362161431922424 ], [ -102.048468221307715, 20.366307313159755 ] ] ] } },
{ "type": "Feature", "properties": { "difference_1990_2000": 308.0, "difference_1990_2010": 0.0, "difference_1990_2020": 2092.0 }, "geometry": { "type": "Polygon", "coordinates": [ [ [ -102.048468221307715, 20.345579006964339 ], [ -102.043895747599436, 20.345579006964346 ], [ -102.043895747599436, 20.341433675571125 ], [ -102.048468221307715, 20.341433675571128 ], [ -102.048468221307715, 20.345579006964339 ] ] ] } },
{ "type": "Feature", "properties": { "difference_1990_2000": 134.0, "difference_1990_2010": 0.0, "difference_1990_2020": 251.0 }, "geometry": { "type": "Polygon", "coordinates": [ [ [ -102.048468221307715, 20.353869999505712 ], [ -102.043895747599436, 20.353869999505747 ], [ -102.043895747599436, 20.349724448265743 ], [ -102.048468221307715, 20.349724448265743 ], [ -102.048468221307715, 20.353869999505712 ] ] ] } },
{ "type": "Feature", "properties": { "difference_1990_2000": 120.0, "difference_1990_2010": 0.0, "difference_1990_2020": 311.0 }, "geometry": { "type": "Polygon", "coordinates": [ [ [ -102.048468221307715, 20.362161431922424 ], [ -102.043895747599436, 20.362161431922427 ], [ -102.043895747599436, 20.358015660714521 ], [ -102.048468221307715, 20.358015660714528 ], [ -102.048468221307715, 20.362161431922424 ] ] ] } },
{ "type": "Feature", "properties": { "difference_1990_2000": 155.0, "difference_1990_2010": 0.0, "difference_1990_2020": 752.0 }, "geometry": { "type": "Polygon", "coordinates": [ [ [ -102.048468221307715, 20.349724448265743 ], [ -102.043895747599436, 20.349724448265743 ], [ -102.043895747599436, 20.345579006964346 ], [ -102.048468221307715, 20.345579006964339 ], [ -102.048468221307715, 20.349724448265743 ] ] ] } },
{ "type": "Feature", "properties": { "difference_1990_2000": 168.0, "difference_1990_2010": 0.0, "difference_1990_2020": -22.0 }, "geometry": { "type": "Polygon", "coordinates": [ [ [ -102.048468221307715, 20.341433675571128 ], [ -102.043895747599436, 20.341433675571125 ], [ -102.043895747599436, 20.33728845405583 ], [ -102.048468221307715, 20.337288454055834 ], [ -102.048468221307715, 20.341433675571128 ] ] ] } },
{ "type": "Feature", "properties": { "difference_1990_2000": 0.0, "difference_1990_2010": 0.0, "difference_1990_2020": 3.0 }, "geometry": { "type": "Polygon", "coordinates": [ [ [ -102.048468221307715, 20.33314334238819 ], [ -102.043895747599436, 20.333143342388215 ], [ -102.043895747599436, 20.328998340537932 ], [ -102.048468221307715, 20.328998340537932 ], [ -102.048468221307715, 20.33314334238819 ] ] ] } },
{ "type": "Feature", "properties": { "difference_1990_2000": 304.0, "difference_1990_2010": 0.0, "difference_1990_2020": -22.0 }, "geometry": { "type": "Polygon", "coordinates": [ [ [ -102.048468221307715, 20.337288454055834 ], [ -102.043895747599436, 20.33728845405583 ], [ -102.043895747599436, 20.333143342388215 ], [ -102.048468221307715, 20.33314334238819 ], [ -102.048468221307715, 20.337288454055834 ] ] ] } },
{ "type": "Feature", "properties": { "difference_1990_2000": 324.0, "difference_1990_2010": 0.0, "difference_1990_2020": 807.0 }, "geometry": { "type": "Polygon", "coordinates": [ [ [ -102.039323273891185, 20.333143342388215 ], [ -102.034750800182906, 20.333143342388219 ], [ -102.034750800182906, 20.328998340537929 ], [ -102.039323273891185, 20.328998340537929 ], [ -102.039323273891185, 20.333143342388215 ] ] ] } },
{ "type": "Feature", "properties": { "difference_1990_2000": 278.0, "difference_1990_2010": 0.0, "difference_1990_2020": 754.0 }, "geometry": { "type": "Polygon", "coordinates": [ [ [ -102.039323273891185, 20.337288454055862 ], [ -102.034750800182906, 20.337288454055834 ], [ -102.034750800182906, 20.333143342388219 ], [ -102.039323273891185, 20.333143342388215 ], [ -102.039323273891185, 20.337288454055862 ] ] ] } },
{ "type": "Feature", "properties": { "difference_1990_2000": 49.0, "difference_1990_2010": 0.0, "difference_1990_2020": 227.0 }, "geometry": { "type": "Polygon", "coordinates": [ [ [ -102.039323273891185, 20.370453304456849 ], [ -102.034750800182906, 20.370453304456849 ], [ -102.034750800182906, 20.366307313159801 ], [ -102.039323273891185, 20.366307313159801 ], [ -102.039323273891185, 20.370453304456849 ] ] ] } },
{ "type": "Feature", "properties": { "difference_1990_2000": 13.0, "difference_1990_2010": 0.0, "difference_1990_2020": 109.0 }, "geometry": { "type": "Polygon", "coordinates": [ [ [ -102.039323273891185, 20.378745617351679 ], [ -102.034750800182906, 20.37874561735163 ], [ -102.034750800182906, 20.37459940584408 ], [ -102.039323273891185, 20.37459940584408 ], [ -102.039323273891185, 20.378745617351679 ] ] ] } },
{ "type": "Feature", "properties": { "difference_1990_2000": 81.0, "difference_1990_2010": 0.0, "difference_1990_2020": 211.0 }, "geometry": { "type": "Polygon", "coordinates": [ [ [ -102.039323273891185, 20.358015660714539 ], [ -102.034750800182906, 20.358015660714521 ], [ -102.034750800182906, 20.353869999505747 ], [ -102.039323273891185, 20.353869999505747 ], [ -102.039323273891185, 20.358015660714539 ] ] ] } },
{ "type": "Feature", "properties": { "difference_1990_2000": -19.0, "difference_1990_2010": 0.0, "difference_1990_2020": 83.0 }, "geometry": { "type": "Polygon", "coordinates": [ [ [ -102.039323273891185, 20.37459940584408 ], [ -102.034750800182906, 20.37459940584408 ], [ -102.034750800182906, 20.370453304456849 ], [ -102.039323273891185, 20.370453304456849 ], [ -102.039323273891185, 20.37459940584408 ] ] ] } },
{ "type": "Feature", "properties": { "difference_1990_2000": -230.0, "difference_1990_2010": 0.0, "difference_1990_2020": 56.0 }, "geometry": { "type": "Polygon", "coordinates": [ [ [ -102.039323273891185, 20.345579006964343 ], [ -102.034750800182906, 20.345579006964346 ], [ -102.034750800182906, 20.341433675571125 ], [ -102.039323273891185, 20.341433675571139 ], [ -102.039323273891185, 20.345579006964343 ] ] ] } },
{ "type": "Feature", "properties": { "difference_1990_2000": 56.0, "difference_1990_2010": 0.0, "difference_1990_2020": 240.0 }, "geometry": { "type": "Polygon", "coordinates": [ [ [ -102.039323273891185, 20.366307313159815 ], [ -102.034750800182906, 20.366307313159801 ], [ -102.034750800182906, 20.362161431922448 ], [ -102.039323273891185, 20.362161431922448 ], [ -102.039323273891185, 20.366307313159815 ] ] ] } },
{ "type": "Feature", "properties": { "difference_1990_2000": 229.0, "difference_1990_2010": 0.0, "difference_1990_2020": -132.0 }, "geometry": { "type": "Polygon", "coordinates": [ [ [ -102.039323273891185, 20.353869999505747 ], [ -102.034750800182906, 20.353869999505747 ], [ -102.034750800182906, 20.349724448265746 ], [ -102.039323273891185, 20.349724448265778 ], [ -102.039323273891185, 20.353869999505747 ] ] ] } },
{ "type": "Feature", "properties": { "difference_1990_2000": 56.0, "difference_1990_2010": 0.0, "difference_1990_2020": 240.0 }, "geometry": { "type": "Polygon", "coordinates": [ [ [ -102.039323273891185, 20.362161431922448 ], [ -102.034750800182906, 20.362161431922448 ], [ -102.034750800182906, 20.358015660714521 ], [ -102.039323273891185, 20.358015660714539 ], [ -102.039323273891185, 20.362161431922448 ] ] ] } },
{ "type": "Feature", "properties": { "difference_1990_2000": 29.0, "difference_1990_2010": 0.0, "difference_1990_2020": 337.0 }, "geometry": { "type": "Polygon", "coordinates": [ [ [ -102.039323273891185, 20.341433675571139 ], [ -102.034750800182906, 20.341433675571125 ], [ -102.034750800182906, 20.337288454055834 ], [ -102.039323273891185, 20.337288454055862 ], [ -102.039323273891185, 20.341433675571139 ] ] ] } },
{ "type": "Feature", "properties": { "difference_1990_2000": -186.0, "difference_1990_2010": 0.0, "difference_1990_2020": -223.0 }, "geometry": { "type": "Polygon", "coordinates": [ [ [ -102.039323273891185, 20.349724448265778 ], [ -102.034750800182906, 20.349724448265746 ], [ -102.034750800182906, 20.345579006964346 ], [ -102.039323273891185, 20.345579006964343 ], [ -102.039323273891185, 20.349724448265778 ] ] ] } },
{ "type": "Feature", "properties": { "difference_1990_2000": 173.0, "difference_1990_2010": 0.0, "difference_1990_2020": 459.0 }, "geometry": { "type": "Polygon", "coordinates": [ [ [ -102.03017832647464, 20.333143342388215 ], [ -102.025605852766361, 20.333143342388219 ], [ -102.025605852766361, 20.328998340537929 ], [ -102.03017832647464, 20.328998340537932 ], [ -102.03017832647464, 20.333143342388215 ] ] ] } },
{ "type": "Feature", "properties": { "difference_1990_2000": 137.0, "difference_1990_2010": 0.0, "difference_1990_2020": 1342.0 }, "geometry": { "type": "Polygon", "coordinates": [ [ [ -102.03017832647464, 20.324853448474844 ], [ -102.025605852766361, 20.324853448474844 ], [ -102.025605852766361, 20.320708666168542 ], [ -102.03017832647464, 20.320708666168549 ], [ -102.03017832647464, 20.324853448474844 ] ] ] } },
{ "type": "Feature", "properties": { "difference_1990_2000": 116.0, "difference_1990_2010": 0.0, "difference_1990_2020": 186.0 }, "geometry": { "type": "Polygon", "coordinates": [ [ [ -102.03017832647464, 20.382891939010047 ], [ -102.025605852766361, 20.382891939010012 ], [ -102.025605852766361, 20.378745617351662 ], [ -102.03017832647464, 20.378745617351633 ], [ -102.03017832647464, 20.382891939010047 ] ] ] } },
{ "type": "Feature", "properties": { "difference_1990_2000": 1680.0, "difference_1990_2010": 0.0, "difference_1990_2020": 2169.0 }, "geometry": { "type": "Polygon", "coordinates": [ [ [ -102.03017832647464, 20.378745617351633 ], [ -102.025605852766361, 20.378745617351662 ], [ -102.025605852766361, 20.374599405844094 ], [ -102.03017832647464, 20.374599405844076 ], [ -102.03017832647464, 20.378745617351633 ] ] ] } },
{ "type": "Feature", "properties": { "difference_1990_2000": -42.0, "difference_1990_2010": 0.0, "difference_1990_2020": 163.0 }, "geometry": { "type": "Polygon", "coordinates": [ [ [ -102.03017832647464, 20.370453304456856 ], [ -102.025605852766361, 20.370453304456849 ], [ -102.025605852766361, 20.366307313159798 ], [ -102.03017832647464, 20.366307313159769 ], [ -102.03017832647464, 20.370453304456856 ] ] ] } },
{ "type": "Feature", "properties": { "difference_1990_2000": 100.0, "difference_1990_2010": 0.0, "difference_1990_2020": 348.0 }, "geometry": { "type": "Polygon", "coordinates": [ [ [ -102.03017832647464, 20.328998340537932 ], [ -102.025605852766361, 20.328998340537929 ], [ -102.025605852766361, 20.324853448474844 ], [ -102.03017832647464, 20.324853448474844 ], [ -102.03017832647464, 20.328998340537932 ] ] ] } },
{ "type": "Feature", "properties": { "difference_1990_2000": -29.0, "difference_1990_2010": 0.0, "difference_1990_2020": 136.0 }, "geometry": { "type": "Polygon", "coordinates": [ [ [ -102.03017832647464, 20.358015660714525 ], [ -102.025605852766361, 20.358015660714525 ], [ -102.025605852766361, 20.353869999505747 ], [ -102.03017832647464, 20.353869999505747 ], [ -102.03017832647464, 20.358015660714525 ] ] ] } },
{ "type": "Feature", "properties": { "difference_1990_2000": -53.0, "difference_1990_2010": 0.0, "difference_1990_2020": 340.0 }, "geometry": { "type": "Polygon", "coordinates": [ [ [ -102.03017832647464, 20.374599405844076 ], [ -102.025605852766361, 20.374599405844094 ], [ -102.025605852766361, 20.370453304456849 ], [ -102.03017832647464, 20.370453304456856 ], [ -102.03017832647464, 20.374599405844076 ] ] ] } },
{ "type": "Feature", "properties": { "difference_1990_2000": -11.0, "difference_1990_2010": 0.0, "difference_1990_2020": 179.0 }, "geometry": { "type": "Polygon", "coordinates": [ [ [ -102.03017832647464, 20.366307313159769 ], [ -102.025605852766361, 20.366307313159798 ], [ -102.025605852766361, 20.362161431922427 ], [ -102.03017832647464, 20.362161431922427 ], [ -102.03017832647464, 20.366307313159769 ] ] ] } },
{ "type": "Feature", "properties": { "difference_1990_2000": -4396.0, "difference_1990_2010": 0.0, "difference_1990_2020": -4454.0 }, "geometry": { "type": "Polygon", "coordinates": [ [ [ -102.03017832647464, 20.345579006964346 ], [ -102.025605852766361, 20.345579006964368 ], [ -102.025605852766361, 20.341433675571125 ], [ -102.03017832647464, 20.341433675571093 ], [ -102.03017832647464, 20.345579006964346 ] ] ] } },
{ "type": "Feature", "properties": { "difference_1990_2000": -5450.0, "difference_1990_2010": 0.0, "difference_1990_2020": -5441.0 }, "geometry": { "type": "Polygon", "coordinates": [ [ [ -102.03017832647464, 20.353869999505747 ], [ -102.025605852766361, 20.353869999505747 ], [ -102.025605852766361, 20.349724448265743 ], [ -102.03017832647464, 20.349724448265746 ], [ -102.03017832647464, 20.353869999505747 ] ] ] } },
{ "type": "Feature", "properties": { "difference_1990_2000": -1140.0, "difference_1990_2010": 0.0, "difference_1990_2020": -1820.0 }, "geometry": { "type": "Polygon", "coordinates": [ [ [ -102.03017832647464, 20.341433675571093 ], [ -102.025605852766361, 20.341433675571125 ], [ -102.025605852766361, 20.337288454055834 ], [ -102.03017832647464, 20.337288454055837 ], [ -102.03017832647464, 20.341433675571093 ] ] ] } },
{ "type": "Feature", "properties": { "difference_1990_2000": 118.0, "difference_1990_2010": 0.0, "difference_1990_2020": 498.0 }, "geometry": { "type": "Polygon", "coordinates": [ [ [ -102.03017832647464, 20.362161431922427 ], [ -102.025605852766361, 20.362161431922427 ], [ -102.025605852766361, 20.358015660714525 ], [ -102.03017832647464, 20.358015660714525 ], [ -102.03017832647464, 20.362161431922427 ] ] ] } },
{ "type": "Feature", "properties": { "difference_1990_2000": -6165.0, "difference_1990_2010": 0.0, "difference_1990_2020": -6171.0 }, "geometry": { "type": "Polygon", "coordinates": [ [ [ -102.03017832647464, 20.349724448265746 ], [ -102.025605852766361, 20.349724448265743 ], [ -102.025605852766361, 20.345579006964368 ], [ -102.03017832647464, 20.345579006964346 ], [ -102.03017832647464, 20.349724448265746 ] ] ] } },
{ "type": "Feature", "properties": { "difference_1990_2000": 0.0, "difference_1990_2010": 0.0, "difference_1990_2020": 359.0 }, "geometry": { "type": "Polygon", "coordinates": [ [ [ -102.03017832647464, 20.320708666168549 ], [ -102.025605852766361, 20.320708666168542 ], [ -102.025605852766361, 20.316563993588879 ], [ -102.03017832647464, 20.31656399358884 ], [ -102.03017832647464, 20.320708666168549 ] ] ] } },
{ "type": "Feature", "properties": { "difference_1990_2000": -536.0, "difference_1990_2010": 0.0, "difference_1990_2020": -638.0 }, "geometry": { "type": "Polygon", "coordinates": [ [ [ -102.03017832647464, 20.337288454055837 ], [ -102.025605852766361, 20.337288454055834 ], [ -102.025605852766361, 20.333143342388219 ], [ -102.03017832647464, 20.333143342388215 ], [ -102.03017832647464, 20.337288454055837 ] ] ] } },
{ "type": "Feature", "properties": { "difference_1990_2000": -25.0, "difference_1990_2010": 0.0, "difference_1990_2020": -37.0 }, "geometry": { "type": "Polygon", "coordinates": [ [ [ -102.021033379058082, 20.333143342388219 ], [ -102.016460905349803, 20.333143342388215 ], [ -102.016460905349803, 20.328998340537929 ], [ -102.021033379058082, 20.328998340537929 ], [ -102.021033379058082, 20.333143342388219 ] ] ] } },
{ "type": "Feature", "properties": { "difference_1990_2000": 380.0, "difference_1990_2010": 0.0, "difference_1990_2020": 366.0 }, "geometry": { "type": "Polygon", "coordinates": [ [ [ -102.021033379058082, 20.316563993588822 ], [ -102.016460905349803, 20.316563993588876 ], [ -102.016460905349803, 20.312419430705546 ], [ -102.021033379058082, 20.312419430705528 ], [ -102.021033379058082, 20.316563993588822 ] ] ] } },
{ "type": "Feature", "properties": { "difference_1990_2000": 33.0, "difference_1990_2010": 0.0, "difference_1990_2020": 87.0 }, "geometry": { "type": "Polygon", "coordinates": [ [ [ -102.021033379058082, 20.324853448474872 ], [ -102.016460905349803, 20.324853448474837 ], [ -102.016460905349803, 20.32070866616856 ], [ -102.021033379058082, 20.320708666168553 ], [ -102.021033379058082, 20.324853448474872 ] ] ] } },
{ "type": "Feature", "properties": { "difference_1990_2000": 128.0, "difference_1990_2010": 0.0, "difference_1990_2020": 298.0 }, "geometry": { "type": "Polygon", "coordinates": [ [ [ -102.021033379058082, 20.37874561735163 ], [ -102.016460905349803, 20.378745617351662 ], [ -102.016460905349803, 20.374599405844091 ], [ -102.021033379058082, 20.37459940584408 ], [ -102.021033379058082, 20.37874561735163 ] ] ] } },
{ "type": "Feature", "properties": { "difference_1990_2000": 20.0, "difference_1990_2010": -108.0, "difference_1990_2020": 123.0 }, "geometry": { "type": "Polygon", "coordinates": [ [ [ -102.021033379058082, 20.370453304456849 ], [ -102.016460905349803, 20.370453304456849 ], [ -102.016460905349803, 20.366307313159769 ], [ -102.021033379058082, 20.366307313159762 ], [ -102.021033379058082, 20.370453304456849 ] ] ] } },
{ "type": "Feature", "properties": { "difference_1990_2000": -15.0, "difference_1990_2010": 0.0, "difference_1990_2020": -20.0 }, "geometry": { "type": "Polygon", "coordinates": [ [ [ -102.021033379058082, 20.328998340537929 ], [ -102.016460905349803, 20.328998340537929 ], [ -102.016460905349803, 20.324853448474837 ], [ -102.021033379058082, 20.324853448474872 ], [ -102.021033379058082, 20.328998340537929 ] ] ] } },
{ "type": "Feature", "properties": { "difference_1990_2000": -105.0, "difference_1990_2010": -88.0, "difference_1990_2020": -116.0 }, "geometry": { "type": "Polygon", "coordinates": [ [ [ -102.021033379058082, 20.358015660714525 ], [ -102.016460905349803, 20.358015660714525 ], [ -102.016460905349803, 20.353869999505747 ], [ -102.021033379058082, 20.353869999505743 ], [ -102.021033379058082, 20.358015660714525 ] ] ] } },
{ "type": "Feature", "properties": { "difference_1990_2000": -1348.0, "difference_1990_2010": -1872.0, "difference_1990_2020": -1594.0 }, "geometry": { "type": "Polygon", "coordinates": [ [ [ -102.021033379058082, 20.345579006964314 ], [ -102.016460905349803, 20.345579006964339 ], [ -102.016460905349803, 20.341433675571128 ], [ -102.021033379058082, 20.341433675571125 ], [ -102.021033379058082, 20.345579006964314 ] ] ] } },
{ "type": "Feature", "properties": { "difference_1990_2000": 87.0, "difference_1990_2010": -239.0, "difference_1990_2020": 318.0 }, "geometry": { "type": "Polygon", "coordinates": [ [ [ -102.021033379058082, 20.37459940584408 ], [ -102.016460905349803, 20.374599405844091 ], [ -102.016460905349803, 20.370453304456849 ], [ -102.021033379058082, 20.370453304456849 ], [ -102.021033379058082, 20.37459940584408 ] ] ] } },
{ "type": "Feature", "properties": { "difference_1990_2000": -99.0, "difference_1990_2010": -89.0, "difference_1990_2020": -94.0 }, "geometry": { "type": "Polygon", "coordinates": [ [ [ -102.021033379058082, 20.366307313159762 ], [ -102.016460905349803, 20.366307313159769 ], [ -102.016460905349803, 20.36216143192242 ], [ -102.021033379058082, 20.362161431922395 ], [ -102.021033379058082, 20.366307313159762 ] ] ] } },
{ "type": "Feature", "properties": { "difference_1990_2000": -697.0, "difference_1990_2010": -699.0, "difference_1990_2020": -734.0 }, "geometry": { "type": "Polygon", "coordinates": [ [ [ -102.021033379058082, 20.353869999505743 ], [ -102.016460905349803, 20.353869999505747 ], [ -102.016460905349803, 20.349724448265739 ], [ -102.021033379058082, 20.349724448265722 ], [ -102.021033379058082, 20.353869999505743 ] ] ] } },
{ "type": "Feature", "properties": { "difference_1990_2000": -105.0, "difference_1990_2010": -88.0, "difference_1990_2020": -116.0 }, "geometry": { "type": "Polygon", "coordinates": [ [ [ -102.021033379058082, 20.362161431922395 ], [ -102.016460905349803, 20.36216143192242 ], [ -102.016460905349803, 20.358015660714525 ], [ -102.021033379058082, 20.358015660714525 ], [ -102.021033379058082, 20.362161431922395 ] ] ] } },
{ "type": "Feature", "properties": { "difference_1990_2000": -1802.0, "difference_1990_2010": -1835.0, "difference_1990_2020": -1875.0 }, "geometry": { "type": "Polygon", "coordinates": [ [ [ -102.021033379058082, 20.349724448265722 ], [ -102.016460905349803, 20.349724448265739 ], [ -102.016460905349803, 20.345579006964339 ], [ -102.021033379058082, 20.345579006964314 ], [ -102.021033379058082, 20.349724448265722 ] ] ] } },
{ "type": "Feature", "properties": { "difference_1990_2000": -783.0, "difference_1990_2010": -2441.0, "difference_1990_2020": -1079.0 }, "geometry": { "type": "Polygon", "coordinates": [ [ [ -102.021033379058082, 20.341433675571125 ], [ -102.016460905349803, 20.341433675571128 ], [ -102.016460905349803, 20.337288454055827 ], [ -102.021033379058082, 20.337288454055834 ], [ -102.021033379058082, 20.341433675571125 ] ] ] } },
{ "type": "Feature", "properties": { "difference_1990_2000": 110.0, "difference_1990_2010": 0.0, "difference_1990_2020": 150.0 }, "geometry": { "type": "Polygon", "coordinates": [ [ [ -102.021033379058082, 20.320708666168553 ], [ -102.016460905349803, 20.32070866616856 ], [ -102.016460905349803, 20.316563993588876 ], [ -102.021033379058082, 20.316563993588822 ], [ -102.021033379058082, 20.320708666168553 ] ] ] } },
{ "type": "Feature", "properties": { "difference_1990_2000": 88.0, "difference_1990_2010": 0.0, "difference_1990_2020": 85.0 }, "geometry": { "type": "Polygon", "coordinates": [ [ [ -102.021033379058082, 20.312419430705528 ], [ -102.016460905349803, 20.312419430705546 ], [ -102.016460905349803, 20.308274977488235 ], [ -102.021033379058082, 20.308274977488232 ], [ -102.021033379058082, 20.312419430705528 ] ] ] } },
{ "type": "Feature", "properties": { "difference_1990_2000": -273.0, "difference_1990_2010": -1469.0, "difference_1990_2020": -446.0 }, "geometry": { "type": "Polygon", "coordinates": [ [ [ -102.021033379058082, 20.337288454055834 ], [ -102.016460905349803, 20.337288454055827 ], [ -102.016460905349803, 20.333143342388215 ], [ -102.021033379058082, 20.333143342388219 ], [ -102.021033379058082, 20.337288454055834 ] ] ] } },
{ "type": "Feature", "properties": { "difference_1990_2000": -47.0, "difference_1990_2010": -99.0, "difference_1990_2020": -168.0 }, "geometry": { "type": "Polygon", "coordinates": [ [ [ -102.011888431641523, 20.333143342388222 ], [ -102.007315957933244, 20.33314334238819 ], [ -102.007315957933244, 20.328998340537929 ], [ -102.011888431641523, 20.328998340537929 ], [ -102.011888431641523, 20.333143342388222 ] ] ] } },
{ "type": "Feature", "properties": { "difference_1990_2000": -28.0, "difference_1990_2010": 0.0, "difference_1990_2020": -40.0 }, "geometry": { "type": "Polygon", "coordinates": [ [ [ -102.011888431641523, 20.316563993588829 ], [ -102.007315957933244, 20.316563993588836 ], [ -102.007315957933244, 20.312419430705496 ], [ -102.011888431641523, 20.312419430705525 ], [ -102.011888431641523, 20.316563993588829 ] ] ] } },
{ "type": "Feature", "properties": { "difference_1990_2000": -15.0, "difference_1990_2010": 0.0, "difference_1990_2020": -14.0 }, "geometry": { "type": "Polygon", "coordinates": [ [ [ -102.011888431641523, 20.324853448474872 ], [ -102.007315957933244, 20.324853448474844 ], [ -102.007315957933244, 20.320708666168549 ], [ -102.011888431641523, 20.320708666168553 ], [ -102.011888431641523, 20.324853448474872 ] ] ] } },
{ "type": "Feature", "properties": { "difference_1990_2000": -31.0, "difference_1990_2010": -66.0, "difference_1990_2020": -92.0 }, "geometry": { "type": "Polygon", "coordinates": [ [ [ -102.011888431641523, 20.328998340537929 ], [ -102.007315957933244, 20.328998340537929 ], [ -102.007315957933244, 20.324853448474844 ], [ -102.011888431641523, 20.324853448474872 ], [ -102.011888431641523, 20.328998340537929 ] ] ] } },
{ "type": "Feature", "properties": { "difference_1990_2000": 51.0, "difference_1990_2010": 0.0, "difference_1990_2020": 49.0 }, "geometry": { "type": "Polygon", "coordinates": [ [ [ -102.011888431641523, 20.304130633906855 ], [ -102.007315957933244, 20.304130633906848 ], [ -102.007315957933244, 20.299986399931125 ], [ -102.011888431641523, 20.299986399931122 ], [ -102.011888431641523, 20.304130633906855 ] ] ] } },
{ "type": "Feature", "properties": { "difference_1990_2000": -2.0, "difference_1990_2010": 32.0, "difference_1990_2020": 35.0 }, "geometry": { "type": "Polygon", "coordinates": [ [ [ -102.011888431641523, 20.358015660714528 ], [ -102.007315957933244, 20.358015660714525 ], [ -102.007315957933244, 20.35386999950574 ], [ -102.011888431641523, 20.353869999505747 ], [ -102.011888431641523, 20.358015660714528 ] ] ] } },
{ "type": "Feature", "properties": { "difference_1990_2000": -40.0, "difference_1990_2010": -34.0, "difference_1990_2020": -44.0 }, "geometry": { "type": "Polygon", "coordinates": [ [ [ -102.011888431641523, 20.366307313159766 ], [ -102.007315957933244, 20.366307313159815 ], [ -102.007315957933244, 20.362161431922448 ], [ -102.011888431641523, 20.362161431922431 ], [ -102.011888431641523, 20.366307313159766 ] ] ] } },
{ "type": "Feature", "properties": { "difference_1990_2000": -5.0, "difference_1990_2010": -9.0, "difference_1990_2020": -16.0 }, "geometry": { "type": "Polygon", "coordinates": [ [ [ -102.011888431641523, 20.345579006964339 ], [ -102.007315957933244, 20.345579006964368 ], [ -102.007315957933244, 20.341433675571142 ], [ -102.011888431641523, 20.341433675571128 ], [ -102.011888431641523, 20.345579006964339 ] ] ] } },
{ "type": "Feature", "properties": { "difference_1990_2000": 3.0, "difference_1990_2010": 9.0, "difference_1990_2020": 10.0 }, "geometry": { "type": "Polygon", "coordinates": [ [ [ -102.011888431641523, 20.353869999505747 ], [ -102.007315957933244, 20.35386999950574 ], [ -102.007315957933244, 20.349724448265778 ], [ -102.011888431641523, 20.349724448265739 ], [ -102.011888431641523, 20.353869999505747 ] ] ] } },
{ "type": "Feature", "properties": { "difference_1990_2000": 310.0, "difference_1990_2010": 0.0, "difference_1990_2020": 299.0 }, "geometry": { "type": "Polygon", "coordinates": [ [ [ -102.011888431641523, 20.308274977488239 ], [ -102.007315957933244, 20.308274977488235 ], [ -102.007315957933244, 20.304130633906848 ], [ -102.011888431641523, 20.304130633906855 ], [ -102.011888431641523, 20.308274977488239 ] ] ] } },
{ "type": "Feature", "properties": { "difference_1990_2000": -99.0, "difference_1990_2010": -83.0, "difference_1990_2020": -109.0 }, "geometry": { "type": "Polygon", "coordinates": [ [ [ -102.011888431641523, 20.362161431922431 ], [ -102.007315957933244, 20.362161431922448 ], [ -102.007315957933244, 20.358015660714525 ], [ -102.011888431641523, 20.358015660714528 ], [ -102.011888431641523, 20.362161431922431 ] ] ] } },
{ "type": "Feature", "properties": { "difference_1990_2000": -21.0, "difference_1990_2010": -45.0, "difference_1990_2020": -77.0 }, "geometry": { "type": "Polygon", "coordinates": [ [ [ -102.011888431641523, 20.341433675571128 ], [ -102.007315957933244, 20.341433675571142 ], [ -102.007315957933244, 20.337288454055869 ], [ -102.011888431641523, 20.337288454055834 ], [ -102.011888431641523, 20.341433675571128 ] ] ] } },
{ "type": "Feature", "properties": { "difference_1990_2000": -17.0, "difference_1990_2010": 0.0, "difference_1990_2020": -21.0 }, "geometry": { "type": "Polygon", "coordinates": [ [ [ -102.011888431641523, 20.320708666168553 ], [ -102.007315957933244, 20.320708666168549 ], [ -102.007315957933244, 20.316563993588836 ], [ -102.011888431641523, 20.316563993588829 ], [ -102.011888431641523, 20.320708666168553 ] ] ] } },
{ "type": "Feature", "properties": { "difference_1990_2000": 231.0, "difference_1990_2010": 0.0, "difference_1990_2020": 220.0 }, "geometry": { "type": "Polygon", "coordinates": [ [ [ -102.011888431641523, 20.312419430705525 ], [ -102.007315957933244, 20.312419430705496 ], [ -102.007315957933244, 20.308274977488235 ], [ -102.011888431641523, 20.308274977488239 ], [ -102.011888431641523, 20.312419430705525 ] ] ] } },
{ "type": "Feature", "properties": { "difference_1990_2000": -47.0, "difference_1990_2010": -97.0, "difference_1990_2020": -165.0 }, "geometry": { "type": "Polygon", "coordinates": [ [ [ -102.011888431641523, 20.337288454055834 ], [ -102.007315957933244, 20.337288454055869 ], [ -102.007315957933244, 20.33314334238819 ], [ -102.011888431641523, 20.333143342388222 ], [ -102.011888431641523, 20.337288454055834 ] ] ] } },
{ "type": "Feature", "properties": { "difference_1990_2000": 232.0, "difference_1990_2010": 0.0, "difference_1990_2020": 473.0 }, "geometry": { "type": "Polygon", "coordinates": [ [ [ -102.002743484224965, 20.324853448474844 ], [ -101.9981710105167, 20.32485344847484 ], [ -101.9981710105167, 20.320708666168553 ], [ -102.002743484224965, 20.320708666168549 ], [ -102.002743484224965, 20.324853448474844 ] ] ] } },
{ "type": "Feature", "properties": { "difference_1990_2000": 27.0, "difference_1990_2010": 0.0, "difference_1990_2020": 951.0 }, "geometry": { "type": "Polygon", "coordinates": [ [ [ -102.002743484224965, 20.328998340537911 ], [ -101.9981710105167, 20.328998340537929 ], [ -101.9981710105167, 20.32485344847484 ], [ -102.002743484224965, 20.324853448474844 ], [ -102.002743484224965, 20.328998340537911 ] ] ] } },
{ "type": "Feature", "properties": { "difference_1990_2000": 181.0, "difference_1990_2010": 0.0, "difference_1990_2020": 235.0 }, "geometry": { "type": "Polygon", "coordinates": [ [ [ -102.002743484224965, 20.320708666168549 ], [ -101.9981710105167, 20.320708666168553 ], [ -101.9981710105167, 20.31656399358884 ], [ -102.002743484224965, 20.31656399358884 ], [ -102.002743484224965, 20.320708666168549 ] ] ] } },
{ "type": "Feature", "properties": { "difference_1990_2000": 54.0, "difference_1990_2010": 0.0, "difference_1990_2020": 146.0 }, "geometry": { "type": "Polygon", "coordinates": [ [ [ -102.062185642432567, 20.358015660714525 ], [ -102.057613168724274, 20.358015660714525 ], [ -102.057613168724274, 20.353869999505743 ], [ -102.062185642432567, 20.353869999505747 ], [ -102.062185642432567, 20.358015660714525 ] ] ] } },
{ "type": "Feature", "properties": { "difference_1990_2000": 74.0, "difference_1990_2010": 0.0, "difference_1990_2020": 138.0 }, "geometry": { "type": "Polygon", "coordinates": [ [ [ -102.062185642432567, 20.345579006964311 ], [ -102.057613168724274, 20.345579006964364 ], [ -102.057613168724274, 20.341433675571125 ], [ -102.062185642432567, 20.341433675571086 ], [ -102.062185642432567, 20.345579006964311 ] ] ] } },
{ "type": "Feature", "properties": { "difference_1990_2000": 102.0, "difference_1990_2010": 0.0, "difference_1990_2020": 276.0 }, "geometry": { "type": "Polygon", "coordinates": [ [ [ -102.062185642432567, 20.353869999505747 ], [ -102.057613168724274, 20.353869999505743 ], [ -102.057613168724274, 20.349724448265778 ], [ -102.062185642432567, 20.349724448265739 ], [ -102.062185642432567, 20.353869999505747 ] ] ] } },
{ "type": "Feature", "properties": { "difference_1990_2000": 0.0, "difference_1990_2010": 0.0, "difference_1990_2020": 1.0 }, "geometry": { "type": "Polygon", "coordinates": [ [ [ -102.062185642432567, 20.341433675571086 ], [ -102.057613168724274, 20.341433675571125 ], [ -102.057613168724274, 20.33728845405583 ], [ -102.062185642432567, 20.337288454055813 ], [ -102.062185642432567, 20.341433675571086 ] ] ] } },
{ "type": "Feature", "properties": { "difference_1990_2000": 3.0, "difference_1990_2010": 0.0, "difference_1990_2020": 9.0 }, "geometry": { "type": "Polygon", "coordinates": [ [ [ -102.062185642432567, 20.362161431922424 ], [ -102.057613168724274, 20.362161431922392 ], [ -102.057613168724274, 20.358015660714525 ], [ -102.062185642432567, 20.358015660714525 ], [ -102.062185642432567, 20.362161431922424 ] ] ] } },
{ "type": "Feature", "properties": { "difference_1990_2000": 103.0, "difference_1990_2010": 0.0, "difference_1990_2020": 242.0 }, "geometry": { "type": "Polygon", "coordinates": [ [ [ -102.062185642432567, 20.349724448265739 ], [ -102.057613168724274, 20.349724448265778 ], [ -102.057613168724274, 20.345579006964364 ], [ -102.062185642432567, 20.345579006964311 ], [ -102.062185642432567, 20.349724448265739 ] ] ] } },
{ "type": "Feature", "properties": { "difference_1990_2000": 136.0, "difference_1990_2010": 0.0, "difference_1990_2020": 356.0 }, "geometry": { "type": "Polygon", "coordinates": [ [ [ -102.053040695016023, 20.358015660714525 ], [ -102.048468221307743, 20.358015660714525 ], [ -102.048468221307743, 20.353869999505712 ], [ -102.053040695016023, 20.353869999505743 ], [ -102.053040695016023, 20.358015660714525 ] ] ] } },
{ "type": "Feature", "properties": { "difference_1990_2000": 19.0, "difference_1990_2010": 0.0, "difference_1990_2020": 72.0 }, "geometry": { "type": "Polygon", "coordinates": [ [ [ -102.053040695016023, 20.366307313159766 ], [ -102.048468221307743, 20.366307313159755 ], [ -102.048468221307743, 20.362161431922424 ], [ -102.053040695016023, 20.36216143192242 ], [ -102.053040695016023, 20.366307313159766 ] ] ] } },
{ "type": "Feature", "properties": { "difference_1990_2000": 148.0, "difference_1990_2010": 0.0, "difference_1990_2020": 812.0 }, "geometry": { "type": "Polygon", "coordinates": [ [ [ -102.053040695016023, 20.345579006964332 ], [ -102.048468221307743, 20.345579006964339 ], [ -102.048468221307743, 20.341433675571128 ], [ -102.053040695016023, 20.341433675571125 ], [ -102.053040695016023, 20.345579006964332 ] ] ] } },
{ "type": "Feature", "properties": { "difference_1990_2000": 133.0, "difference_1990_2010": 0.0, "difference_1990_2020": 246.0 }, "geometry": { "type": "Polygon", "coordinates": [ [ [ -102.053040695016023, 20.353869999505743 ], [ -102.048468221307743, 20.353869999505712 ], [ -102.048468221307743, 20.349724448265743 ], [ -102.053040695016023, 20.349724448265739 ], [ -102.053040695016023, 20.353869999505743 ] ] ] } },
{ "type": "Feature", "properties": { "difference_1990_2000": 80.0, "difference_1990_2010": 0.0, "difference_1990_2020": 279.0 }, "geometry": { "type": "Polygon", "coordinates": [ [ [ -102.053040695016023, 20.36216143192242 ], [ -102.048468221307743, 20.362161431922424 ], [ -102.048468221307743, 20.358015660714525 ], [ -102.053040695016023, 20.358015660714525 ], [ -102.053040695016023, 20.36216143192242 ] ] ] } },
{ "type": "Feature", "properties": { "difference_1990_2000": 131.0, "difference_1990_2010": 0.0, "difference_1990_2020": 230.0 }, "geometry": { "type": "Polygon", "coordinates": [ [ [ -102.053040695016023, 20.349724448265739 ], [ -102.048468221307743, 20.349724448265743 ], [ -102.048468221307743, 20.345579006964339 ], [ -102.053040695016023, 20.345579006964332 ], [ -102.053040695016023, 20.349724448265739 ] ] ] } },
{ "type": "Feature", "properties": { "difference_1990_2000": 17.0, "difference_1990_2010": 0.0, "difference_1990_2020": -3.0 }, "geometry": { "type": "Polygon", "coordinates": [ [ [ -102.053040695016023, 20.341433675571125 ], [ -102.048468221307743, 20.341433675571128 ], [ -102.048468221307743, 20.33728845405583 ], [ -102.053040695016023, 20.337288454055834 ], [ -102.053040695016023, 20.341433675571125 ] ] ] } },
{ "type": "Feature", "properties": { "difference_1990_2000": 56.0, "difference_1990_2010": 0.0, "difference_1990_2020": 199.0 }, "geometry": { "type": "Polygon", "coordinates": [ [ [ -102.043895747599464, 20.333143342388215 ], [ -102.039323273891185, 20.333143342388215 ], [ -102.039323273891185, 20.328998340537929 ], [ -102.043895747599464, 20.328998340537929 ], [ -102.043895747599464, 20.333143342388215 ] ] ] } },
{ "type": "Feature", "properties": { "difference_1990_2000": 2.0, "difference_1990_2010": 0.0, "difference_1990_2020": 25.0 }, "geometry": { "type": "Polygon", "coordinates": [ [ [ -102.043895747599464, 20.378745617351662 ], [ -102.039323273891185, 20.378745617351679 ], [ -102.039323273891185, 20.37459940584408 ], [ -102.043895747599464, 20.374599405844076 ], [ -102.043895747599464, 20.378745617351662 ] ] ] } },
{ "type": "Feature", "properties": { "difference_1990_2000": 29.0, "difference_1990_2010": 0.0, "difference_1990_2020": 161.0 }, "geometry": { "type": "Polygon", "coordinates": [ [ [ -102.043895747599464, 20.370453304456873 ], [ -102.039323273891185, 20.370453304456849 ], [ -102.039323273891185, 20.366307313159801 ], [ -102.043895747599464, 20.366307313159769 ], [ -102.043895747599464, 20.370453304456873 ] ] ] } },
{ "type": "Feature", "properties": { "difference_1990_2000": 217.0, "difference_1990_2010": 0.0, "difference_1990_2020": 184.0 }, "geometry": { "type": "Polygon", "coordinates": [ [ [ -102.043895747599464, 20.358015660714521 ], [ -102.039323273891185, 20.358015660714539 ], [ -102.039323273891185, 20.353869999505747 ], [ -102.043895747599464, 20.353869999505747 ], [ -102.043895747599464, 20.358015660714521 ] ] ] } },
{ "type": "Feature", "properties": { "difference_1990_2000": 8.0, "difference_1990_2010": 0.0, "difference_1990_2020": 97.0 }, "geometry": { "type": "Polygon", "coordinates": [ [ [ -102.043895747599464, 20.374599405844076 ], [ -102.039323273891185, 20.37459940584408 ], [ -102.039323273891185, 20.370453304456849 ], [ -102.043895747599464, 20.370453304456873 ], [ -102.043895747599464, 20.374599405844076 ] ] ] } },
{ "type": "Feature", "properties": { "difference_1990_2000": 51.0, "difference_1990_2010": 0.0, "difference_1990_2020": 224.0 }, "geometry": { "type": "Polygon", "coordinates": [ [ [ -102.043895747599464, 20.366307313159769 ], [ -102.039323273891185, 20.366307313159815 ], [ -102.039323273891185, 20.362161431922448 ], [ -102.043895747599464, 20.362161431922427 ], [ -102.043895747599464, 20.366307313159769 ] ] ] } },
{ "type": "Feature", "properties": { "difference_1990_2000": 242.0, "difference_1990_2010": 0.0, "difference_1990_2020": 37.0 }, "geometry": { "type": "Polygon", "coordinates": [ [ [ -102.043895747599464, 20.345579006964346 ], [ -102.039323273891185, 20.345579006964343 ], [ -102.039323273891185, 20.341433675571139 ], [ -102.043895747599464, 20.341433675571125 ], [ -102.043895747599464, 20.345579006964346 ] ] ] } },
{ "type": "Feature", "properties": { "difference_1990_2000": 86.0, "difference_1990_2010": 0.0, "difference_1990_2020": -417.0 }, "geometry": { "type": "Polygon", "coordinates": [ [ [ -102.043895747599464, 20.353869999505747 ], [ -102.039323273891185, 20.353869999505747 ], [ -102.039323273891185, 20.349724448265778 ], [ -102.043895747599464, 20.349724448265743 ], [ -102.043895747599464, 20.353869999505747 ] ] ] } },
{ "type": "Feature", "properties": { "difference_1990_2000": 56.0, "difference_1990_2010": 0.0, "difference_1990_2020": 240.0 }, "geometry": { "type": "Polygon", "coordinates": [ [ [ -102.043895747599464, 20.362161431922427 ], [ -102.039323273891185, 20.362161431922448 ], [ -102.039323273891185, 20.358015660714539 ], [ -102.043895747599464, 20.358015660714521 ], [ -102.043895747599464, 20.362161431922427 ] ] ] } },
{ "type": "Feature", "properties": { "difference_1990_2000": -26.0, "difference_1990_2010": 0.0, "difference_1990_2020": -365.0 }, "geometry": { "type": "Polygon", "coordinates": [ [ [ -102.043895747599464, 20.349724448265743 ], [ -102.039323273891185, 20.349724448265778 ], [ -102.039323273891185, 20.345579006964343 ], [ -102.043895747599464, 20.345579006964346 ], [ -102.043895747599464, 20.349724448265743 ] ] ] } },
{ "type": "Feature", "properties": { "difference_1990_2000": 335.0, "difference_1990_2010": 0.0, "difference_1990_2020": 294.0 }, "geometry": { "type": "Polygon", "coordinates": [ [ [ -102.043895747599464, 20.341433675571125 ], [ -102.039323273891185, 20.341433675571139 ], [ -102.039323273891185, 20.337288454055862 ], [ -102.043895747599464, 20.33728845405583 ], [ -102.043895747599464, 20.341433675571125 ] ] ] } },
{ "type": "Feature", "properties": { "difference_1990_2000": 392.0, "difference_1990_2010": 0.0, "difference_1990_2020": 560.0 }, "geometry": { "type": "Polygon", "coordinates": [ [ [ -102.043895747599464, 20.33728845405583 ], [ -102.039323273891185, 20.337288454055862 ], [ -102.039323273891185, 20.333143342388215 ], [ -102.043895747599464, 20.333143342388215 ], [ -102.043895747599464, 20.33728845405583 ] ] ] } },
{ "type": "Feature", "properties": { "difference_1990_2000": 7.0, "difference_1990_2010": 0.0, "difference_1990_2020": 318.0 }, "geometry": { "type": "Polygon", "coordinates": [ [ [ -102.034750800182906, 20.333143342388219 ], [ -102.030178326474626, 20.333143342388212 ], [ -102.030178326474626, 20.328998340537929 ], [ -102.034750800182906, 20.328998340537929 ], [ -102.034750800182906, 20.333143342388219 ] ] ] } },
{ "type": "Feature", "properties": { "difference_1990_2000": 0.0, "difference_1990_2010": 0.0, "difference_1990_2020": 3.0 }, "geometry": { "type": "Polygon", "coordinates": [ [ [ -102.034750800182906, 20.382891939010054 ], [ -102.030178326474626, 20.382891939010047 ], [ -102.030178326474626, 20.37874561735163 ], [ -102.034750800182906, 20.37874561735163 ], [ -102.034750800182906, 20.382891939010054 ] ] ] } },
{ "type": "Feature", "properties": { "difference_1990_2000": 1.0, "difference_1990_2010": 0.0, "difference_1990_2020": 6.0 }, "geometry": { "type": "Polygon", "coordinates": [ [ [ -102.034750800182906, 20.324853448474872 ], [ -102.030178326474626, 20.32485344847484 ], [ -102.030178326474626, 20.320708666168549 ], [ -102.034750800182906, 20.320708666168553 ], [ -102.034750800182906, 20.324853448474872 ] ] ] } },
{ "type": "Feature", "properties": { "difference_1990_2000": 878.0, "difference_1990_2010": 0.0, "difference_1990_2020": 1519.0 }, "geometry": { "type": "Polygon", "coordinates": [ [ [ -102.034750800182906, 20.37874561735163 ], [ -102.030178326474626, 20.37874561735163 ], [ -102.030178326474626, 20.37459940584408 ], [ -102.034750800182906, 20.37459940584408 ], [ -102.034750800182906, 20.37874561735163 ] ] ] } },
{ "type": "Feature", "properties": { "difference_1990_2000": -10.0, "difference_1990_2010": 0.0, "difference_1990_2020": 182.0 }, "geometry": { "type": "Polygon", "coordinates": [ [ [ -102.034750800182906, 20.370453304456849 ], [ -102.030178326474626, 20.370453304456849 ], [ -102.030178326474626, 20.366307313159766 ], [ -102.034750800182906, 20.366307313159801 ], [ -102.034750800182906, 20.370453304456849 ] ] ] } },
{ "type": "Feature", "properties": { "difference_1990_2000": 0.0, "difference_1990_2010": 0.0, "difference_1990_2020": 28.0 }, "geometry": { "type": "Polygon", "coordinates": [ [ [ -102.034750800182906, 20.328998340537929 ], [ -102.030178326474626, 20.328998340537929 ], [ -102.030178326474626, 20.32485344847484 ], [ -102.034750800182906, 20.324853448474872 ], [ -102.034750800182906, 20.328998340537929 ] ] ] } },
{ "type": "Feature", "properties": { "difference_1990_2000": -52.0, "difference_1990_2010": 0.0, "difference_1990_2020": 137.0 }, "geometry": { "type": "Polygon", "coordinates": [ [ [ -102.034750800182906, 20.358015660714521 ], [ -102.030178326474626, 20.358015660714525 ], [ -102.030178326474626, 20.353869999505747 ], [ -102.034750800182906, 20.353869999505747 ], [ -102.034750800182906, 20.358015660714521 ] ] ] } },
{ "type": "Feature", "properties": { "difference_1990_2000": 364.0, "difference_1990_2010": 0.0, "difference_1990_2020": 768.0 }, "geometry": { "type": "Polygon", "coordinates": [ [ [ -102.034750800182906, 20.37459940584408 ], [ -102.030178326474626, 20.37459940584408 ], [ -102.030178326474626, 20.370453304456849 ], [ -102.034750800182906, 20.370453304456849 ], [ -102.034750800182906, 20.37459940584408 ] ] ] } },
{ "type": "Feature", "properties": { "difference_1990_2000": -1207.0, "difference_1990_2010": 0.0, "difference_1990_2020": -857.0 }, "geometry": { "type": "Polygon", "coordinates": [ [ [ -102.034750800182906, 20.345579006964346 ], [ -102.030178326474626, 20.345579006964346 ], [ -102.030178326474626, 20.341433675571093 ], [ -102.034750800182906, 20.341433675571125 ], [ -102.034750800182906, 20.345579006964346 ] ] ] } },
{ "type": "Feature", "properties": { "difference_1990_2000": 35.0, "difference_1990_2010": 0.0, "difference_1990_2020": 226.0 }, "geometry": { "type": "Polygon", "coordinates": [ [ [ -102.034750800182906, 20.366307313159801 ], [ -102.030178326474626, 20.366307313159766 ], [ -102.030178326474626, 20.36216143192242 ], [ -102.034750800182906, 20.362161431922448 ], [ -102.034750800182906, 20.366307313159801 ] ] ] } },
{ "type": "Feature", "properties": { "difference_1990_2000": -234.0, "difference_1990_2010": 0.0, "difference_1990_2020": -487.0 }, "geometry": { "type": "Polygon", "coordinates": [ [ [ -102.034750800182906, 20.353869999505747 ], [ -102.030178326474626, 20.353869999505747 ], [ -102.030178326474626, 20.349724448265743 ], [ -102.034750800182906, 20.349724448265746 ], [ -102.034750800182906, 20.353869999505747 ] ] ] } },
{ "type": "Feature", "properties": { "difference_1990_2000": -598.0, "difference_1990_2010": 0.0, "difference_1990_2020": -841.0 }, "geometry": { "type": "Polygon", "coordinates": [ [ [ -102.034750800182906, 20.349724448265746 ], [ -102.030178326474626, 20.349724448265743 ], [ -102.030178326474626, 20.345579006964346 ], [ -102.034750800182906, 20.345579006964346 ], [ -102.034750800182906, 20.349724448265746 ] ] ] } },
{ "type": "Feature", "properties": { "difference_1990_2000": -51.0, "difference_1990_2010": 0.0, "difference_1990_2020": 165.0 }, "geometry": { "type": "Polygon", "coordinates": [ [ [ -102.034750800182906, 20.362161431922448 ], [ -102.030178326474626, 20.36216143192242 ], [ -102.030178326474626, 20.358015660714525 ], [ -102.034750800182906, 20.358015660714521 ], [ -102.034750800182906, 20.362161431922448 ] ] ] } },
{ "type": "Feature", "properties": { "difference_1990_2000": -888.0, "difference_1990_2010": 0.0, "difference_1990_2020": -1450.0 }, "geometry": { "type": "Polygon", "coordinates": [ [ [ -102.034750800182906, 20.341433675571125 ], [ -102.030178326474626, 20.341433675571093 ], [ -102.030178326474626, 20.337288454055834 ], [ -102.034750800182906, 20.337288454055834 ], [ -102.034750800182906, 20.341433675571125 ] ] ] } },
{ "type": "Feature", "properties": { "difference_1990_2000": -257.0, "difference_1990_2010": 0.0, "difference_1990_2020": -183.0 }, "geometry": { "type": "Polygon", "coordinates": [ [ [ -102.034750800182906, 20.337288454055834 ], [ -102.030178326474626, 20.337288454055834 ], [ -102.030178326474626, 20.333143342388212 ], [ -102.034750800182906, 20.333143342388219 ], [ -102.034750800182906, 20.337288454055834 ] ] ] } },
{ "type": "Feature", "properties": { "difference_1990_2000": 594.0, "difference_1990_2010": 0.0, "difference_1990_2020": 1111.0 }, "geometry": { "type": "Polygon", "coordinates": [ [ [ -102.025605852766361, 20.333143342388219 ], [ -102.021033379058053, 20.333143342388219 ], [ -102.021033379058053, 20.328998340537932 ], [ -102.025605852766361, 20.328998340537929 ], [ -102.025605852766361, 20.333143342388219 ] ] ] } },
{ "type": "Feature", "properties": { "difference_1990_2000": 50.0, "difference_1990_2010": 0.0, "difference_1990_2020": 48.0 }, "geometry": { "type": "Polygon", "coordinates": [ [ [ -102.025605852766361, 20.316563993588879 ], [ -102.021033379058053, 20.316563993588826 ], [ -102.021033379058053, 20.312419430705528 ], [ -102.025605852766361, 20.312419430705539 ], [ -102.025605852766361, 20.316563993588879 ] ] ] } },
{ "type": "Feature", "properties": { "difference_1990_2000": 56.0, "difference_1990_2010": 0.0, "difference_1990_2020": 118.0 }, "geometry": { "type": "Polygon", "coordinates": [ [ [ -102.025605852766361, 20.382891939010012 ], [ -102.021033379058053, 20.382891939010012 ], [ -102.021033379058053, 20.37874561735163 ], [ -102.025605852766361, 20.378745617351662 ], [ -102.025605852766361, 20.382891939010012 ] ] ] } },
{ "type": "Feature", "properties": { "difference_1990_2000": 117.0, "difference_1990_2010": 0.0, "difference_1990_2020": 511.0 }, "geometry": { "type": "Polygon", "coordinates": [ [ [ -102.025605852766361, 20.324853448474844 ], [ -102.021033379058053, 20.324853448474872 ], [ -102.021033379058053, 20.320708666168553 ], [ -102.025605852766361, 20.320708666168542 ], [ -102.025605852766361, 20.324853448474844 ] ] ] } },
{ "type": "Feature", "properties": { "difference_1990_2000": 1098.0, "difference_1990_2010": 0.0, "difference_1990_2020": 1496.0 }, "geometry": { "type": "Polygon", "coordinates": [ [ [ -102.025605852766361, 20.378745617351662 ], [ -102.021033379058053, 20.37874561735163 ], [ -102.021033379058053, 20.37459940584408 ], [ -102.025605852766361, 20.374599405844094 ], [ -102.025605852766361, 20.378745617351662 ] ] ] } },
{ "type": "Feature", "properties": { "difference_1990_2000": -446.0, "difference_1990_2010": 0.0, "difference_1990_2020": -237.0 }, "geometry": { "type": "Polygon", "coordinates": [ [ [ -102.025605852766361, 20.370453304456849 ], [ -102.021033379058053, 20.370453304456849 ], [ -102.021033379058053, 20.366307313159766 ], [ -102.025605852766361, 20.366307313159798 ], [ -102.025605852766361, 20.370453304456849 ] ] ] } },
{ "type": "Feature", "properties": { "difference_1990_2000": 463.0, "difference_1990_2010": 0.0, "difference_1990_2020": 963.0 }, "geometry": { "type": "Polygon", "coordinates": [ [ [ -102.025605852766361, 20.328998340537929 ], [ -102.021033379058053, 20.328998340537932 ], [ -102.021033379058053, 20.324853448474872 ], [ -102.025605852766361, 20.324853448474844 ], [ -102.025605852766361, 20.328998340537929 ] ] ] } },
{ "type": "Feature", "properties": { "difference_1990_2000": -549.0, "difference_1990_2010": -901.0, "difference_1990_2020": -480.0 }, "geometry": { "type": "Polygon", "coordinates": [ [ [ -102.025605852766361, 20.358015660714525 ], [ -102.021033379058053, 20.358015660714525 ], [ -102.021033379058053, 20.353869999505747 ], [ -102.025605852766361, 20.353869999505747 ], [ -102.025605852766361, 20.358015660714525 ] ] ] } },
{ "type": "Feature", "properties": { "difference_1990_2000": -195.0, "difference_1990_2010": 0.0, "difference_1990_2020": 49.0 }, "geometry": { "type": "Polygon", "coordinates": [ [ [ -102.025605852766361, 20.374599405844094 ], [ -102.021033379058053, 20.37459940584408 ], [ -102.021033379058053, 20.370453304456849 ], [ -102.025605852766361, 20.370453304456849 ], [ -102.025605852766361, 20.374599405844094 ] ] ] } },
{ "type": "Feature", "properties": { "difference_1990_2000": -211.0, "difference_1990_2010": -455.0, "difference_1990_2020": 81.0 }, "geometry": { "type": "Polygon", "coordinates": [ [ [ -102.025605852766361, 20.366307313159798 ], [ -102.021033379058053, 20.366307313159766 ], [ -102.021033379058053, 20.362161431922392 ], [ -102.025605852766361, 20.362161431922427 ], [ -102.025605852766361, 20.366307313159798 ] ] ] } },
{ "type": "Feature", "properties": { "difference_1990_2000": -6044.0, "difference_1990_2010": -7243.0, "difference_1990_2020": -6875.0 }, "geometry": { "type": "Polygon", "coordinates": [ [ [ -102.025605852766361, 20.345579006964368 ], [ -102.021033379058053, 20.345579006964318 ], [ -102.021033379058053, 20.341433675571125 ], [ -102.025605852766361, 20.341433675571125 ], [ -102.025605852766361, 20.345579006964368 ] ] ] } },
{ "type": "Feature", "properties": { "difference_1990_2000": -3063.0, "difference_1990_2010": -3480.0, "difference_1990_2020": -3093.0 }, "geometry": { "type": "Polygon", "coordinates": [ [ [ -102.025605852766361, 20.353869999505747 ], [ -102.021033379058053, 20.353869999505747 ], [ -102.021033379058053, 20.349724448265722 ], [ -102.025605852766361, 20.349724448265743 ], [ -102.025605852766361, 20.353869999505747 ] ] ] } },
{ "type": "Feature", "properties": { "difference_1990_2000": -394.0, "difference_1990_2010": -678.0, "difference_1990_2020": -252.0 }, "geometry": { "type": "Polygon", "coordinates": [ [ [ -102.025605852766361, 20.362161431922427 ], [ -102.021033379058053, 20.362161431922392 ], [ -102.021033379058053, 20.358015660714525 ], [ -102.025605852766361, 20.358015660714525 ], [ -102.025605852766361, 20.362161431922427 ] ] ] } },
{ "type": "Feature", "properties": { "difference_1990_2000": -3469.0, "difference_1990_2010": -3753.0, "difference_1990_2020": -3663.0 }, "geometry": { "type": "Polygon", "coordinates": [ [ [ -102.025605852766361, 20.349724448265743 ], [ -102.021033379058053, 20.349724448265722 ], [ -102.021033379058053, 20.345579006964318 ], [ -102.025605852766361, 20.345579006964368 ], [ -102.025605852766361, 20.349724448265743 ] ] ] } },
{ "type": "Feature", "properties": { "difference_1990_2000": -2236.0, "difference_1990_2010": 0.0, "difference_1990_2020": -2740.0 }, "geometry": { "type": "Polygon", "coordinates": [ [ [ -102.025605852766361, 20.341433675571125 ], [ -102.021033379058053, 20.341433675571125 ], [ -102.021033379058053, 20.337288454055834 ], [ -102.025605852766361, 20.337288454055834 ], [ -102.025605852766361, 20.341433675571125 ] ] ] } },
{ "type": "Feature", "properties": { "difference_1990_2000": 28.0, "difference_1990_2010": 0.0, "difference_1990_2020": 122.0 }, "geometry": { "type": "Polygon", "coordinates": [ [ [ -102.025605852766361, 20.320708666168542 ], [ -102.021033379058053, 20.320708666168553 ], [ -102.021033379058053, 20.316563993588826 ], [ -102.025605852766361, 20.316563993588879 ], [ -102.025605852766361, 20.320708666168542 ] ] ] } },
{ "type": "Feature", "properties": { "difference_1990_2000": -259.0, "difference_1990_2010": 0.0, "difference_1990_2020": -276.0 }, "geometry": { "type": "Polygon", "coordinates": [ [ [ -102.025605852766361, 20.337288454055834 ], [ -102.021033379058053, 20.337288454055834 ], [ -102.021033379058053, 20.333143342388219 ], [ -102.025605852766361, 20.333143342388219 ], [ -102.025605852766361, 20.337288454055834 ] ] ] } },
{ "type": "Feature", "properties": { "difference_1990_2000": -80.0, "difference_1990_2010": -396.0, "difference_1990_2020": -208.0 }, "geometry": { "type": "Polygon", "coordinates": [ [ [ -102.016460905349803, 20.333143342388215 ], [ -102.011888431641523, 20.333143342388222 ], [ -102.011888431641523, 20.328998340537929 ], [ -102.016460905349803, 20.328998340537929 ], [ -102.016460905349803, 20.333143342388215 ] ] ] } },
{ "type": "Feature", "properties": { "difference_1990_2000": 207.0, "difference_1990_2010": 0.0, "difference_1990_2020": 194.0 }, "geometry": { "type": "Polygon", "coordinates": [ [ [ -102.016460905349803, 20.316563993588876 ], [ -102.011888431641523, 20.316563993588829 ], [ -102.011888431641523, 20.312419430705525 ], [ -102.016460905349803, 20.312419430705546 ], [ -102.016460905349803, 20.316563993588876 ] ] ] } },
{ "type": "Feature", "properties": { "difference_1990_2000": -22.0, "difference_1990_2010": 0.0, "difference_1990_2020": -27.0 }, "geometry": { "type": "Polygon", "coordinates": [ [ [ -102.016460905349803, 20.324853448474837 ], [ -102.011888431641523, 20.324853448474872 ], [ -102.011888431641523, 20.320708666168553 ], [ -102.016460905349803, 20.32070866616856 ], [ -102.016460905349803, 20.324853448474837 ] ] ] } },
{ "type": "Feature", "properties": { "difference_1990_2000": 35.0, "difference_1990_2010": 0.0, "difference_1990_2020": 81.0 }, "geometry": { "type": "Polygon", "coordinates": [ [ [ -102.016460905349803, 20.378745617351662 ], [ -102.011888431641523, 20.378745617351665 ], [ -102.011888431641523, 20.374599405844084 ], [ -102.016460905349803, 20.374599405844091 ], [ -102.016460905349803, 20.378745617351662 ] ] ] } },
{ "type": "Feature", "properties": { "difference_1990_2000": -78.0, "difference_1990_2010": -65.0, "difference_1990_2020": -86.0 }, "geometry": { "type": "Polygon", "coordinates": [ [ [ -102.016460905349803, 20.370453304456849 ], [ -102.011888431641523, 20.370453304456856 ], [ -102.011888431641523, 20.366307313159766 ], [ -102.016460905349803, 20.366307313159769 ], [ -102.016460905349803, 20.370453304456849 ] ] ] } },
{ "type": "Feature", "properties": { "difference_1990_2000": -74.0, "difference_1990_2010": -453.0, "difference_1990_2020": -144.0 }, "geometry": { "type": "Polygon", "coordinates": [ [ [ -102.016460905349803, 20.328998340537929 ], [ -102.011888431641523, 20.328998340537929 ], [ -102.011888431641523, 20.324853448474872 ], [ -102.016460905349803, 20.324853448474837 ], [ -102.016460905349803, 20.328998340537929 ] ] ] } },
{ "type": "Feature", "properties": { "difference_1990_2000": 35.0, "difference_1990_2010": 0.0, "difference_1990_2020": 34.0 }, "geometry": { "type": "Polygon", "coordinates": [ [ [ -102.016460905349803, 20.304130633906851 ], [ -102.011888431641523, 20.304130633906855 ], [ -102.011888431641523, 20.299986399931122 ], [ -102.016460905349803, 20.299986399931122 ], [ -102.016460905349803, 20.304130633906851 ] ] ] } },
{ "type": "Feature", "properties": { "difference_1990_2000": -75.0, "difference_1990_2010": -53.0, "difference_1990_2020": -73.0 }, "geometry": { "type": "Polygon", "coordinates": [ [ [ -102.016460905349803, 20.358015660714525 ], [ -102.011888431641523, 20.358015660714528 ], [ -102.011888431641523, 20.353869999505747 ], [ -102.016460905349803, 20.353869999505747 ], [ -102.016460905349803, 20.358015660714525 ] ] ] } },
{ "type": "Feature", "properties": { "difference_1990_2000": -105.0, "difference_1990_2010": -88.0, "difference_1990_2020": -116.0 }, "geometry": { "type": "Polygon", "coordinates": [ [ [ -102.016460905349803, 20.366307313159769 ], [ -102.011888431641523, 20.366307313159766 ], [ -102.011888431641523, 20.362161431922431 ], [ -102.016460905349803, 20.36216143192242 ], [ -102.016460905349803, 20.366307313159769 ] ] ] } },
{ "type": "Feature", "properties": { "difference_1990_2000": -1.0, "difference_1990_2010": -22.0, "difference_1990_2020": 17.0 }, "geometry": { "type": "Polygon", "coordinates": [ [ [ -102.016460905349803, 20.374599405844091 ], [ -102.011888431641523, 20.374599405844084 ], [ -102.011888431641523, 20.370453304456856 ], [ -102.016460905349803, 20.370453304456849 ], [ -102.016460905349803, 20.374599405844091 ] ] ] } },
{ "type": "Feature", "properties": { "difference_1990_2000": -25.0, "difference_1990_2010": -47.0, "difference_1990_2020": -90.0 }, "geometry": { "type": "Polygon", "coordinates": [ [ [ -102.016460905349803, 20.345579006964339 ], [ -102.011888431641523, 20.345579006964339 ], [ -102.011888431641523, 20.341433675571128 ], [ -102.016460905349803, 20.341433675571128 ], [ -102.016460905349803, 20.345579006964339 ] ] ] } },
{ "type": "Feature", "properties": { "difference_1990_2000": 2.0, "difference_1990_2010": 30.0, "difference_1990_2020": 34.0 }, "geometry": { "type": "Polygon", "coordinates": [ [ [ -102.016460905349803, 20.353869999505747 ], [ -102.011888431641523, 20.353869999505747 ], [ -102.011888431641523, 20.349724448265739 ], [ -102.016460905349803, 20.349724448265739 ], [ -102.016460905349803, 20.353869999505747 ] ] ] } },
{ "type": "Feature", "properties": { "difference_1990_2000": 177.0, "difference_1990_2010": 0.0, "difference_1990_2020": 170.0 }, "geometry": { "type": "Polygon", "coordinates": [ [ [ -102.016460905349803, 20.308274977488235 ], [ -102.011888431641523, 20.308274977488239 ], [ -102.011888431641523, 20.304130633906855 ], [ -102.016460905349803, 20.304130633906851 ], [ -102.016460905349803, 20.308274977488235 ] ] ] } },
{ "type": "Feature", "properties": { "difference_1990_2000": -105.0, "difference_1990_2010": -88.0, "difference_1990_2020": -116.0 }, "geometry": { "type": "Polygon", "coordinates": [ [ [ -102.016460905349803, 20.36216143192242 ], [ -102.011888431641523, 20.362161431922431 ], [ -102.011888431641523, 20.358015660714528 ], [ -102.016460905349803, 20.358015660714525 ], [ -102.016460905349803, 20.36216143192242 ] ] ] } },
{ "type": "Feature", "properties": { "difference_1990_2000": 13.0, "difference_1990_2010": 37.0, "difference_1990_2020": 43.0 }, "geometry": { "type": "Polygon", "coordinates": [ [ [ -102.016460905349803, 20.349724448265739 ], [ -102.011888431641523, 20.349724448265739 ], [ -102.011888431641523, 20.345579006964339 ], [ -102.016460905349803, 20.345579006964339 ], [ -102.016460905349803, 20.349724448265739 ] ] ] } },
{ "type": "Feature", "properties": { "difference_1990_2000": -47.0, "difference_1990_2010": -99.0, "difference_1990_2020": -168.0 }, "geometry": { "type": "Polygon", "coordinates": [ [ [ -102.016460905349803, 20.341433675571128 ], [ -102.011888431641523, 20.341433675571128 ], [ -102.011888431641523, 20.337288454055834 ], [ -102.016460905349803, 20.337288454055827 ], [ -102.016460905349803, 20.341433675571128 ] ] ] } },
{ "type": "Feature", "properties": { "difference_1990_2000": -29.0, "difference_1990_2010": 0.0, "difference_1990_2020": -40.0 }, "geometry": { "type": "Polygon", "coordinates": [ [ [ -102.016460905349803, 20.32070866616856 ], [ -102.011888431641523, 20.320708666168553 ], [ -102.011888431641523, 20.316563993588829 ], [ -102.016460905349803, 20.316563993588876 ], [ -102.016460905349803, 20.32070866616856 ] ] ] } },
{ "type": "Feature", "properties": { "difference_1990_2000": 360.0, "difference_1990_2010": 0.0, "difference_1990_2020": 347.0 }, "geometry": { "type": "Polygon", "coordinates": [ [ [ -102.016460905349803, 20.312419430705546 ], [ -102.011888431641523, 20.312419430705525 ], [ -102.011888431641523, 20.308274977488239 ], [ -102.016460905349803, 20.308274977488235 ], [ -102.016460905349803, 20.312419430705546 ] ] ] } },
{ "type": "Feature", "properties": { "difference_1990_2000": -54.0, "difference_1990_2010": -157.0, "difference_1990_2020": -176.0 }, "geometry": { "type": "Polygon", "coordinates": [ [ [ -102.016460905349803, 20.337288454055827 ], [ -102.011888431641523, 20.337288454055834 ], [ -102.011888431641523, 20.333143342388222 ], [ -102.016460905349803, 20.333143342388215 ], [ -102.016460905349803, 20.337288454055827 ] ] ] } },
{ "type": "Feature", "properties": { "difference_1990_2000": -14.0, "difference_1990_2010": -28.0, "difference_1990_2020": -47.0 }, "geometry": { "type": "Polygon", "coordinates": [ [ [ -102.007315957933258, 20.337288454055869 ], [ -102.002743484224979, 20.337288454055809 ], [ -102.002743484224979, 20.333143342388219 ], [ -102.007315957933258, 20.33314334238819 ], [ -102.007315957933258, 20.337288454055869 ] ] ] } },
{ "type": "Feature", "properties": { "difference_1990_2000": -1.0, "difference_1990_2010": 0.0, "difference_1990_2020": -1.0 }, "geometry": { "type": "Polygon", "coordinates": [ [ [ -102.007315957933258, 20.316563993588836 ], [ -102.002743484224979, 20.31656399358884 ], [ -102.002743484224979, 20.312419430705521 ], [ -102.007315957933258, 20.312419430705496 ], [ -102.007315957933258, 20.316563993588836 ] ] ] } },
{ "type": "Feature", "properties": { "difference_1990_2000": 285.0, "difference_1990_2010": 0.0, "difference_1990_2020": 371.0 }, "geometry": { "type": "Polygon", "coordinates": [ [ [ -102.007315957933258, 20.324853448474844 ], [ -102.002743484224979, 20.324853448474844 ], [ -102.002743484224979, 20.320708666168549 ], [ -102.007315957933258, 20.320708666168546 ], [ -102.007315957933258, 20.324853448474844 ] ] ] } },
{ "type": "Feature", "properties": { "difference_1990_2000": 46.0, "difference_1990_2010": -12.0, "difference_1990_2020": 48.0 }, "geometry": { "type": "Polygon", "coordinates": [ [ [ -102.007315957933258, 20.328998340537929 ], [ -102.002743484224979, 20.328998340537915 ], [ -102.002743484224979, 20.324853448474844 ], [ -102.007315957933258, 20.324853448474844 ], [ -102.007315957933258, 20.328998340537929 ] ] ] } },
{ "type": "Feature", "properties": { "difference_1990_2000": 11.0, "difference_1990_2010": 31.0, "difference_1990_2020": 36.0 }, "geometry": { "type": "Polygon", "coordinates": [ [ [ -102.007315957933258, 20.358015660714525 ], [ -102.002743484224979, 20.358015660714525 ], [ -102.002743484224979, 20.353869999505743 ], [ -102.007315957933258, 20.35386999950574 ], [ -102.007315957933258, 20.358015660714525 ] ] ] } },
{ "type": "Feature", "properties": { "difference_1990_2000": 1.0, "difference_1990_2010": 4.0, "difference_1990_2020": 4.0 }, "geometry": { "type": "Polygon", "coordinates": [ [ [ -102.007315957933258, 20.35386999950574 ], [ -102.002743484224979, 20.353869999505743 ], [ -102.002743484224979, 20.349724448265739 ], [ -102.007315957933258, 20.349724448265778 ], [ -102.007315957933258, 20.35386999950574 ] ] ] } },
{ "type": "Feature", "properties": { "difference_1990_2000": 18.0, "difference_1990_2010": 0.0, "difference_1990_2020": 17.0 }, "geometry": { "type": "Polygon", "coordinates": [ [ [ -102.007315957933258, 20.308274977488235 ], [ -102.002743484224979, 20.308274977488239 ], [ -102.002743484224979, 20.304130633906855 ], [ -102.007315957933258, 20.304130633906848 ], [ -102.007315957933258, 20.308274977488235 ] ] ] } },
{ "type": "Feature", "properties": { "difference_1990_2000": -7.0, "difference_1990_2010": -5.0, "difference_1990_2020": -7.0 }, "geometry": { "type": "Polygon", "coordinates": [ [ [ -102.007315957933258, 20.362161431922448 ], [ -102.002743484224979, 20.362161431922388 ], [ -102.002743484224979, 20.358015660714525 ], [ -102.007315957933258, 20.358015660714525 ], [ -102.007315957933258, 20.362161431922448 ] ] ] } },
{ "type": "Feature", "properties": { "difference_1990_2000": -1.0, "difference_1990_2010": 0.0, "difference_1990_2020": -2.0 }, "geometry": { "type": "Polygon", "coordinates": [ [ [ -102.007315957933258, 20.312419430705496 ], [ -102.002743484224979, 20.312419430705521 ], [ -102.002743484224979, 20.308274977488239 ], [ -102.007315957933258, 20.308274977488235 ], [ -102.007315957933258, 20.312419430705496 ] ] ] } },
{ "type": "Feature", "properties": { "difference_1990_2000": 145.0, "difference_1990_2010": 0.0, "difference_1990_2020": 188.0 }, "geometry": { "type": "Polygon", "coordinates": [ [ [ -102.007315957933258, 20.320708666168546 ], [ -102.002743484224979, 20.320708666168549 ], [ -102.002743484224979, 20.31656399358884 ], [ -102.007315957933258, 20.316563993588836 ], [ -102.007315957933258, 20.320708666168546 ] ] ] } },
{ "type": "Feature", "properties": { "difference_1990_2000": -21.0, "difference_1990_2010": -43.0, "difference_1990_2020": -73.0 }, "geometry": { "type": "Polygon", "coordinates": [ [ [ -102.007315957933258, 20.33314334238819 ], [ -102.002743484224979, 20.333143342388219 ], [ -102.002743484224979, 20.328998340537915 ], [ -102.007315957933258, 20.328998340537929 ], [ -102.007315957933258, 20.33314334238819 ] ] ] } }
]
}
