{
"type": "FeatureCollection",
"name": "M26.01",
"crs": { "type": "name", "properties": { "name": "urn:ogc:def:crs:OGC:1.3:CRS84" } },
"features": [
{ "type": "Feature", "properties": { "difference_1990_2000": 70.0, "difference_1990_2010": 0.0, "difference_1990_2020": 124.0 }, "geometry": { "type": "Polygon", "coordinates": [ [ [ -110.900777320530423, 27.890504261619959 ], [ -110.896204846822144, 27.890504261620002 ], [ -110.896204846822144, 27.886109653900704 ], [ -110.900777320530423, 27.886109653900704 ], [ -110.900777320530423, 27.890504261619959 ] ] ] } },
{ "type": "Feature", "properties": { "difference_1990_2000": -366.0, "difference_1990_2010": 0.0, "difference_1990_2020": -947.0 }, "geometry": { "type": "Polygon", "coordinates": [ [ [ -110.900777320530423, 27.925667482765945 ], [ -110.896204846822144, 27.925667482765949 ], [ -110.896204846822144, 27.921271461408594 ], [ -110.900777320530423, 27.921271461408594 ], [ -110.900777320530423, 27.925667482765945 ] ] ] } },
{ "type": "Feature", "properties": { "difference_1990_2000": 23.0, "difference_1990_2010": 0.0, "difference_1990_2020": 113.0 }, "geometry": { "type": "Polygon", "coordinates": [ [ [ -110.900777320530423, 27.881715222674149 ], [ -110.896204846822144, 27.881715222674174 ], [ -110.896204846822144, 27.877320967893379 ], [ -110.900777320530423, 27.87732096789334 ], [ -110.900777320530423, 27.881715222674149 ] ] ] } },
{ "type": "Feature", "properties": { "difference_1990_2000": 43.0, "difference_1990_2010": 0.0, "difference_1990_2020": 145.0 }, "geometry": { "type": "Polygon", "coordinates": [ [ [ -110.900777320530423, 27.886109653900704 ], [ -110.896204846822144, 27.886109653900704 ], [ -110.896204846822144, 27.881715222674174 ], [ -110.900777320530423, 27.881715222674149 ], [ -110.900777320530423, 27.886109653900704 ] ] ] } },
{ "type": "Feature", "properties": { "difference_1990_2000": 3.0, "difference_1990_2010": 0.0, "difference_1990_2020": 14.0 }, "geometry": { "type": "Polygon", "coordinates": [ [ [ -110.900777320530423, 27.877320967893375 ], [ -110.896204846822144, 27.8773209678934 ], [ -110.896204846822144, 27.872926889511167 ], [ -110.900777320530423, 27.872926889511191 ], [ -110.900777320530423, 27.877320967893375 ] ] ] } },
{ "type": "Feature", "properties": { "difference_1990_2000": -130.0, "difference_1990_2010": 0.0, "difference_1990_2020": -869.0 }, "geometry": { "type": "Polygon", "coordinates": [ [ [ -110.900777320530423, 27.912479949256078 ], [ -110.896204846822144, 27.912479949256085 ], [ -110.896204846822144, 27.908084458366513 ], [ -110.900777320530423, 27.90808445836651 ], [ -110.900777320530423, 27.912479949256078 ] ] ] } },
{ "type": "Feature", "properties": { "difference_1990_2000": -19.0, "difference_1990_2010": 0.0, "difference_1990_2020": -60.0 }, "geometry": { "type": "Polygon", "coordinates": [ [ [ -110.900777320530423, 27.938856608528607 ], [ -110.896204846822144, 27.938856608528589 ], [ -110.896204846822144, 27.93446005627877 ], [ -110.900777320530423, 27.934460056278766 ], [ -110.900777320530423, 27.938856608528607 ] ] ] } },
{ "type": "Feature", "properties": { "difference_1990_2000": 1.0, "difference_1990_2010": 0.0, "difference_1990_2020": 0.0 }, "geometry": { "type": "Polygon", "coordinates": [ [ [ -110.900777320530423, 27.899294006725182 ], [ -110.896204846822144, 27.899294006725182 ], [ -110.896204846822144, 27.894899045879114 ], [ -110.900777320530423, 27.894899045879079 ], [ -110.900777320530423, 27.899294006725182 ] ] ] } },
{ "type": "Feature", "properties": { "difference_1990_2000": -5.0, "difference_1990_2010": 0.0, "difference_1990_2020": -4.0 }, "geometry": { "type": "Polygon", "coordinates": [ [ [ -110.900777320530423, 27.903689144205249 ], [ -110.896204846822144, 27.903689144205249 ], [ -110.896204846822144, 27.899294006725182 ], [ -110.900777320530423, 27.899294006725182 ], [ -110.900777320530423, 27.903689144205249 ] ] ] } },
{ "type": "Feature", "properties": { "difference_1990_2000": -43.0, "difference_1990_2010": 0.0, "difference_1990_2020": -55.0 }, "geometry": { "type": "Polygon", "coordinates": [ [ [ -110.900777320530423, 27.90808445836651 ], [ -110.896204846822144, 27.908084458366513 ], [ -110.896204846822144, 27.903689144205249 ], [ -110.900777320530423, 27.903689144205249 ], [ -110.900777320530423, 27.90808445836651 ] ] ] } },
{ "type": "Feature", "properties": { "difference_1990_2000": 35.0, "difference_1990_2010": 0.0, "difference_1990_2020": 61.0 }, "geometry": { "type": "Polygon", "coordinates": [ [ [ -110.900777320530423, 27.894899045879079 ], [ -110.896204846822144, 27.894899045879114 ], [ -110.896204846822144, 27.890504261620002 ], [ -110.900777320530423, 27.890504261619959 ], [ -110.900777320530423, 27.894899045879079 ] ] ] } },
{ "type": "Feature", "properties": { "difference_1990_2000": -58.0, "difference_1990_2010": 0.0, "difference_1990_2020": -187.0 }, "geometry": { "type": "Polygon", "coordinates": [ [ [ -110.900777320530423, 27.934460056278766 ], [ -110.896204846822144, 27.93446005627877 ], [ -110.896204846822144, 27.930063681040256 ], [ -110.900777320530423, 27.930063681040252 ], [ -110.900777320530423, 27.934460056278766 ] ] ] } },
{ "type": "Feature", "properties": { "difference_1990_2000": -115.0, "difference_1990_2010": 0.0, "difference_1990_2020": -333.0 }, "geometry": { "type": "Polygon", "coordinates": [ [ [ -110.900777320530423, 27.930063681040252 ], [ -110.896204846822144, 27.930063681040256 ], [ -110.896204846822144, 27.925667482765949 ], [ -110.900777320530423, 27.925667482765949 ], [ -110.900777320530423, 27.930063681040252 ] ] ] } },
{ "type": "Feature", "properties": { "difference_1990_2000": -317.0, "difference_1990_2010": 0.0, "difference_1990_2020": -933.0 }, "geometry": { "type": "Polygon", "coordinates": [ [ [ -110.900777320530423, 27.921271461408594 ], [ -110.896204846822144, 27.921271461408594 ], [ -110.896204846822144, 27.916875616921033 ], [ -110.900777320530423, 27.916875616921033 ], [ -110.900777320530423, 27.921271461408594 ] ] ] } },
{ "type": "Feature", "properties": { "difference_1990_2000": 80.0, "difference_1990_2010": 0.0, "difference_1990_2020": -807.0 }, "geometry": { "type": "Polygon", "coordinates": [ [ [ -110.900777320530423, 27.916875616921033 ], [ -110.896204846822144, 27.916875616921033 ], [ -110.896204846822144, 27.912479949256085 ], [ -110.900777320530423, 27.912479949256078 ], [ -110.900777320530423, 27.916875616921033 ] ] ] } },
{ "type": "Feature", "properties": { "difference_1990_2000": 184.0, "difference_1990_2010": 0.0, "difference_1990_2020": 148.0 }, "geometry": { "type": "Polygon", "coordinates": [ [ [ -110.891632373113879, 27.890504261620006 ], [ -110.887059899405585, 27.890504261619999 ], [ -110.887059899405585, 27.886109653900665 ], [ -110.891632373113879, 27.886109653900665 ], [ -110.891632373113879, 27.890504261620006 ] ] ] } },
{ "type": "Feature", "properties": { "difference_1990_2000": -126.0, "difference_1990_2010": 0.0, "difference_1990_2020": -493.0 }, "geometry": { "type": "Polygon", "coordinates": [ [ [ -110.891632373113879, 27.925667482765945 ], [ -110.887059899405585, 27.925667482765949 ], [ -110.887059899405585, 27.921271461408601 ], [ -110.891632373113879, 27.921271461408569 ], [ -110.891632373113879, 27.925667482765945 ] ] ] } },
{ "type": "Feature", "properties": { "difference_1990_2000": 84.0, "difference_1990_2010": 0.0, "difference_1990_2020": 84.0 }, "geometry": { "type": "Polygon", "coordinates": [ [ [ -110.891632373113879, 27.886109653900665 ], [ -110.887059899405585, 27.886109653900665 ], [ -110.887059899405585, 27.881715222674178 ], [ -110.891632373113879, 27.881715222674149 ], [ -110.891632373113879, 27.886109653900665 ] ] ] } },
{ "type": "Feature", "properties": { "difference_1990_2000": -3.0, "difference_1990_2010": 0.0, "difference_1990_2020": -6.0 }, "geometry": { "type": "Polygon", "coordinates": [ [ [ -110.891632373113879, 27.943253337837124 ], [ -110.887059899405585, 27.943253337837117 ], [ -110.887059899405585, 27.938856608528614 ], [ -110.891632373113879, 27.93885660852861 ], [ -110.891632373113879, 27.943253337837124 ] ] ] } },
{ "type": "Feature", "properties": { "difference_1990_2000": -11.0, "difference_1990_2010": 0.0, "difference_1990_2020": -21.0 }, "geometry": { "type": "Polygon", "coordinates": [ [ [ -110.891632373113879, 27.912479949256081 ], [ -110.887059899405585, 27.912479949256081 ], [ -110.887059899405585, 27.908084458366513 ], [ -110.891632373113879, 27.90808445836651 ], [ -110.891632373113879, 27.912479949256081 ] ] ] } },
{ "type": "Feature", "properties": { "difference_1990_2000": -45.0, "difference_1990_2010": 0.0, "difference_1990_2020": -172.0 }, "geometry": { "type": "Polygon", "coordinates": [ [ [ -110.891632373113879, 27.93885660852861 ], [ -110.887059899405585, 27.938856608528614 ], [ -110.887059899405585, 27.93446005627877 ], [ -110.891632373113879, 27.934460056278738 ], [ -110.891632373113879, 27.93885660852861 ] ] ] } },
{ "type": "Feature", "properties": { "difference_1990_2000": 1.0, "difference_1990_2010": 0.0, "difference_1990_2020": -1.0 }, "geometry": { "type": "Polygon", "coordinates": [ [ [ -110.891632373113879, 27.899294006725185 ], [ -110.887059899405585, 27.899294006725182 ], [ -110.887059899405585, 27.894899045879143 ], [ -110.891632373113879, 27.894899045879118 ], [ -110.891632373113879, 27.899294006725185 ] ] ] } },
{ "type": "Feature", "properties": { "difference_1990_2000": 1.0, "difference_1990_2010": 0.0, "difference_1990_2020": 0.0 }, "geometry": { "type": "Polygon", "coordinates": [ [ [ -110.891632373113879, 27.903689144205252 ], [ -110.887059899405585, 27.903689144205249 ], [ -110.887059899405585, 27.899294006725182 ], [ -110.891632373113879, 27.899294006725185 ], [ -110.891632373113879, 27.903689144205252 ] ] ] } },
{ "type": "Feature", "properties": { "difference_1990_2000": -59.0, "difference_1990_2010": 0.0, "difference_1990_2020": -196.0 }, "geometry": { "type": "Polygon", "coordinates": [ [ [ -110.891632373113879, 27.934460056278738 ], [ -110.887059899405585, 27.93446005627877 ], [ -110.887059899405585, 27.930063681040252 ], [ -110.891632373113879, 27.930063681040259 ], [ -110.891632373113879, 27.934460056278738 ] ] ] } },
{ "type": "Feature", "properties": { "difference_1990_2000": -4.0, "difference_1990_2010": 0.0, "difference_1990_2020": 14.0 }, "geometry": { "type": "Polygon", "coordinates": [ [ [ -110.891632373113879, 27.894899045879118 ], [ -110.887059899405585, 27.894899045879143 ], [ -110.887059899405585, 27.890504261619999 ], [ -110.891632373113879, 27.890504261620006 ], [ -110.891632373113879, 27.894899045879118 ] ] ] } },
{ "type": "Feature", "properties": { "difference_1990_2000": -125.0, "difference_1990_2010": 0.0, "difference_1990_2020": -478.0 }, "geometry": { "type": "Polygon", "coordinates": [ [ [ -110.891632373113879, 27.930063681040259 ], [ -110.887059899405585, 27.930063681040252 ], [ -110.887059899405585, 27.925667482765981 ], [ -110.891632373113879, 27.925667482765949 ], [ -110.891632373113879, 27.930063681040259 ] ] ] } },
{ "type": "Feature", "properties": { "difference_1990_2000": -36.0, "difference_1990_2010": 0.0, "difference_1990_2020": -129.0 }, "geometry": { "type": "Polygon", "coordinates": [ [ [ -110.891632373113879, 27.921271461408569 ], [ -110.887059899405585, 27.921271461408601 ], [ -110.887059899405585, 27.916875616921033 ], [ -110.891632373113879, 27.916875616921033 ], [ -110.891632373113879, 27.921271461408569 ] ] ] } },
{ "type": "Feature", "properties": { "difference_1990_2000": -127.0, "difference_1990_2010": 0.0, "difference_1990_2020": -258.0 }, "geometry": { "type": "Polygon", "coordinates": [ [ [ -110.891632373113879, 27.916875616921033 ], [ -110.887059899405585, 27.916875616921033 ], [ -110.887059899405585, 27.912479949256081 ], [ -110.891632373113879, 27.912479949256081 ], [ -110.891632373113879, 27.916875616921033 ] ] ] } },
{ "type": "Feature", "properties": { "difference_1990_2000": -124.0, "difference_1990_2010": 0.0, "difference_1990_2020": -400.0 }, "geometry": { "type": "Polygon", "coordinates": [ [ [ -110.88248742569732, 27.925667482765949 ], [ -110.877914951989041, 27.925667482765945 ], [ -110.877914951989041, 27.921271461408598 ], [ -110.88248742569732, 27.921271461408594 ], [ -110.88248742569732, 27.925667482765949 ] ] ] } },
{ "type": "Feature", "properties": { "difference_1990_2000": 47.0, "difference_1990_2010": 0.0, "difference_1990_2020": 48.0 }, "geometry": { "type": "Polygon", "coordinates": [ [ [ -110.88248742569732, 27.943253337837117 ], [ -110.877914951989041, 27.943253337837124 ], [ -110.877914951989041, 27.938856608528589 ], [ -110.88248742569732, 27.938856608528607 ], [ -110.88248742569732, 27.943253337837117 ] ] ] } },
{ "type": "Feature", "properties": { "difference_1990_2000": 40.0, "difference_1990_2010": 0.0, "difference_1990_2020": -9.0 }, "geometry": { "type": "Polygon", "coordinates": [ [ [ -110.88248742569732, 27.938856608528607 ], [ -110.877914951989041, 27.938856608528589 ], [ -110.877914951989041, 27.93446005627878 ], [ -110.88248742569732, 27.934460056278766 ], [ -110.88248742569732, 27.938856608528607 ] ] ] } },
{ "type": "Feature", "properties": { "difference_1990_2000": -21.0, "difference_1990_2010": 0.0, "difference_1990_2020": -22.0 }, "geometry": { "type": "Polygon", "coordinates": [ [ [ -110.88248742569732, 27.899294006725178 ], [ -110.877914951989041, 27.899294006725182 ], [ -110.877914951989041, 27.894899045879118 ], [ -110.88248742569732, 27.894899045879118 ], [ -110.88248742569732, 27.899294006725178 ] ] ] } },
{ "type": "Feature", "properties": { "difference_1990_2000": 0.0, "difference_1990_2010": 0.0, "difference_1990_2020": 0.0 }, "geometry": { "type": "Polygon", "coordinates": [ [ [ -110.88248742569732, 27.903689144205249 ], [ -110.877914951989041, 27.903689144205252 ], [ -110.877914951989041, 27.899294006725182 ], [ -110.88248742569732, 27.899294006725178 ], [ -110.88248742569732, 27.903689144205249 ] ] ] } },
{ "type": "Feature", "properties": { "difference_1990_2000": -106.0, "difference_1990_2010": 0.0, "difference_1990_2020": -401.0 }, "geometry": { "type": "Polygon", "coordinates": [ [ [ -110.88248742569732, 27.934460056278766 ], [ -110.877914951989041, 27.93446005627878 ], [ -110.877914951989041, 27.930063681040256 ], [ -110.88248742569732, 27.930063681040252 ], [ -110.88248742569732, 27.934460056278766 ] ] ] } },
{ "type": "Feature", "properties": { "difference_1990_2000": -1.0, "difference_1990_2010": 0.0, "difference_1990_2020": -1.0 }, "geometry": { "type": "Polygon", "coordinates": [ [ [ -110.88248742569732, 27.894899045879118 ], [ -110.877914951989041, 27.894899045879118 ], [ -110.877914951989041, 27.890504261620002 ], [ -110.88248742569732, 27.890504261620006 ], [ -110.88248742569732, 27.894899045879118 ] ] ] } },
{ "type": "Feature", "properties": { "difference_1990_2000": -213.0, "difference_1990_2010": 0.0, "difference_1990_2020": -678.0 }, "geometry": { "type": "Polygon", "coordinates": [ [ [ -110.88248742569732, 27.930063681040252 ], [ -110.877914951989041, 27.930063681040256 ], [ -110.877914951989041, 27.925667482765949 ], [ -110.88248742569732, 27.925667482765949 ], [ -110.88248742569732, 27.930063681040252 ] ] ] } },
{ "type": "Feature", "properties": { "difference_1990_2000": 7.0, "difference_1990_2010": 0.0, "difference_1990_2020": 7.0 }, "geometry": { "type": "Polygon", "coordinates": [ [ [ -110.873342478280762, 27.947650244251438 ], [ -110.868770004572482, 27.947650244251484 ], [ -110.868770004572482, 27.943253337837117 ], [ -110.873342478280762, 27.94325333783712 ], [ -110.873342478280762, 27.947650244251438 ] ] ] } },
{ "type": "Feature", "properties": { "difference_1990_2000": 75.0, "difference_1990_2010": 0.0, "difference_1990_2020": 78.0 }, "geometry": { "type": "Polygon", "coordinates": [ [ [ -110.873342478280762, 27.94325333783712 ], [ -110.868770004572482, 27.943253337837117 ], [ -110.868770004572482, 27.938856608528589 ], [ -110.873342478280762, 27.93885660852861 ], [ -110.873342478280762, 27.94325333783712 ] ] ] } },
{ "type": "Feature", "properties": { "difference_1990_2000": 54.0, "difference_1990_2010": 0.0, "difference_1990_2020": 32.0 }, "geometry": { "type": "Polygon", "coordinates": [ [ [ -110.873342478280762, 27.93885660852861 ], [ -110.868770004572482, 27.938856608528589 ], [ -110.868770004572482, 27.934460056278763 ], [ -110.873342478280762, 27.93446005627877 ], [ -110.873342478280762, 27.93885660852861 ] ] ] } },
{ "type": "Feature", "properties": { "difference_1990_2000": -79.0, "difference_1990_2010": 0.0, "difference_1990_2020": -302.0 }, "geometry": { "type": "Polygon", "coordinates": [ [ [ -110.873342478280762, 27.93446005627877 ], [ -110.868770004572482, 27.934460056278763 ], [ -110.868770004572482, 27.930063681040235 ], [ -110.873342478280762, 27.930063681040235 ], [ -110.873342478280762, 27.93446005627877 ] ] ] } },
{ "type": "Feature", "properties": { "difference_1990_2000": -139.0, "difference_1990_2010": 0.0, "difference_1990_2020": -814.0 }, "geometry": { "type": "Polygon", "coordinates": [ [ [ -110.873342478280762, 27.930063681040235 ], [ -110.868770004572482, 27.930063681040235 ], [ -110.868770004572482, 27.925667482765949 ], [ -110.873342478280762, 27.925667482765949 ], [ -110.873342478280762, 27.930063681040235 ] ] ] } },
{ "type": "Feature", "properties": { "difference_1990_2000": 1.0, "difference_1990_2010": 0.0, "difference_1990_2020": -1.0 }, "geometry": { "type": "Polygon", "coordinates": [ [ [ -110.864197530864217, 27.93885660852861 ], [ -110.859625057155924, 27.938856608528614 ], [ -110.859625057155924, 27.934460056278777 ], [ -110.864197530864217, 27.934460056278777 ], [ -110.864197530864217, 27.93885660852861 ] ] ] } },
{ "type": "Feature", "properties": { "difference_1990_2000": -2.0, "difference_1990_2010": 0.0, "difference_1990_2020": -6.0 }, "geometry": { "type": "Polygon", "coordinates": [ [ [ -110.864197530864217, 27.934460056278777 ], [ -110.859625057155924, 27.934460056278777 ], [ -110.859625057155924, 27.930063681040231 ], [ -110.864197530864217, 27.930063681040252 ], [ -110.864197530864217, 27.934460056278777 ] ] ] } },
{ "type": "Feature", "properties": { "difference_1990_2000": -2.0, "difference_1990_2010": 0.0, "difference_1990_2020": -6.0 }, "geometry": { "type": "Polygon", "coordinates": [ [ [ -110.864197530864217, 27.930063681040252 ], [ -110.859625057155924, 27.930063681040231 ], [ -110.859625057155924, 27.925667482765952 ], [ -110.864197530864217, 27.925667482765984 ], [ -110.864197530864217, 27.930063681040252 ] ] ] } },
{ "type": "Feature", "properties": { "difference_1990_2000": 431.0, "difference_1990_2010": 0.0, "difference_1990_2020": 304.0 }, "geometry": { "type": "Polygon", "coordinates": [ [ [ -110.932784636488336, 27.91247994925606 ], [ -110.928212162780056, 27.912479949256081 ], [ -110.928212162780056, 27.908084458366481 ], [ -110.932784636488336, 27.908084458366513 ], [ -110.932784636488336, 27.91247994925606 ] ] ] } },
{ "type": "Feature", "properties": { "difference_1990_2000": 259.0, "difference_1990_2010": 0.0, "difference_1990_2020": 222.0 }, "geometry": { "type": "Polygon", "coordinates": [ [ [ -110.932784636488336, 27.903689144205249 ], [ -110.928212162780056, 27.903689144205245 ], [ -110.928212162780056, 27.899294006725182 ], [ -110.932784636488336, 27.899294006725185 ], [ -110.932784636488336, 27.903689144205249 ] ] ] } },
{ "type": "Feature", "properties": { "difference_1990_2000": 842.0, "difference_1990_2010": 0.0, "difference_1990_2020": 529.0 }, "geometry": { "type": "Polygon", "coordinates": [ [ [ -110.932784636488336, 27.908084458366513 ], [ -110.928212162780056, 27.90808445836651 ], [ -110.928212162780056, 27.903689144205245 ], [ -110.932784636488336, 27.903689144205249 ], [ -110.932784636488336, 27.908084458366513 ] ] ] } },
{ "type": "Feature", "properties": { "difference_1990_2000": 11.0, "difference_1990_2010": 0.0, "difference_1990_2020": 20.0 }, "geometry": { "type": "Polygon", "coordinates": [ [ [ -110.932784636488336, 27.916875616921033 ], [ -110.928212162780056, 27.916875616921033 ], [ -110.928212162780056, 27.912479949256081 ], [ -110.932784636488336, 27.91247994925606 ], [ -110.932784636488336, 27.916875616921033 ] ] ] } },
{ "type": "Feature", "properties": { "difference_1990_2000": -17.0, "difference_1990_2010": 0.0, "difference_1990_2020": 11.0 }, "geometry": { "type": "Polygon", "coordinates": [ [ [ -110.923639689071805, 27.890504261620006 ], [ -110.91906721536354, 27.890504261620016 ], [ -110.91906721536354, 27.886109653900657 ], [ -110.923639689071805, 27.886109653900665 ], [ -110.923639689071805, 27.890504261620006 ] ] ] } },
{ "type": "Feature", "properties": { "difference_1990_2000": 616.0, "difference_1990_2010": 0.0, "difference_1990_2020": 396.0 }, "geometry": { "type": "Polygon", "coordinates": [ [ [ -110.923639689071805, 27.925667482765949 ], [ -110.91906721536354, 27.925667482765945 ], [ -110.91906721536354, 27.921271461408598 ], [ -110.923639689071805, 27.921271461408594 ], [ -110.923639689071805, 27.925667482765949 ] ] ] } },
{ "type": "Feature", "properties": { "difference_1990_2000": 314.0, "difference_1990_2010": 0.0, "difference_1990_2020": 539.0 }, "geometry": { "type": "Polygon", "coordinates": [ [ [ -110.923639689071805, 27.912479949256056 ], [ -110.91906721536354, 27.91247994925606 ], [ -110.91906721536354, 27.908084458366524 ], [ -110.923639689071805, 27.90808445836652 ], [ -110.923639689071805, 27.912479949256056 ] ] ] } },
{ "type": "Feature", "properties": { "difference_1990_2000": 230.0, "difference_1990_2010": 0.0, "difference_1990_2020": 352.0 }, "geometry": { "type": "Polygon", "coordinates": [ [ [ -110.923639689071805, 27.899294006725182 ], [ -110.91906721536354, 27.899294006725182 ], [ -110.91906721536354, 27.894899045879122 ], [ -110.923639689071805, 27.894899045879136 ], [ -110.923639689071805, 27.899294006725182 ] ] ] } },
{ "type": "Feature", "properties": { "difference_1990_2000": 113.0, "difference_1990_2010": 0.0, "difference_1990_2020": 139.0 }, "geometry": { "type": "Polygon", "coordinates": [ [ [ -110.923639689071805, 27.903689144205249 ], [ -110.91906721536354, 27.903689144205249 ], [ -110.91906721536354, 27.899294006725182 ], [ -110.923639689071805, 27.899294006725182 ], [ -110.923639689071805, 27.903689144205249 ] ] ] } },
{ "type": "Feature", "properties": { "difference_1990_2000": 446.0, "difference_1990_2010": 0.0, "difference_1990_2020": 706.0 }, "geometry": { "type": "Polygon", "coordinates": [ [ [ -110.923639689071805, 27.90808445836652 ], [ -110.91906721536354, 27.908084458366524 ], [ -110.91906721536354, 27.903689144205249 ], [ -110.923639689071805, 27.903689144205249 ], [ -110.923639689071805, 27.90808445836652 ] ] ] } },
{ "type": "Feature", "properties": { "difference_1990_2000": 55.0, "difference_1990_2010": 0.0, "difference_1990_2020": 347.0 }, "geometry": { "type": "Polygon", "coordinates": [ [ [ -110.923639689071805, 27.894899045879136 ], [ -110.91906721536354, 27.894899045879122 ], [ -110.91906721536354, 27.890504261620016 ], [ -110.923639689071805, 27.890504261620006 ], [ -110.923639689071805, 27.894899045879136 ] ] ] } },
{ "type": "Feature", "properties": { "difference_1990_2000": 198.0, "difference_1990_2010": 0.0, "difference_1990_2020": 354.0 }, "geometry": { "type": "Polygon", "coordinates": [ [ [ -110.923639689071805, 27.930063681040256 ], [ -110.91906721536354, 27.930063681040252 ], [ -110.91906721536354, 27.925667482765945 ], [ -110.923639689071805, 27.925667482765981 ], [ -110.923639689071805, 27.930063681040256 ] ] ] } },
{ "type": "Feature", "properties": { "difference_1990_2000": 203.0, "difference_1990_2010": 0.0, "difference_1990_2020": -96.0 }, "geometry": { "type": "Polygon", "coordinates": [ [ [ -110.923639689071805, 27.921271461408594 ], [ -110.91906721536354, 27.921271461408598 ], [ -110.91906721536354, 27.916875616921033 ], [ -110.923639689071805, 27.916875616921029 ], [ -110.923639689071805, 27.921271461408594 ] ] ] } },
{ "type": "Feature", "properties": { "difference_1990_2000": 218.0, "difference_1990_2010": 0.0, "difference_1990_2020": 394.0 }, "geometry": { "type": "Polygon", "coordinates": [ [ [ -110.923639689071805, 27.916875616921029 ], [ -110.91906721536354, 27.916875616921033 ], [ -110.91906721536354, 27.91247994925606 ], [ -110.923639689071805, 27.912479949256056 ], [ -110.923639689071805, 27.916875616921029 ] ] ] } },
{ "type": "Feature", "properties": { "difference_1990_2000": -78.0, "difference_1990_2010": 0.0, "difference_1990_2020": -73.0 }, "geometry": { "type": "Polygon", "coordinates": [ [ [ -110.914494741655247, 27.890504261620002 ], [ -110.909922267946953, 27.890504261620009 ], [ -110.909922267946953, 27.886109653900704 ], [ -110.914494741655247, 27.886109653900668 ], [ -110.914494741655247, 27.890504261620002 ] ] ] } },
{ "type": "Feature", "properties": { "difference_1990_2000": -380.0, "difference_1990_2010": 0.0, "difference_1990_2020": -506.0 }, "geometry": { "type": "Polygon", "coordinates": [ [ [ -110.914494741655247, 27.925667482765949 ], [ -110.909922267946953, 27.925667482765899 ], [ -110.909922267946953, 27.921271461408566 ], [ -110.914494741655247, 27.921271461408601 ], [ -110.914494741655247, 27.925667482765949 ] ] ] } },
{ "type": "Feature", "properties": { "difference_1990_2000": 402.0, "difference_1990_2010": 0.0, "difference_1990_2020": 859.0 }, "geometry": { "type": "Polygon", "coordinates": [ [ [ -110.914494741655247, 27.886109653900668 ], [ -110.909922267946953, 27.886109653900704 ], [ -110.909922267946953, 27.881715222674153 ], [ -110.914494741655247, 27.881715222674174 ], [ -110.914494741655247, 27.886109653900668 ] ] ] } },
{ "type": "Feature", "properties": { "difference_1990_2000": 345.0, "difference_1990_2010": 0.0, "difference_1990_2020": 935.0 }, "geometry": { "type": "Polygon", "coordinates": [ [ [ -110.914494741655247, 27.881715222674174 ], [ -110.909922267946953, 27.881715222674153 ], [ -110.909922267946953, 27.87732096789334 ], [ -110.914494741655247, 27.877320967893382 ], [ -110.914494741655247, 27.881715222674174 ] ] ] } },
{ "type": "Feature", "properties": { "difference_1990_2000": 77.0, "difference_1990_2010": 0.0, "difference_1990_2020": -464.0 }, "geometry": { "type": "Polygon", "coordinates": [ [ [ -110.914494741655247, 27.8773209678934 ], [ -110.909922267946953, 27.877320967893379 ], [ -110.909922267946953, 27.872926889511167 ], [ -110.914494741655247, 27.872926889511167 ], [ -110.914494741655247, 27.8773209678934 ] ] ] } },
{ "type": "Feature", "properties": { "difference_1990_2000": -42.0, "difference_1990_2010": 0.0, "difference_1990_2020": -325.0 }, "geometry": { "type": "Polygon", "coordinates": [ [ [ -110.914494741655247, 27.91247994925606 ], [ -110.909922267946953, 27.912479949256056 ], [ -110.909922267946953, 27.908084458366481 ], [ -110.914494741655247, 27.908084458366528 ], [ -110.914494741655247, 27.91247994925606 ] ] ] } },
{ "type": "Feature", "properties": { "difference_1990_2000": -31.0, "difference_1990_2010": 0.0, "difference_1990_2020": -92.0 }, "geometry": { "type": "Polygon", "coordinates": [ [ [ -110.914494741655247, 27.899294006725182 ], [ -110.909922267946953, 27.899294006725182 ], [ -110.909922267946953, 27.894899045879118 ], [ -110.914494741655247, 27.894899045879146 ], [ -110.914494741655247, 27.899294006725182 ] ] ] } },
{ "type": "Feature", "properties": { "difference_1990_2000": 113.0, "difference_1990_2010": 0.0, "difference_1990_2020": -192.0 }, "geometry": { "type": "Polygon", "coordinates": [ [ [ -110.914494741655247, 27.903689144205249 ], [ -110.909922267946953, 27.903689144205249 ], [ -110.909922267946953, 27.899294006725182 ], [ -110.914494741655247, 27.899294006725182 ], [ -110.914494741655247, 27.903689144205249 ] ] ] } },
{ "type": "Feature", "properties": { "difference_1990_2000": -197.0, "difference_1990_2010": 0.0, "difference_1990_2020": -595.0 }, "geometry": { "type": "Polygon", "coordinates": [ [ [ -110.914494741655247, 27.908084458366528 ], [ -110.909922267946953, 27.908084458366481 ], [ -110.909922267946953, 27.903689144205249 ], [ -110.914494741655247, 27.903689144205249 ], [ -110.914494741655247, 27.908084458366528 ] ] ] } },
{ "type": "Feature", "properties": { "difference_1990_2000": -67.0, "difference_1990_2010": 0.0, "difference_1990_2020": -111.0 }, "geometry": { "type": "Polygon", "coordinates": [ [ [ -110.914494741655247, 27.894899045879146 ], [ -110.909922267946953, 27.894899045879118 ], [ -110.909922267946953, 27.890504261620009 ], [ -110.914494741655247, 27.890504261620002 ], [ -110.914494741655247, 27.894899045879146 ] ] ] } },
{ "type": "Feature", "properties": { "difference_1990_2000": 14.0, "difference_1990_2010": 0.0, "difference_1990_2020": -113.0 }, "geometry": { "type": "Polygon", "coordinates": [ [ [ -110.914494741655247, 27.872926889511167 ], [ -110.909922267946953, 27.872926889511167 ], [ -110.909922267946953, 27.86853298748056 ], [ -110.914494741655247, 27.868532987480563 ], [ -110.914494741655247, 27.872926889511167 ] ] ] } },
{ "type": "Feature", "properties": { "difference_1990_2000": -204.0, "difference_1990_2010": 0.0, "difference_1990_2020": -286.0 }, "geometry": { "type": "Polygon", "coordinates": [ [ [ -110.914494741655247, 27.930063681040249 ], [ -110.909922267946953, 27.930063681040231 ], [ -110.909922267946953, 27.925667482765949 ], [ -110.914494741655247, 27.925667482765981 ], [ -110.914494741655247, 27.930063681040249 ] ] ] } },
{ "type": "Feature", "properties": { "difference_1990_2000": -163.0, "difference_1990_2010": 0.0, "difference_1990_2020": -468.0 }, "geometry": { "type": "Polygon", "coordinates": [ [ [ -110.914494741655247, 27.921271461408601 ], [ -110.909922267946953, 27.921271461408566 ], [ -110.909922267946953, 27.916875616921001 ], [ -110.914494741655247, 27.916875616921029 ], [ -110.914494741655247, 27.921271461408601 ] ] ] } },
{ "type": "Feature", "properties": { "difference_1990_2000": -347.0, "difference_1990_2010": 0.0, "difference_1990_2020": -831.0 }, "geometry": { "type": "Polygon", "coordinates": [ [ [ -110.914494741655247, 27.916875616921029 ], [ -110.909922267946953, 27.916875616921001 ], [ -110.909922267946953, 27.912479949256056 ], [ -110.914494741655247, 27.91247994925606 ], [ -110.914494741655247, 27.916875616921029 ] ] ] } },
{ "type": "Feature", "properties": { "difference_1990_2000": 221.0, "difference_1990_2010": 0.0, "difference_1990_2020": 252.0 }, "geometry": { "type": "Polygon", "coordinates": [ [ [ -110.905349794238674, 27.890504261620009 ], [ -110.900777320530395, 27.890504261620006 ], [ -110.900777320530395, 27.886109653900643 ], [ -110.905349794238674, 27.886109653900665 ], [ -110.905349794238674, 27.890504261620009 ] ] ] } },
{ "type": "Feature", "properties": { "difference_1990_2000": -211.0, "difference_1990_2010": 0.0, "difference_1990_2020": -744.0 }, "geometry": { "type": "Polygon", "coordinates": [ [ [ -110.905349794238674, 27.925667482765949 ], [ -110.900777320530395, 27.925667482765945 ], [ -110.900777320530395, 27.921271461408594 ], [ -110.905349794238674, 27.921271461408566 ], [ -110.905349794238674, 27.925667482765949 ] ] ] } },
{ "type": "Feature", "properties": { "difference_1990_2000": 25.0, "difference_1990_2010": 0.0, "difference_1990_2020": 124.0 }, "geometry": { "type": "Polygon", "coordinates": [ [ [ -110.905349794238674, 27.881715222674153 ], [ -110.900777320530395, 27.881715222674149 ], [ -110.900777320530395, 27.87732096789334 ], [ -110.905349794238674, 27.87732096789334 ], [ -110.905349794238674, 27.881715222674153 ] ] ] } },
{ "type": "Feature", "properties": { "difference_1990_2000": 156.0, "difference_1990_2010": 0.0, "difference_1990_2020": 220.0 }, "geometry": { "type": "Polygon", "coordinates": [ [ [ -110.905349794238674, 27.886109653900665 ], [ -110.900777320530395, 27.886109653900643 ], [ -110.900777320530395, 27.881715222674149 ], [ -110.905349794238674, 27.881715222674153 ], [ -110.905349794238674, 27.886109653900665 ] ] ] } },
{ "type": "Feature", "properties": { "difference_1990_2000": -58.0, "difference_1990_2010": 0.0, "difference_1990_2020": -723.0 }, "geometry": { "type": "Polygon", "coordinates": [ [ [ -110.905349794238674, 27.912479949256021 ], [ -110.900777320530395, 27.912479949256078 ], [ -110.900777320530395, 27.90808445836651 ], [ -110.905349794238674, 27.908084458366506 ], [ -110.905349794238674, 27.912479949256021 ] ] ] } },
{ "type": "Feature", "properties": { "difference_1990_2000": 0.0, "difference_1990_2010": 0.0, "difference_1990_2020": 0.0 }, "geometry": { "type": "Polygon", "coordinates": [ [ [ -110.905349794238674, 27.877320967893375 ], [ -110.900777320530395, 27.877320967893375 ], [ -110.900777320530395, 27.872926889511191 ], [ -110.905349794238674, 27.872926889511163 ], [ -110.905349794238674, 27.877320967893375 ] ] ] } },
{ "type": "Feature", "properties": { "difference_1990_2000": -2.0, "difference_1990_2010": 0.0, "difference_1990_2020": -8.0 }, "geometry": { "type": "Polygon", "coordinates": [ [ [ -110.905349794238674, 27.938856608528607 ], [ -110.900777320530395, 27.938856608528607 ], [ -110.900777320530395, 27.934460056278766 ], [ -110.905349794238674, 27.93446005627877 ], [ -110.905349794238674, 27.938856608528607 ] ] ] } },
{ "type": "Feature", "properties": { "difference_1990_2000": -5.0, "difference_1990_2010": 0.0, "difference_1990_2020": -5.0 }, "geometry": { "type": "Polygon", "coordinates": [ [ [ -110.905349794238674, 27.899294006725182 ], [ -110.900777320530395, 27.899294006725182 ], [ -110.900777320530395, 27.894899045879079 ], [ -110.905349794238674, 27.894899045879118 ], [ -110.905349794238674, 27.899294006725182 ] ] ] } },
{ "type": "Feature", "properties": { "difference_1990_2000": -56.0, "difference_1990_2010": 0.0, "difference_1990_2020": -50.0 }, "geometry": { "type": "Polygon", "coordinates": [ [ [ -110.905349794238674, 27.903689144205249 ], [ -110.900777320530395, 27.903689144205249 ], [ -110.900777320530395, 27.899294006725182 ], [ -110.905349794238674, 27.899294006725182 ], [ -110.905349794238674, 27.903689144205249 ] ] ] } },
{ "type": "Feature", "properties": { "difference_1990_2000": -98.0, "difference_1990_2010": 0.0, "difference_1990_2020": -151.0 }, "geometry": { "type": "Polygon", "coordinates": [ [ [ -110.905349794238674, 27.908084458366506 ], [ -110.900777320530395, 27.90808445836651 ], [ -110.900777320530395, 27.903689144205249 ], [ -110.905349794238674, 27.903689144205249 ], [ -110.905349794238674, 27.908084458366506 ] ] ] } },
{ "type": "Feature", "properties": { "difference_1990_2000": 3.0, "difference_1990_2010": 0.0, "difference_1990_2020": -132.0 }, "geometry": { "type": "Polygon", "coordinates": [ [ [ -110.905349794238674, 27.93446005627877 ], [ -110.900777320530395, 27.934460056278766 ], [ -110.900777320530395, 27.930063681040252 ], [ -110.905349794238674, 27.930063681040249 ], [ -110.905349794238674, 27.93446005627877 ] ] ] } },
{ "type": "Feature", "properties": { "difference_1990_2000": 56.0, "difference_1990_2010": 0.0, "difference_1990_2020": 66.0 }, "geometry": { "type": "Polygon", "coordinates": [ [ [ -110.905349794238674, 27.894899045879118 ], [ -110.900777320530395, 27.894899045879079 ], [ -110.900777320530395, 27.890504261620006 ], [ -110.905349794238674, 27.890504261620009 ], [ -110.905349794238674, 27.894899045879118 ] ] ] } },
{ "type": "Feature", "properties": { "difference_1990_2000": 243.0, "difference_1990_2010": 0.0, "difference_1990_2020": -49.0 }, "geometry": { "type": "Polygon", "coordinates": [ [ [ -110.905349794238674, 27.930063681040249 ], [ -110.900777320530395, 27.930063681040252 ], [ -110.900777320530395, 27.925667482765949 ], [ -110.905349794238674, 27.925667482765949 ], [ -110.905349794238674, 27.930063681040249 ] ] ] } },
{ "type": "Feature", "properties": { "difference_1990_2000": -97.0, "difference_1990_2010": 0.0, "difference_1990_2020": -714.0 }, "geometry": { "type": "Polygon", "coordinates": [ [ [ -110.905349794238674, 27.921271461408566 ], [ -110.900777320530395, 27.921271461408594 ], [ -110.900777320530395, 27.916875616921033 ], [ -110.905349794238674, 27.916875616921029 ], [ -110.905349794238674, 27.921271461408566 ] ] ] } },
{ "type": "Feature", "properties": { "difference_1990_2000": 28.0, "difference_1990_2010": 0.0, "difference_1990_2020": -792.0 }, "geometry": { "type": "Polygon", "coordinates": [ [ [ -110.905349794238674, 27.916875616921029 ], [ -110.900777320530395, 27.916875616921033 ], [ -110.900777320530395, 27.912479949256078 ], [ -110.905349794238674, 27.912479949256021 ], [ -110.905349794238674, 27.916875616921029 ] ] ] } },
{ "type": "Feature", "properties": { "difference_1990_2000": 214.0, "difference_1990_2010": 0.0, "difference_1990_2020": 210.0 }, "geometry": { "type": "Polygon", "coordinates": [ [ [ -110.896204846822144, 27.890504261620002 ], [ -110.891632373113879, 27.890504261620006 ], [ -110.891632373113879, 27.886109653900665 ], [ -110.896204846822144, 27.886109653900704 ], [ -110.896204846822144, 27.890504261620002 ] ] ] } },
{ "type": "Feature", "properties": { "difference_1990_2000": -256.0, "difference_1990_2010": 0.0, "difference_1990_2020": -673.0 }, "geometry": { "type": "Polygon", "coordinates": [ [ [ -110.896204846822144, 27.925667482765949 ], [ -110.891632373113879, 27.925667482765945 ], [ -110.891632373113879, 27.921271461408569 ], [ -110.896204846822144, 27.921271461408594 ], [ -110.896204846822144, 27.925667482765949 ] ] ] } },
{ "type": "Feature", "properties": { "difference_1990_2000": 7.0, "difference_1990_2010": 0.0, "difference_1990_2020": 5.0 }, "geometry": { "type": "Polygon", "coordinates": [ [ [ -110.896204846822144, 27.881715222674174 ], [ -110.891632373113879, 27.881715222674149 ], [ -110.891632373113879, 27.87732096789334 ], [ -110.896204846822144, 27.877320967893379 ], [ -110.896204846822144, 27.881715222674174 ] ] ] } },
{ "type": "Feature", "properties": { "difference_1990_2000": 185.0, "difference_1990_2010": 0.0, "difference_1990_2020": 169.0 }, "geometry": { "type": "Polygon", "coordinates": [ [ [ -110.896204846822144, 27.886109653900704 ], [ -110.891632373113879, 27.886109653900665 ], [ -110.891632373113879, 27.881715222674149 ], [ -110.896204846822144, 27.881715222674174 ], [ -110.896204846822144, 27.886109653900704 ] ] ] } },
{ "type": "Feature", "properties": { "difference_1990_2000": -419.0, "difference_1990_2010": 0.0, "difference_1990_2020": -809.0 }, "geometry": { "type": "Polygon", "coordinates": [ [ [ -110.896204846822144, 27.912479949256085 ], [ -110.891632373113879, 27.912479949256081 ], [ -110.891632373113879, 27.90808445836651 ], [ -110.896204846822144, 27.908084458366513 ], [ -110.896204846822144, 27.912479949256085 ] ] ] } },
{ "type": "Feature", "properties": { "difference_1990_2000": -32.0, "difference_1990_2010": 0.0, "difference_1990_2020": -102.0 }, "geometry": { "type": "Polygon", "coordinates": [ [ [ -110.896204846822144, 27.938856608528589 ], [ -110.891632373113879, 27.93885660852861 ], [ -110.891632373113879, 27.934460056278738 ], [ -110.896204846822144, 27.93446005627877 ], [ -110.896204846822144, 27.938856608528589 ] ] ] } },
{ "type": "Feature", "properties": { "difference_1990_2000": 0.0, "difference_1990_2010": 0.0, "difference_1990_2020": 0.0 }, "geometry": { "type": "Polygon", "coordinates": [ [ [ -110.896204846822144, 27.899294006725182 ], [ -110.891632373113879, 27.899294006725185 ], [ -110.891632373113879, 27.894899045879118 ], [ -110.896204846822144, 27.894899045879114 ], [ -110.896204846822144, 27.899294006725182 ] ] ] } },
{ "type": "Feature", "properties": { "difference_1990_2000": 0.0, "difference_1990_2010": 0.0, "difference_1990_2020": 0.0 }, "geometry": { "type": "Polygon", "coordinates": [ [ [ -110.896204846822144, 27.903689144205249 ], [ -110.891632373113879, 27.903689144205252 ], [ -110.891632373113879, 27.899294006725185 ], [ -110.896204846822144, 27.899294006725182 ], [ -110.896204846822144, 27.903689144205249 ] ] ] } },
{ "type": "Feature", "properties": { "difference_1990_2000": -71.0, "difference_1990_2010": 0.0, "difference_1990_2020": -137.0 }, "geometry": { "type": "Polygon", "coordinates": [ [ [ -110.896204846822144, 27.908084458366513 ], [ -110.891632373113879, 27.90808445836651 ], [ -110.891632373113879, 27.903689144205252 ], [ -110.896204846822144, 27.903689144205249 ], [ -110.896204846822144, 27.908084458366513 ] ] ] } },
{ "type": "Feature", "properties": { "difference_1990_2000": -58.0, "difference_1990_2010": 0.0, "difference_1990_2020": -187.0 }, "geometry": { "type": "Polygon", "coordinates": [ [ [ -110.896204846822144, 27.93446005627877 ], [ -110.891632373113879, 27.934460056278738 ], [ -110.891632373113879, 27.930063681040259 ], [ -110.896204846822144, 27.930063681040256 ], [ -110.896204846822144, 27.93446005627877 ] ] ] } },
{ "type": "Feature", "properties": { "difference_1990_2000": 50.0, "difference_1990_2010": 0.0, "difference_1990_2020": 88.0 }, "geometry": { "type": "Polygon", "coordinates": [ [ [ -110.896204846822144, 27.894899045879114 ], [ -110.891632373113879, 27.894899045879118 ], [ -110.891632373113879, 27.890504261620006 ], [ -110.896204846822144, 27.890504261620002 ], [ -110.896204846822144, 27.894899045879114 ] ] ] } },
{ "type": "Feature", "properties": { "difference_1990_2000": -112.0, "difference_1990_2010": 0.0, "difference_1990_2020": -333.0 }, "geometry": { "type": "Polygon", "coordinates": [ [ [ -110.896204846822144, 27.930063681040256 ], [ -110.891632373113879, 27.930063681040259 ], [ -110.891632373113879, 27.925667482765949 ], [ -110.896204846822144, 27.925667482765949 ], [ -110.896204846822144, 27.930063681040256 ] ] ] } },
{ "type": "Feature", "properties": { "difference_1990_2000": -254.0, "difference_1990_2010": 0.0, "difference_1990_2020": -756.0 }, "geometry": { "type": "Polygon", "coordinates": [ [ [ -110.896204846822144, 27.921271461408594 ], [ -110.891632373113879, 27.921271461408569 ], [ -110.891632373113879, 27.916875616921033 ], [ -110.896204846822144, 27.916875616921033 ], [ -110.896204846822144, 27.921271461408594 ] ] ] } },
{ "type": "Feature", "properties": { "difference_1990_2000": -514.0, "difference_1990_2010": 0.0, "difference_1990_2020": -1004.0 }, "geometry": { "type": "Polygon", "coordinates": [ [ [ -110.896204846822144, 27.916875616921033 ], [ -110.891632373113879, 27.916875616921033 ], [ -110.891632373113879, 27.912479949256081 ], [ -110.896204846822144, 27.912479949256085 ], [ -110.896204846822144, 27.916875616921033 ] ] ] } },
{ "type": "Feature", "properties": { "difference_1990_2000": -7.0, "difference_1990_2010": 0.0, "difference_1990_2020": -8.0 }, "geometry": { "type": "Polygon", "coordinates": [ [ [ -110.887059899405585, 27.890504261619999 ], [ -110.882487425697306, 27.890504261620006 ], [ -110.882487425697306, 27.886109653900643 ], [ -110.887059899405585, 27.886109653900665 ], [ -110.887059899405585, 27.890504261619999 ] ] ] } },
{ "type": "Feature", "properties": { "difference_1990_2000": -97.0, "difference_1990_2010": 0.0, "difference_1990_2020": -342.0 }, "geometry": { "type": "Polygon", "coordinates": [ [ [ -110.887059899405585, 27.925667482765949 ], [ -110.882487425697306, 27.925667482765949 ], [ -110.882487425697306, 27.921271461408594 ], [ -110.887059899405585, 27.921271461408601 ], [ -110.887059899405585, 27.925667482765949 ] ] ] } },
{ "type": "Feature", "properties": { "difference_1990_2000": -2.0, "difference_1990_2010": 0.0, "difference_1990_2020": -30.0 }, "geometry": { "type": "Polygon", "coordinates": [ [ [ -110.887059899405585, 27.943253337837117 ], [ -110.882487425697306, 27.943253337837117 ], [ -110.882487425697306, 27.938856608528607 ], [ -110.887059899405585, 27.938856608528614 ], [ -110.887059899405585, 27.943253337837117 ] ] ] } },
{ "type": "Feature", "properties": { "difference_1990_2000": -39.0, "difference_1990_2010": 0.0, "difference_1990_2020": -174.0 }, "geometry": { "type": "Polygon", "coordinates": [ [ [ -110.887059899405585, 27.938856608528614 ], [ -110.882487425697306, 27.938856608528607 ], [ -110.882487425697306, 27.934460056278766 ], [ -110.887059899405585, 27.93446005627877 ], [ -110.887059899405585, 27.938856608528614 ] ] ] } },
{ "type": "Feature", "properties": { "difference_1990_2000": -8.0, "difference_1990_2010": 0.0, "difference_1990_2020": -9.0 }, "geometry": { "type": "Polygon", "coordinates": [ [ [ -110.887059899405585, 27.899294006725182 ], [ -110.882487425697306, 27.899294006725178 ], [ -110.882487425697306, 27.894899045879118 ], [ -110.887059899405585, 27.894899045879143 ], [ -110.887059899405585, 27.899294006725182 ] ] ] } },
{ "type": "Feature", "properties": { "difference_1990_2000": 1.0, "difference_1990_2010": 0.0, "difference_1990_2020": 0.0 }, "geometry": { "type": "Polygon", "coordinates": [ [ [ -110.887059899405585, 27.903689144205249 ], [ -110.882487425697306, 27.903689144205249 ], [ -110.882487425697306, 27.899294006725178 ], [ -110.887059899405585, 27.899294006725182 ], [ -110.887059899405585, 27.903689144205249 ] ] ] } },
{ "type": "Feature", "properties": { "difference_1990_2000": 1.0, "difference_1990_2010": 0.0, "difference_1990_2020": 0.0 }, "geometry": { "type": "Polygon", "coordinates": [ [ [ -110.887059899405585, 27.908084458366513 ], [ -110.882487425697306, 27.90808445836651 ], [ -110.882487425697306, 27.903689144205249 ], [ -110.887059899405585, 27.903689144205249 ], [ -110.887059899405585, 27.908084458366513 ] ] ] } },
{ "type": "Feature", "properties": { "difference_1990_2000": -79.0, "difference_1990_2010": 0.0, "difference_1990_2020": -305.0 }, "geometry": { "type": "Polygon", "coordinates": [ [ [ -110.887059899405585, 27.93446005627877 ], [ -110.882487425697306, 27.934460056278766 ], [ -110.882487425697306, 27.930063681040252 ], [ -110.887059899405585, 27.930063681040252 ], [ -110.887059899405585, 27.93446005627877 ] ] ] } },
{ "type": "Feature", "properties": { "difference_1990_2000": -51.0, "difference_1990_2010": 0.0, "difference_1990_2020": -56.0 }, "geometry": { "type": "Polygon", "coordinates": [ [ [ -110.887059899405585, 27.894899045879143 ], [ -110.882487425697306, 27.894899045879118 ], [ -110.882487425697306, 27.890504261620006 ], [ -110.887059899405585, 27.890504261619999 ], [ -110.887059899405585, 27.894899045879143 ] ] ] } },
{ "type": "Feature", "properties": { "difference_1990_2000": -121.0, "difference_1990_2010": 0.0, "difference_1990_2020": -454.0 }, "geometry": { "type": "Polygon", "coordinates": [ [ [ -110.887059899405585, 27.930063681040252 ], [ -110.882487425697306, 27.930063681040252 ], [ -110.882487425697306, 27.925667482765949 ], [ -110.887059899405585, 27.925667482765981 ], [ -110.887059899405585, 27.930063681040252 ] ] ] } },
{ "type": "Feature", "properties": { "difference_1990_2000": -5.0, "difference_1990_2010": 0.0, "difference_1990_2020": -19.0 }, "geometry": { "type": "Polygon", "coordinates": [ [ [ -110.887059899405585, 27.921271461408601 ], [ -110.882487425697306, 27.921271461408594 ], [ -110.882487425697306, 27.916875616921033 ], [ -110.887059899405585, 27.916875616921033 ], [ -110.887059899405585, 27.921271461408601 ] ] ] } },
{ "type": "Feature", "properties": { "difference_1990_2000": 2.0, "difference_1990_2010": 0.0, "difference_1990_2020": 2.0 }, "geometry": { "type": "Polygon", "coordinates": [ [ [ -110.877914951989041, 27.947650244251484 ], [ -110.873342478280762, 27.947650244251438 ], [ -110.873342478280762, 27.94325333783712 ], [ -110.877914951989041, 27.943253337837124 ], [ -110.877914951989041, 27.947650244251484 ] ] ] } },
{ "type": "Feature", "properties": { "difference_1990_2000": 81.0, "difference_1990_2010": 0.0, "difference_1990_2020": 83.0 }, "geometry": { "type": "Polygon", "coordinates": [ [ [ -110.877914951989041, 27.943253337837124 ], [ -110.873342478280762, 27.94325333783712 ], [ -110.873342478280762, 27.93885660852861 ], [ -110.877914951989041, 27.938856608528589 ], [ -110.877914951989041, 27.943253337837124 ] ] ] } },
{ "type": "Feature", "properties": { "difference_1990_2000": 60.0, "difference_1990_2010": 0.0, "difference_1990_2020": 24.0 }, "geometry": { "type": "Polygon", "coordinates": [ [ [ -110.877914951989041, 27.938856608528589 ], [ -110.873342478280762, 27.93885660852861 ], [ -110.873342478280762, 27.93446005627877 ], [ -110.877914951989041, 27.93446005627878 ], [ -110.877914951989041, 27.938856608528589 ] ] ] } },
{ "type": "Feature", "properties": { "difference_1990_2000": -24.0, "difference_1990_2010": 0.0, "difference_1990_2020": -26.0 }, "geometry": { "type": "Polygon", "coordinates": [ [ [ -110.877914951989041, 27.899294006725182 ], [ -110.873342478280762, 27.899294006725146 ], [ -110.873342478280762, 27.894899045879118 ], [ -110.877914951989041, 27.894899045879118 ], [ -110.877914951989041, 27.899294006725182 ] ] ] } },
{ "type": "Feature", "properties": { "difference_1990_2000": -2.0, "difference_1990_2010": 0.0, "difference_1990_2020": -2.0 }, "geometry": { "type": "Polygon", "coordinates": [ [ [ -110.877914951989041, 27.903689144205252 ], [ -110.873342478280762, 27.903689144205249 ], [ -110.873342478280762, 27.899294006725146 ], [ -110.877914951989041, 27.899294006725182 ], [ -110.877914951989041, 27.903689144205252 ] ] ] } },
{ "type": "Feature", "properties": { "difference_1990_2000": -124.0, "difference_1990_2010": 0.0, "difference_1990_2020": -446.0 }, "geometry": { "type": "Polygon", "coordinates": [ [ [ -110.877914951989041, 27.93446005627878 ], [ -110.873342478280762, 27.93446005627877 ], [ -110.873342478280762, 27.930063681040235 ], [ -110.877914951989041, 27.930063681040256 ], [ -110.877914951989041, 27.93446005627878 ] ] ] } },
{ "type": "Feature", "properties": { "difference_1990_2000": -425.0, "difference_1990_2010": 0.0, "difference_1990_2020": -1194.0 }, "geometry": { "type": "Polygon", "coordinates": [ [ [ -110.877914951989041, 27.930063681040256 ], [ -110.873342478280762, 27.930063681040235 ], [ -110.873342478280762, 27.925667482765949 ], [ -110.877914951989041, 27.925667482765949 ], [ -110.877914951989041, 27.930063681040256 ] ] ] } },
{ "type": "Feature", "properties": { "difference_1990_2000": 1.0, "difference_1990_2010": 0.0, "difference_1990_2020": -2.0 }, "geometry": { "type": "Polygon", "coordinates": [ [ [ -110.868770004572482, 27.938856608528589 ], [ -110.864197530864217, 27.93885660852861 ], [ -110.864197530864217, 27.934460056278777 ], [ -110.868770004572482, 27.934460056278763 ], [ -110.868770004572482, 27.938856608528589 ] ] ] } },
{ "type": "Feature", "properties": { "difference_1990_2000": -2.0, "difference_1990_2010": 0.0, "difference_1990_2020": -12.0 }, "geometry": { "type": "Polygon", "coordinates": [ [ [ -110.868770004572482, 27.934460056278763 ], [ -110.864197530864217, 27.934460056278777 ], [ -110.864197530864217, 27.930063681040252 ], [ -110.868770004572482, 27.930063681040235 ], [ -110.868770004572482, 27.934460056278763 ] ] ] } },
{ "type": "Feature", "properties": { "difference_1990_2000": -32.0, "difference_1990_2010": 0.0, "difference_1990_2020": -185.0 }, "geometry": { "type": "Polygon", "coordinates": [ [ [ -110.868770004572482, 27.930063681040235 ], [ -110.864197530864217, 27.930063681040252 ], [ -110.864197530864217, 27.925667482765984 ], [ -110.868770004572482, 27.925667482765949 ], [ -110.868770004572482, 27.930063681040235 ] ] ] } },
{ "type": "Feature", "properties": { "difference_1990_2000": 0.0, "difference_1990_2010": 0.0, "difference_1990_2020": 6.0 }, "geometry": { "type": "Polygon", "coordinates": [ [ [ -110.937357110196615, 27.903689144205206 ], [ -110.932784636488336, 27.903689144205249 ], [ -110.932784636488336, 27.899294006725185 ], [ -110.937357110196615, 27.899294006725182 ], [ -110.937357110196615, 27.903689144205206 ] ] ] } },
{ "type": "Feature", "properties": { "difference_1990_2000": 36.0, "difference_1990_2010": 0.0, "difference_1990_2020": 23.0 }, "geometry": { "type": "Polygon", "coordinates": [ [ [ -110.937357110196615, 27.90808445836651 ], [ -110.932784636488336, 27.908084458366513 ], [ -110.932784636488336, 27.903689144205249 ], [ -110.937357110196615, 27.903689144205206 ], [ -110.937357110196615, 27.90808445836651 ] ] ] } },
{ "type": "Feature", "properties": { "difference_1990_2000": 0.0, "difference_1990_2010": 0.0, "difference_1990_2020": 3.0 }, "geometry": { "type": "Polygon", "coordinates": [ [ [ -110.928212162780085, 27.890504261620006 ], [ -110.923639689071805, 27.890504261620006 ], [ -110.923639689071805, 27.886109653900665 ], [ -110.928212162780085, 27.886109653900661 ], [ -110.928212162780085, 27.890504261620006 ] ] ] } },
{ "type": "Feature", "properties": { "difference_1990_2000": 181.0, "difference_1990_2010": 0.0, "difference_1990_2020": 591.0 }, "geometry": { "type": "Polygon", "coordinates": [ [ [ -110.928212162780085, 27.925667482765949 ], [ -110.923639689071805, 27.925667482765949 ], [ -110.923639689071805, 27.921271461408594 ], [ -110.928212162780085, 27.921271461408598 ], [ -110.928212162780085, 27.925667482765949 ] ] ] } },
{ "type": "Feature", "properties": { "difference_1990_2000": 619.0, "difference_1990_2010": 0.0, "difference_1990_2020": 801.0 }, "geometry": { "type": "Polygon", "coordinates": [ [ [ -110.928212162780085, 27.912479949256081 ], [ -110.923639689071805, 27.912479949256056 ], [ -110.923639689071805, 27.90808445836652 ], [ -110.928212162780085, 27.90808445836651 ], [ -110.928212162780085, 27.912479949256081 ] ] ] } },
{ "type": "Feature", "properties": { "difference_1990_2000": 120.0, "difference_1990_2010": 0.0, "difference_1990_2020": 404.0 }, "geometry": { "type": "Polygon", "coordinates": [ [ [ -110.928212162780085, 27.899294006725182 ], [ -110.923639689071805, 27.899294006725182 ], [ -110.923639689071805, 27.894899045879136 ], [ -110.928212162780085, 27.894899045879118 ], [ -110.928212162780085, 27.899294006725182 ] ] ] } },
{ "type": "Feature", "properties": { "difference_1990_2000": 122.0, "difference_1990_2010": 0.0, "difference_1990_2020": 256.0 }, "geometry": { "type": "Polygon", "coordinates": [ [ [ -110.928212162780085, 27.903689144205245 ], [ -110.923639689071805, 27.903689144205249 ], [ -110.923639689071805, 27.899294006725182 ], [ -110.928212162780085, 27.899294006725182 ], [ -110.928212162780085, 27.903689144205245 ] ] ] } },
{ "type": "Feature", "properties": { "difference_1990_2000": 922.0, "difference_1990_2010": 0.0, "difference_1990_2020": 1239.0 }, "geometry": { "type": "Polygon", "coordinates": [ [ [ -110.928212162780085, 27.90808445836651 ], [ -110.923639689071805, 27.90808445836652 ], [ -110.923639689071805, 27.903689144205249 ], [ -110.928212162780085, 27.903689144205245 ], [ -110.928212162780085, 27.90808445836651 ] ] ] } },
{ "type": "Feature", "properties": { "difference_1990_2000": 55.0, "difference_1990_2010": 0.0, "difference_1990_2020": 258.0 }, "geometry": { "type": "Polygon", "coordinates": [ [ [ -110.928212162780085, 27.894899045879118 ], [ -110.923639689071805, 27.894899045879136 ], [ -110.923639689071805, 27.890504261620006 ], [ -110.928212162780085, 27.890504261620006 ], [ -110.928212162780085, 27.894899045879118 ] ] ] } },
{ "type": "Feature", "properties": { "difference_1990_2000": 74.0, "difference_1990_2010": 0.0, "difference_1990_2020": 163.0 }, "geometry": { "type": "Polygon", "coordinates": [ [ [ -110.928212162780085, 27.921271461408598 ], [ -110.923639689071805, 27.921271461408594 ], [ -110.923639689071805, 27.916875616921029 ], [ -110.928212162780085, 27.916875616921033 ], [ -110.928212162780085, 27.921271461408598 ] ] ] } },
{ "type": "Feature", "properties": { "difference_1990_2000": 184.0, "difference_1990_2010": 0.0, "difference_1990_2020": 332.0 }, "geometry": { "type": "Polygon", "coordinates": [ [ [ -110.928212162780085, 27.916875616921033 ], [ -110.923639689071805, 27.916875616921029 ], [ -110.923639689071805, 27.912479949256056 ], [ -110.928212162780085, 27.912479949256081 ], [ -110.928212162780085, 27.916875616921033 ] ] ] } },
{ "type": "Feature", "properties": { "difference_1990_2000": -69.0, "difference_1990_2010": 0.0, "difference_1990_2020": 32.0 }, "geometry": { "type": "Polygon", "coordinates": [ [ [ -110.91906721536354, 27.890504261620016 ], [ -110.914494741655247, 27.890504261620002 ], [ -110.914494741655247, 27.886109653900668 ], [ -110.91906721536354, 27.886109653900657 ], [ -110.91906721536354, 27.890504261620016 ] ] ] } },
{ "type": "Feature", "properties": { "difference_1990_2000": -7.0, "difference_1990_2010": 0.0, "difference_1990_2020": -244.0 }, "geometry": { "type": "Polygon", "coordinates": [ [ [ -110.91906721536354, 27.925667482765945 ], [ -110.914494741655247, 27.925667482765949 ], [ -110.914494741655247, 27.921271461408601 ], [ -110.91906721536354, 27.921271461408598 ], [ -110.91906721536354, 27.925667482765945 ] ] ] } },
{ "type": "Feature", "properties": { "difference_1990_2000": 6.0, "difference_1990_2010": 0.0, "difference_1990_2020": 98.0 }, "geometry": { "type": "Polygon", "coordinates": [ [ [ -110.91906721536354, 27.886109653900657 ], [ -110.914494741655247, 27.886109653900668 ], [ -110.914494741655247, 27.881715222674174 ], [ -110.91906721536354, 27.881715222674178 ], [ -110.91906721536354, 27.886109653900657 ] ] ] } },
{ "type": "Feature", "properties": { "difference_1990_2000": 1.0, "difference_1990_2010": 0.0, "difference_1990_2020": 1063.0 }, "geometry": { "type": "Polygon", "coordinates": [ [ [ -110.91906721536354, 27.881715222674178 ], [ -110.914494741655247, 27.881715222674174 ], [ -110.914494741655247, 27.877320967893382 ], [ -110.91906721536354, 27.877320967893343 ], [ -110.91906721536354, 27.881715222674178 ] ] ] } },
{ "type": "Feature", "properties": { "difference_1990_2000": 1.0, "difference_1990_2010": 0.0, "difference_1990_2020": 238.0 }, "geometry": { "type": "Polygon", "coordinates": [ [ [ -110.91906721536354, 27.877320967893379 ], [ -110.914494741655247, 27.8773209678934 ], [ -110.914494741655247, 27.872926889511167 ], [ -110.91906721536354, 27.872926889511167 ], [ -110.91906721536354, 27.877320967893379 ] ] ] } },
{ "type": "Feature", "properties": { "difference_1990_2000": 220.0, "difference_1990_2010": 0.0, "difference_1990_2020": 397.0 }, "geometry": { "type": "Polygon", "coordinates": [ [ [ -110.91906721536354, 27.91247994925606 ], [ -110.914494741655247, 27.91247994925606 ], [ -110.914494741655247, 27.908084458366528 ], [ -110.91906721536354, 27.908084458366524 ], [ -110.91906721536354, 27.91247994925606 ] ] ] } },
{ "type": "Feature", "properties": { "difference_1990_2000": 410.0, "difference_1990_2010": 0.0, "difference_1990_2020": 226.0 }, "geometry": { "type": "Polygon", "coordinates": [ [ [ -110.91906721536354, 27.899294006725182 ], [ -110.914494741655247, 27.899294006725182 ], [ -110.914494741655247, 27.894899045879146 ], [ -110.91906721536354, 27.894899045879122 ], [ -110.91906721536354, 27.899294006725182 ] ] ] } },
{ "type": "Feature", "properties": { "difference_1990_2000": 388.0, "difference_1990_2010": 0.0, "difference_1990_2020": 227.0 }, "geometry": { "type": "Polygon", "coordinates": [ [ [ -110.91906721536354, 27.903689144205249 ], [ -110.914494741655247, 27.903689144205249 ], [ -110.914494741655247, 27.899294006725182 ], [ -110.91906721536354, 27.899294006725182 ], [ -110.91906721536354, 27.903689144205249 ] ] ] } },
{ "type": "Feature", "properties": { "difference_1990_2000": -14.0, "difference_1990_2010": 0.0, "difference_1990_2020": -167.0 }, "geometry": { "type": "Polygon", "coordinates": [ [ [ -110.91906721536354, 27.908084458366524 ], [ -110.914494741655247, 27.908084458366528 ], [ -110.914494741655247, 27.903689144205249 ], [ -110.91906721536354, 27.903689144205249 ], [ -110.91906721536354, 27.908084458366524 ] ] ] } },
{ "type": "Feature", "properties": { "difference_1990_2000": -118.0, "difference_1990_2010": 0.0, "difference_1990_2020": 60.0 }, "geometry": { "type": "Polygon", "coordinates": [ [ [ -110.91906721536354, 27.894899045879122 ], [ -110.914494741655247, 27.894899045879146 ], [ -110.914494741655247, 27.890504261620002 ], [ -110.91906721536354, 27.890504261620016 ], [ -110.91906721536354, 27.894899045879122 ] ] ] } },
{ "type": "Feature", "properties": { "difference_1990_2000": 1.0, "difference_1990_2010": 0.0, "difference_1990_2020": -93.0 }, "geometry": { "type": "Polygon", "coordinates": [ [ [ -110.91906721536354, 27.872926889511167 ], [ -110.914494741655247, 27.872926889511167 ], [ -110.914494741655247, 27.868532987480563 ], [ -110.91906721536354, 27.86853298748056 ], [ -110.91906721536354, 27.872926889511167 ] ] ] } },
{ "type": "Feature", "properties": { "difference_1990_2000": -10.0, "difference_1990_2010": 0.0, "difference_1990_2020": 34.0 }, "geometry": { "type": "Polygon", "coordinates": [ [ [ -110.91906721536354, 27.930063681040252 ], [ -110.914494741655247, 27.930063681040249 ], [ -110.914494741655247, 27.925667482765981 ], [ -110.91906721536354, 27.925667482765945 ], [ -110.91906721536354, 27.930063681040252 ] ] ] } },
{ "type": "Feature", "properties": { "difference_1990_2000": -119.0, "difference_1990_2010": 0.0, "difference_1990_2020": -469.0 }, "geometry": { "type": "Polygon", "coordinates": [ [ [ -110.91906721536354, 27.921271461408598 ], [ -110.914494741655247, 27.921271461408601 ], [ -110.914494741655247, 27.916875616921029 ], [ -110.91906721536354, 27.916875616921033 ], [ -110.91906721536354, 27.921271461408598 ] ] ] } },
{ "type": "Feature", "properties": { "difference_1990_2000": -66.0, "difference_1990_2010": 0.0, "difference_1990_2020": -129.0 }, "geometry": { "type": "Polygon", "coordinates": [ [ [ -110.91906721536354, 27.916875616921033 ], [ -110.914494741655247, 27.916875616921029 ], [ -110.914494741655247, 27.91247994925606 ], [ -110.91906721536354, 27.91247994925606 ], [ -110.91906721536354, 27.916875616921033 ] ] ] } },
{ "type": "Feature", "properties": { "difference_1990_2000": -104.0, "difference_1990_2010": 0.0, "difference_1990_2020": -402.0 }, "geometry": { "type": "Polygon", "coordinates": [ [ [ -110.909922267946953, 27.925667482765899 ], [ -110.905349794238674, 27.925667482765949 ], [ -110.905349794238674, 27.921271461408566 ], [ -110.909922267946953, 27.921271461408566 ], [ -110.909922267946953, 27.925667482765899 ] ] ] } },
{ "type": "Feature", "properties": { "difference_1990_2000": 124.0, "difference_1990_2010": 0.0, "difference_1990_2020": 124.0 }, "geometry": { "type": "Polygon", "coordinates": [ [ [ -110.909922267946953, 27.890504261620009 ], [ -110.905349794238674, 27.890504261620009 ], [ -110.905349794238674, 27.886109653900665 ], [ -110.909922267946953, 27.886109653900704 ], [ -110.909922267946953, 27.890504261620009 ] ] ] } },
{ "type": "Feature", "properties": { "difference_1990_2000": 383.0, "difference_1990_2010": 0.0, "difference_1990_2020": 515.0 }, "geometry": { "type": "Polygon", "coordinates": [ [ [ -110.909922267946953, 27.881715222674153 ], [ -110.905349794238674, 27.881715222674153 ], [ -110.905349794238674, 27.87732096789334 ], [ -110.909922267946953, 27.87732096789334 ], [ -110.909922267946953, 27.881715222674153 ] ] ] } },
{ "type": "Feature", "properties": { "difference_1990_2000": 462.0, "difference_1990_2010": 0.0, "difference_1990_2020": 602.0 }, "geometry": { "type": "Polygon", "coordinates": [ [ [ -110.909922267946953, 27.886109653900704 ], [ -110.905349794238674, 27.886109653900665 ], [ -110.905349794238674, 27.881715222674153 ], [ -110.909922267946953, 27.881715222674153 ], [ -110.909922267946953, 27.886109653900704 ] ] ] } },
{ "type": "Feature", "properties": { "difference_1990_2000": 13.0, "difference_1990_2010": 0.0, "difference_1990_2020": -59.0 }, "geometry": { "type": "Polygon", "coordinates": [ [ [ -110.909922267946953, 27.877320967893379 ], [ -110.905349794238674, 27.877320967893375 ], [ -110.905349794238674, 27.872926889511163 ], [ -110.909922267946953, 27.872926889511167 ], [ -110.909922267946953, 27.877320967893379 ] ] ] } },
{ "type": "Feature", "properties": { "difference_1990_2000": -271.0, "difference_1990_2010": 0.0, "difference_1990_2020": -831.0 }, "geometry": { "type": "Polygon", "coordinates": [ [ [ -110.909922267946953, 27.912479949256056 ], [ -110.905349794238674, 27.912479949256021 ], [ -110.905349794238674, 27.908084458366506 ], [ -110.909922267946953, 27.908084458366481 ], [ -110.909922267946953, 27.912479949256056 ] ] ] } },
{ "type": "Feature", "properties": { "difference_1990_2000": -53.0, "difference_1990_2010": 0.0, "difference_1990_2020": -53.0 }, "geometry": { "type": "Polygon", "coordinates": [ [ [ -110.909922267946953, 27.899294006725182 ], [ -110.905349794238674, 27.899294006725182 ], [ -110.905349794238674, 27.894899045879118 ], [ -110.909922267946953, 27.894899045879118 ], [ -110.909922267946953, 27.899294006725182 ] ] ] } },
{ "type": "Feature", "properties": { "difference_1990_2000": -98.0, "difference_1990_2010": 0.0, "difference_1990_2020": -154.0 }, "geometry": { "type": "Polygon", "coordinates": [ [ [ -110.909922267946953, 27.903689144205249 ], [ -110.905349794238674, 27.903689144205249 ], [ -110.905349794238674, 27.899294006725182 ], [ -110.909922267946953, 27.899294006725182 ], [ -110.909922267946953, 27.903689144205249 ] ] ] } },
{ "type": "Feature", "properties": { "difference_1990_2000": -283.0, "difference_1990_2010": 0.0, "difference_1990_2020": -683.0 }, "geometry": { "type": "Polygon", "coordinates": [ [ [ -110.909922267946953, 27.908084458366481 ], [ -110.905349794238674, 27.908084458366506 ], [ -110.905349794238674, 27.903689144205249 ], [ -110.909922267946953, 27.903689144205249 ], [ -110.909922267946953, 27.908084458366481 ] ] ] } },
{ "type": "Feature", "properties": { "difference_1990_2000": 14.0, "difference_1990_2010": 0.0, "difference_1990_2020": -85.0 }, "geometry": { "type": "Polygon", "coordinates": [ [ [ -110.909922267946953, 27.934460056278766 ], [ -110.905349794238674, 27.93446005627877 ], [ -110.905349794238674, 27.930063681040249 ], [ -110.909922267946953, 27.930063681040231 ], [ -110.909922267946953, 27.934460056278766 ] ] ] } },
{ "type": "Feature", "properties": { "difference_1990_2000": -2.0, "difference_1990_2010": 0.0, "difference_1990_2020": -5.0 }, "geometry": { "type": "Polygon", "coordinates": [ [ [ -110.909922267946953, 27.894899045879118 ], [ -110.905349794238674, 27.894899045879118 ], [ -110.905349794238674, 27.890504261620009 ], [ -110.909922267946953, 27.890504261620009 ], [ -110.909922267946953, 27.894899045879118 ] ] ] } },
{ "type": "Feature", "properties": { "difference_1990_2000": -1.0, "difference_1990_2010": 0.0, "difference_1990_2020": -175.0 }, "geometry": { "type": "Polygon", "coordinates": [ [ [ -110.909922267946953, 27.930063681040231 ], [ -110.905349794238674, 27.930063681040249 ], [ -110.905349794238674, 27.925667482765949 ], [ -110.909922267946953, 27.925667482765949 ], [ -110.909922267946953, 27.930063681040231 ] ] ] } },
{ "type": "Feature", "properties": { "difference_1990_2000": 145.0, "difference_1990_2010": 0.0, "difference_1990_2020": -367.0 }, "geometry": { "type": "Polygon", "coordinates": [ [ [ -110.909922267946953, 27.921271461408566 ], [ -110.905349794238674, 27.921271461408566 ], [ -110.905349794238674, 27.916875616921029 ], [ -110.909922267946953, 27.916875616921001 ], [ -110.909922267946953, 27.921271461408566 ] ] ] } },
{ "type": "Feature", "properties": { "difference_1990_2000": -125.0, "difference_1990_2010": 0.0, "difference_1990_2020": -962.0 }, "geometry": { "type": "Polygon", "coordinates": [ [ [ -110.909922267946953, 27.916875616921001 ], [ -110.905349794238674, 27.916875616921029 ], [ -110.905349794238674, 27.912479949256021 ], [ -110.909922267946953, 27.912479949256056 ], [ -110.909922267946953, 27.916875616921001 ] ] ] } }
]
}
