{
"type": "FeatureCollection",
"name": "M28.05",
"crs": { "type": "name", "properties": { "name": "urn:ogc:def:crs:OGC:1.3:CRS84" } },
"features": [
{ "type": "Feature", "properties": { "difference_1990_2000": -2.0, "difference_1990_2010": -2.0, "difference_1990_2020": -2.0 }, "geometry": { "type": "Polygon", "coordinates": [ [ [ -99.542752629172398, 27.539489515791519 ], [ -99.538180155464104, 27.53948951579148 ], [ -99.538180155464104, 27.535108879880397 ], [ -99.542752629172398, 27.535108879880394 ], [ -99.542752629172398, 27.539489515791519 ] ] ] } },
{ "type": "Feature", "properties": { "difference_1990_2000": 687.0, "difference_1990_2010": 297.0, "difference_1990_2020": 376.0 }, "geometry": { "type": "Polygon", "coordinates": [ [ [ -99.542752629172398, 27.508828690979584 ], [ -99.538180155464104, 27.508828690979584 ], [ -99.538180155464104, 27.504449263494799 ], [ -99.542752629172398, 27.504449263494802 ], [ -99.542752629172398, 27.508828690979584 ] ] ] } },
{ "type": "Feature", "properties": { "difference_1990_2000": 92.0, "difference_1990_2010": 236.0, "difference_1990_2020": 262.0 }, "geometry": { "type": "Polygon", "coordinates": [ [ [ -99.542752629172398, 27.465042170813017 ], [ -99.538180155464104, 27.465042170812985 ], [ -99.538180155464104, 27.460664465750167 ], [ -99.542752629172398, 27.460664465750192 ], [ -99.542752629172398, 27.465042170813017 ] ] ] } },
{ "type": "Feature", "properties": { "difference_1990_2000": 2.0, "difference_1990_2010": 3.0, "difference_1990_2020": 2.0 }, "geometry": { "type": "Polygon", "coordinates": [ [ [ -99.542752629172398, 27.526348126322883 ], [ -99.538180155464104, 27.52634812632288 ], [ -99.538180155464104, 27.521968008584562 ], [ -99.542752629172398, 27.521968008584576 ], [ -99.542752629172398, 27.526348126322883 ] ] ] } },
{ "type": "Feature", "properties": { "difference_1990_2000": 768.0, "difference_1990_2010": 586.0, "difference_1990_2020": 603.0 }, "geometry": { "type": "Polygon", "coordinates": [ [ [ -99.542752629172398, 27.473798097092335 ], [ -99.538180155464104, 27.473798097092306 ], [ -99.538180155464104, 27.469420047911811 ], [ -99.542752629172398, 27.469420047911825 ], [ -99.542752629172398, 27.473798097092335 ] ] ] } },
{ "type": "Feature", "properties": { "difference_1990_2000": 167.0, "difference_1990_2010": 903.0, "difference_1990_2020": 1418.0 }, "geometry": { "type": "Polygon", "coordinates": [ [ [ -99.542752629172398, 27.486933277582644 ], [ -99.538180155464104, 27.486933277582644 ], [ -99.538180155464104, 27.482554711881932 ], [ -99.542752629172398, 27.482554711881924 ], [ -99.542752629172398, 27.486933277582644 ] ] ] } },
{ "type": "Feature", "properties": { "difference_1990_2000": 1020.0, "difference_1990_2010": 842.0, "difference_1990_2020": 827.0 }, "geometry": { "type": "Polygon", "coordinates": [ [ [ -99.542752629172398, 27.469420047911825 ], [ -99.538180155464104, 27.469420047911811 ], [ -99.538180155464104, 27.465042170812985 ], [ -99.542752629172398, 27.465042170813017 ], [ -99.542752629172398, 27.469420047911825 ] ] ] } },
{ "type": "Feature", "properties": { "difference_1990_2000": 90.0, "difference_1990_2010": 41.0, "difference_1990_2020": 20.0 }, "geometry": { "type": "Polygon", "coordinates": [ [ [ -99.542752629172398, 27.399394633034014 ], [ -99.538180155464104, 27.39939463303401 ], [ -99.538180155464104, 27.395019503024333 ], [ -99.542752629172398, 27.395019503024336 ], [ -99.542752629172398, 27.399394633034014 ] ] ] } },
{ "type": "Feature", "properties": { "difference_1990_2000": 89.0, "difference_1990_2010": 362.0, "difference_1990_2020": 652.0 }, "geometry": { "type": "Polygon", "coordinates": [ [ [ -99.542752629172398, 27.482554711881924 ], [ -99.538180155464104, 27.482554711881932 ], [ -99.538180155464104, 27.478176318400418 ], [ -99.542752629172398, 27.47817631840045 ], [ -99.542752629172398, 27.482554711881924 ] ] ] } },
{ "type": "Feature", "properties": { "difference_1990_2000": 19.0, "difference_1990_2010": 1293.0, "difference_1990_2020": 1401.0 }, "geometry": { "type": "Polygon", "coordinates": [ [ [ -99.542752629172398, 27.45628693267761 ], [ -99.538180155464104, 27.456286932677589 ], [ -99.538180155464104, 27.451909571549383 ], [ -99.542752629172398, 27.451909571549379 ], [ -99.542752629172398, 27.45628693267761 ] ] ] } },
{ "type": "Feature", "properties": { "difference_1990_2000": 5.0, "difference_1990_2010": 2.0, "difference_1990_2020": 3.0 }, "geometry": { "type": "Polygon", "coordinates": [ [ [ -99.542752629172398, 27.530728416739549 ], [ -99.538180155464104, 27.530728416739514 ], [ -99.538180155464104, 27.52634812632288 ], [ -99.542752629172398, 27.526348126322883 ], [ -99.542752629172398, 27.530728416739549 ] ] ] } },
{ "type": "Feature", "properties": { "difference_1990_2000": 409.0, "difference_1990_2010": -123.0, "difference_1990_2020": -73.0 }, "geometry": { "type": "Polygon", "coordinates": [ [ [ -99.542752629172398, 27.500070008458628 ], [ -99.538180155464104, 27.500070008458625 ], [ -99.538180155464104, 27.495690925825127 ], [ -99.542752629172398, 27.495690925825123 ], [ -99.542752629172398, 27.500070008458628 ] ] ] } },
{ "type": "Feature", "properties": { "difference_1990_2000": 58.0, "difference_1990_2010": 23.0, "difference_1990_2020": 41.0 }, "geometry": { "type": "Polygon", "coordinates": [ [ [ -99.542752629172398, 27.513208290958843 ], [ -99.538180155464104, 27.513208290958843 ], [ -99.538180155464104, 27.508828690979584 ], [ -99.542752629172398, 27.508828690979584 ], [ -99.542752629172398, 27.513208290958843 ] ] ] } },
{ "type": "Feature", "properties": { "difference_1990_2000": 276.0, "difference_1990_2010": 170.0, "difference_1990_2020": 37.0 }, "geometry": { "type": "Polygon", "coordinates": [ [ [ -99.542752629172398, 27.416896867034996 ], [ -99.538180155464104, 27.416896867035007 ], [ -99.538180155464104, 27.412521051349195 ], [ -99.542752629172398, 27.412521051349191 ], [ -99.542752629172398, 27.416896867034996 ] ] ] } },
{ "type": "Feature", "properties": { "difference_1990_2000": 18.0, "difference_1990_2010": 100.0, "difference_1990_2020": 141.0 }, "geometry": { "type": "Polygon", "coordinates": [ [ [ -99.542752629172398, 27.443155364943213 ], [ -99.538180155464104, 27.443155364943184 ], [ -99.538180155464104, 27.438778519373781 ], [ -99.542752629172398, 27.438778519373781 ], [ -99.542752629172398, 27.443155364943213 ] ] ] } },
{ "type": "Feature", "properties": { "difference_1990_2000": 32.0, "difference_1990_2010": -421.0, "difference_1990_2020": -498.0 }, "geometry": { "type": "Polygon", "coordinates": [ [ [ -99.542752629172398, 27.47817631840045 ], [ -99.538180155464104, 27.478176318400418 ], [ -99.538180155464104, 27.473798097092306 ], [ -99.542752629172398, 27.473798097092335 ], [ -99.542752629172398, 27.47817631840045 ] ] ] } },
{ "type": "Feature", "properties": { "difference_1990_2000": 44.0, "difference_1990_2010": 55.0, "difference_1990_2020": 55.0 }, "geometry": { "type": "Polygon", "coordinates": [ [ [ -99.542752629172398, 27.381895140643341 ], [ -99.538180155464104, 27.381895140643348 ], [ -99.538180155464104, 27.377520695580444 ], [ -99.542752629172398, 27.377520695580493 ], [ -99.542752629172398, 27.381895140643341 ] ] ] } },
{ "type": "Feature", "properties": { "difference_1990_2000": 57.0, "difference_1990_2010": -262.0, "difference_1990_2020": -302.0 }, "geometry": { "type": "Polygon", "coordinates": [ [ [ -99.542752629172398, 27.491312015548388 ], [ -99.538180155464104, 27.491312015548417 ], [ -99.538180155464104, 27.486933277582644 ], [ -99.542752629172398, 27.486933277582644 ], [ -99.542752629172398, 27.491312015548388 ] ] ] } },
{ "type": "Feature", "properties": { "difference_1990_2000": 89.0, "difference_1990_2010": 46.0, "difference_1990_2020": 25.0 }, "geometry": { "type": "Polygon", "coordinates": [ [ [ -99.542752629172398, 27.395019503024336 ], [ -99.538180155464104, 27.395019503024333 ], [ -99.538180155464104, 27.390644544319716 ], [ -99.542752629172398, 27.390644544319745 ], [ -99.542752629172398, 27.395019503024336 ] ] ] } },
{ "type": "Feature", "properties": { "difference_1990_2000": 5.0, "difference_1990_2010": 218.0, "difference_1990_2020": 257.0 }, "geometry": { "type": "Polygon", "coordinates": [ [ [ -99.542752629172398, 27.460664465750192 ], [ -99.538180155464104, 27.460664465750167 ], [ -99.538180155464104, 27.456286932677589 ], [ -99.542752629172398, 27.45628693267761 ], [ -99.542752629172398, 27.460664465750192 ] ] ] } },
{ "type": "Feature", "properties": { "difference_1990_2000": 259.0, "difference_1990_2010": 816.0, "difference_1990_2020": 798.0 }, "geometry": { "type": "Polygon", "coordinates": [ [ [ -99.542752629172398, 27.421272854253925 ], [ -99.538180155464104, 27.421272854253889 ], [ -99.538180155464104, 27.416896867035025 ], [ -99.542752629172398, 27.416896867035021 ], [ -99.542752629172398, 27.421272854253925 ] ] ] } },
{ "type": "Feature", "properties": { "difference_1990_2000": 925.0, "difference_1990_2010": 270.0, "difference_1990_2020": 395.0 }, "geometry": { "type": "Polygon", "coordinates": [ [ [ -99.542752629172398, 27.504449263494802 ], [ -99.538180155464104, 27.504449263494799 ], [ -99.538180155464104, 27.500070008458625 ], [ -99.542752629172398, 27.500070008458628 ], [ -99.542752629172398, 27.504449263494802 ] ] ] } },
{ "type": "Feature", "properties": { "difference_1990_2000": 257.0, "difference_1990_2010": 837.0, "difference_1990_2020": 823.0 }, "geometry": { "type": "Polygon", "coordinates": [ [ [ -99.542752629172398, 27.425649013051611 ], [ -99.538180155464104, 27.425649013051611 ], [ -99.538180155464104, 27.421272854253889 ], [ -99.542752629172398, 27.421272854253925 ], [ -99.542752629172398, 27.425649013051611 ] ] ] } },
{ "type": "Feature", "properties": { "difference_1990_2000": 3.0, "difference_1990_2010": 1.0, "difference_1990_2020": 1.0 }, "geometry": { "type": "Polygon", "coordinates": [ [ [ -99.542752629172398, 27.535108879880394 ], [ -99.538180155464104, 27.535108879880397 ], [ -99.538180155464104, 27.530728416739514 ], [ -99.542752629172398, 27.530728416739549 ], [ -99.542752629172398, 27.535108879880394 ] ] ] } },
{ "type": "Feature", "properties": { "difference_1990_2000": 79.0, "difference_1990_2010": 200.0, "difference_1990_2020": 195.0 }, "geometry": { "type": "Polygon", "coordinates": [ [ [ -99.542752629172398, 27.430025343473687 ], [ -99.538180155464104, 27.430025343473691 ], [ -99.538180155464104, 27.425649013051611 ], [ -99.542752629172398, 27.425649013051611 ], [ -99.542752629172398, 27.430025343473687 ] ] ] } },
{ "type": "Feature", "properties": { "difference_1990_2000": 51.0, "difference_1990_2010": 23.0, "difference_1990_2020": 32.0 }, "geometry": { "type": "Polygon", "coordinates": [ [ [ -99.542752629172398, 27.408145407150837 ], [ -99.538180155464104, 27.408145407150833 ], [ -99.538180155464104, 27.403769934394298 ], [ -99.542752629172398, 27.403769934394326 ], [ -99.542752629172398, 27.408145407150837 ] ] ] } },
{ "type": "Feature", "properties": { "difference_1990_2000": 20.0, "difference_1990_2010": 4.0, "difference_1990_2020": 15.0 }, "geometry": { "type": "Polygon", "coordinates": [ [ [ -99.542752629172398, 27.517588063478556 ], [ -99.538180155464104, 27.517588063478495 ], [ -99.538180155464104, 27.513208290958843 ], [ -99.542752629172398, 27.513208290958843 ], [ -99.542752629172398, 27.517588063478556 ] ] ] } },
{ "type": "Feature", "properties": { "difference_1990_2000": -111.0, "difference_1990_2010": -575.0, "difference_1990_2020": -589.0 }, "geometry": { "type": "Polygon", "coordinates": [ [ [ -99.542752629172398, 27.495690925825123 ], [ -99.538180155464104, 27.495690925825127 ], [ -99.538180155464104, 27.491312015548417 ], [ -99.542752629172398, 27.491312015548388 ], [ -99.542752629172398, 27.495690925825123 ] ] ] } },
{ "type": "Feature", "properties": { "difference_1990_2000": 87.0, "difference_1990_2010": 109.0, "difference_1990_2020": 109.0 }, "geometry": { "type": "Polygon", "coordinates": [ [ [ -99.542752629172398, 27.386269756874576 ], [ -99.538180155464104, 27.386269756874572 ], [ -99.538180155464104, 27.381895140643348 ], [ -99.542752629172398, 27.381895140643341 ], [ -99.542752629172398, 27.386269756874576 ] ] ] } },
{ "type": "Feature", "properties": { "difference_1990_2000": 23.0, "difference_1990_2010": 48.0, "difference_1990_2020": 71.0 }, "geometry": { "type": "Polygon", "coordinates": [ [ [ -99.542752629172398, 27.438778519373781 ], [ -99.538180155464104, 27.438778519373781 ], [ -99.538180155464104, 27.43440184556583 ], [ -99.542752629172398, 27.43440184556583 ], [ -99.542752629172398, 27.438778519373781 ] ] ] } },
{ "type": "Feature", "properties": { "difference_1990_2000": 112.0, "difference_1990_2010": 179.0, "difference_1990_2020": 182.0 }, "geometry": { "type": "Polygon", "coordinates": [ [ [ -99.542752629172398, 27.390644544319745 ], [ -99.538180155464104, 27.390644544319716 ], [ -99.538180155464104, 27.386269756874572 ], [ -99.542752629172398, 27.386269756874576 ], [ -99.542752629172398, 27.390644544319745 ] ] ] } },
{ "type": "Feature", "properties": { "difference_1990_2000": 7.0, "difference_1990_2010": 6.0, "difference_1990_2020": -3.0 }, "geometry": { "type": "Polygon", "coordinates": [ [ [ -99.542752629172398, 27.412521051349191 ], [ -99.538180155464104, 27.412521051349195 ], [ -99.538180155464104, 27.408145407150833 ], [ -99.542752629172398, 27.408145407150837 ], [ -99.542752629172398, 27.412521051349191 ] ] ] } },
{ "type": "Feature", "properties": { "difference_1990_2000": 16.0, "difference_1990_2010": 392.0, "difference_1990_2020": 984.0 }, "geometry": { "type": "Polygon", "coordinates": [ [ [ -99.542752629172398, 27.451909571549379 ], [ -99.538180155464104, 27.451909571549383 ], [ -99.538180155464104, 27.447532382319849 ], [ -99.542752629172398, 27.447532382319849 ], [ -99.542752629172398, 27.451909571549379 ] ] ] } },
{ "type": "Feature", "properties": { "difference_1990_2000": -1.0, "difference_1990_2010": -1.0, "difference_1990_2020": -1.0 }, "geometry": { "type": "Polygon", "coordinates": [ [ [ -99.542752629172398, 27.543870324518885 ], [ -99.538180155464104, 27.543870324518839 ], [ -99.538180155464104, 27.53948951579148 ], [ -99.542752629172398, 27.539489515791519 ], [ -99.542752629172398, 27.543870324518885 ] ] ] } },
{ "type": "Feature", "properties": { "difference_1990_2000": 1.0, "difference_1990_2010": 3.0, "difference_1990_2020": 3.0 }, "geometry": { "type": "Polygon", "coordinates": [ [ [ -99.542752629172398, 27.521968008584576 ], [ -99.538180155464104, 27.521968008584562 ], [ -99.538180155464104, 27.517588063478495 ], [ -99.542752629172398, 27.517588063478556 ], [ -99.542752629172398, 27.521968008584576 ] ] ] } },
{ "type": "Feature", "properties": { "difference_1990_2000": 69.0, "difference_1990_2010": 31.0, "difference_1990_2020": 34.0 }, "geometry": { "type": "Polygon", "coordinates": [ [ [ -99.542752629172398, 27.403769934394326 ], [ -99.538180155464104, 27.403769934394298 ], [ -99.538180155464104, 27.39939463303401 ], [ -99.542752629172398, 27.399394633034014 ], [ -99.542752629172398, 27.403769934394326 ] ] ] } },
{ "type": "Feature", "properties": { "difference_1990_2000": 16.0, "difference_1990_2010": 218.0, "difference_1990_2020": 519.0 }, "geometry": { "type": "Polygon", "coordinates": [ [ [ -99.542752629172398, 27.447532382319849 ], [ -99.538180155464104, 27.447532382319849 ], [ -99.538180155464104, 27.443155364943184 ], [ -99.542752629172398, 27.443155364943213 ], [ -99.542752629172398, 27.447532382319849 ] ] ] } },
{ "type": "Feature", "properties": { "difference_1990_2000": 25.0, "difference_1990_2010": 48.0, "difference_1990_2020": 66.0 }, "geometry": { "type": "Polygon", "coordinates": [ [ [ -99.542752629172398, 27.43440184556583 ], [ -99.538180155464104, 27.43440184556583 ], [ -99.538180155464104, 27.430025343473691 ], [ -99.542752629172398, 27.430025343473687 ], [ -99.542752629172398, 27.43440184556583 ] ] ] } },
{ "type": "Feature", "properties": { "difference_1990_2000": 0.0, "difference_1990_2010": 1.0, "difference_1990_2020": 1.0 }, "geometry": { "type": "Polygon", "coordinates": [ [ [ -99.533607681755839, 27.526348126322876 ], [ -99.52903520804756, 27.526348126322883 ], [ -99.52903520804756, 27.521968008584569 ], [ -99.533607681755839, 27.521968008584558 ], [ -99.533607681755839, 27.526348126322876 ] ] ] } },
{ "type": "Feature", "properties": { "difference_1990_2000": 191.0, "difference_1990_2010": -124.0, "difference_1990_2020": -176.0 }, "geometry": { "type": "Polygon", "coordinates": [ [ [ -99.533607681755839, 27.465042170813025 ], [ -99.52903520804756, 27.465042170813014 ], [ -99.52903520804756, 27.460664465750195 ], [ -99.533607681755839, 27.460664465750217 ], [ -99.533607681755839, 27.465042170813025 ] ] ] } },
{ "type": "Feature", "properties": { "difference_1990_2000": 37.0, "difference_1990_2010": 6.0, "difference_1990_2020": 25.0 }, "geometry": { "type": "Polygon", "coordinates": [ [ [ -99.533607681755839, 27.508828690979612 ], [ -99.52903520804756, 27.508828690979584 ], [ -99.52903520804756, 27.504449263494802 ], [ -99.533607681755839, 27.504449263494806 ], [ -99.533607681755839, 27.508828690979612 ] ] ] } },
{ "type": "Feature", "properties": { "difference_1990_2000": -169.0, "difference_1990_2010": -731.0, "difference_1990_2020": -848.0 }, "geometry": { "type": "Polygon", "coordinates": [ [ [ -99.533607681755839, 27.473798097092338 ], [ -99.52903520804756, 27.473798097092335 ], [ -99.52903520804756, 27.469420047911807 ], [ -99.533607681755839, 27.469420047911807 ], [ -99.533607681755839, 27.473798097092338 ] ] ] } },
{ "type": "Feature", "properties": { "difference_1990_2000": 112.0, "difference_1990_2010": -270.0, "difference_1990_2020": -316.0 }, "geometry": { "type": "Polygon", "coordinates": [ [ [ -99.533607681755839, 27.469420047911807 ], [ -99.52903520804756, 27.469420047911807 ], [ -99.52903520804756, 27.465042170813014 ], [ -99.533607681755839, 27.465042170813025 ], [ -99.533607681755839, 27.469420047911807 ] ] ] } },
{ "type": "Feature", "properties": { "difference_1990_2000": -58.0, "difference_1990_2010": -760.0, "difference_1990_2020": -854.0 }, "geometry": { "type": "Polygon", "coordinates": [ [ [ -99.533607681755839, 27.486933277582665 ], [ -99.52903520804756, 27.486933277582622 ], [ -99.52903520804756, 27.482554711881928 ], [ -99.533607681755839, 27.482554711881949 ], [ -99.533607681755839, 27.486933277582665 ] ] ] } },
{ "type": "Feature", "properties": { "difference_1990_2000": 0.0, "difference_1990_2010": 1.0, "difference_1990_2020": 0.0 }, "geometry": { "type": "Polygon", "coordinates": [ [ [ -99.533607681755839, 27.399394633034014 ], [ -99.52903520804756, 27.39939463303401 ], [ -99.52903520804756, 27.395019503024336 ], [ -99.533607681755839, 27.395019503024379 ], [ -99.533607681755839, 27.399394633034014 ] ] ] } },
{ "type": "Feature", "properties": { "difference_1990_2000": 5.0, "difference_1990_2010": 3.0, "difference_1990_2020": 3.0 }, "geometry": { "type": "Polygon", "coordinates": [ [ [ -99.533607681755839, 27.53072841673951 ], [ -99.52903520804756, 27.530728416739514 ], [ -99.52903520804756, 27.526348126322883 ], [ -99.533607681755839, 27.526348126322876 ], [ -99.533607681755839, 27.53072841673951 ] ] ] } },
{ "type": "Feature", "properties": { "difference_1990_2000": 6.0, "difference_1990_2010": 685.0, "difference_1990_2020": 771.0 }, "geometry": { "type": "Polygon", "coordinates": [ [ [ -99.533607681755839, 27.456286932677617 ], [ -99.52903520804756, 27.456286932677592 ], [ -99.52903520804756, 27.451909571549383 ], [ -99.533607681755839, 27.451909571549386 ], [ -99.533607681755839, 27.456286932677617 ] ] ] } },
{ "type": "Feature", "properties": { "difference_1990_2000": 37.0, "difference_1990_2010": 6.0, "difference_1990_2020": 25.0 }, "geometry": { "type": "Polygon", "coordinates": [ [ [ -99.533607681755839, 27.51320829095884 ], [ -99.52903520804756, 27.513208290958847 ], [ -99.52903520804756, 27.508828690979584 ], [ -99.533607681755839, 27.508828690979612 ], [ -99.533607681755839, 27.51320829095884 ] ] ] } },
{ "type": "Feature", "properties": { "difference_1990_2000": 113.0, "difference_1990_2010": -587.0, "difference_1990_2020": -712.0 }, "geometry": { "type": "Polygon", "coordinates": [ [ [ -99.533607681755839, 27.482554711881949 ], [ -99.52903520804756, 27.482554711881928 ], [ -99.52903520804756, 27.478176318400461 ], [ -99.533607681755839, 27.478176318400454 ], [ -99.533607681755839, 27.482554711881949 ] ] ] } },
{ "type": "Feature", "properties": { "difference_1990_2000": 37.0, "difference_1990_2010": 65.0, "difference_1990_2020": 90.0 }, "geometry": { "type": "Polygon", "coordinates": [ [ [ -99.533607681755839, 27.416896867034964 ], [ -99.52903520804756, 27.416896867035021 ], [ -99.52903520804756, 27.41252105134922 ], [ -99.533607681755839, 27.412521051349216 ], [ -99.533607681755839, 27.416896867034964 ] ] ] } },
{ "type": "Feature", "properties": { "difference_1990_2000": -301.0, "difference_1990_2010": -910.0, "difference_1990_2020": -1008.0 }, "geometry": { "type": "Polygon", "coordinates": [ [ [ -99.533607681755839, 27.500070008458653 ], [ -99.52903520804756, 27.500070008458618 ], [ -99.52903520804756, 27.495690925825127 ], [ -99.533607681755839, 27.495690925825151 ], [ -99.533607681755839, 27.500070008458653 ] ] ] } },
{ "type": "Feature", "properties": { "difference_1990_2000": 7.0, "difference_1990_2010": 442.0, "difference_1990_2020": 616.0 }, "geometry": { "type": "Polygon", "coordinates": [ [ [ -99.533607681755839, 27.443155364943198 ], [ -99.52903520804756, 27.443155364943195 ], [ -99.52903520804756, 27.438778519373777 ], [ -99.533607681755839, 27.438778519373802 ], [ -99.533607681755839, 27.443155364943198 ] ] ] } },
{ "type": "Feature", "properties": { "difference_1990_2000": 19.0, "difference_1990_2010": -557.0, "difference_1990_2020": -704.0 }, "geometry": { "type": "Polygon", "coordinates": [ [ [ -99.533607681755839, 27.478176318400454 ], [ -99.52903520804756, 27.478176318400461 ], [ -99.52903520804756, 27.473798097092335 ], [ -99.533607681755839, 27.473798097092338 ], [ -99.533607681755839, 27.478176318400454 ] ] ] } },
{ "type": "Feature", "properties": { "difference_1990_2000": -202.0, "difference_1990_2010": -865.0, "difference_1990_2020": -909.0 }, "geometry": { "type": "Polygon", "coordinates": [ [ [ -99.533607681755839, 27.491312015548392 ], [ -99.52903520804756, 27.491312015548424 ], [ -99.52903520804756, 27.486933277582622 ], [ -99.533607681755839, 27.486933277582665 ], [ -99.533607681755839, 27.491312015548392 ] ] ] } },
{ "type": "Feature", "properties": { "difference_1990_2000": -49.0, "difference_1990_2010": -187.0, "difference_1990_2020": -201.0 }, "geometry": { "type": "Polygon", "coordinates": [ [ [ -99.533607681755839, 27.504449263494806 ], [ -99.52903520804756, 27.504449263494802 ], [ -99.52903520804756, 27.500070008458618 ], [ -99.533607681755839, 27.500070008458653 ], [ -99.533607681755839, 27.504449263494806 ] ] ] } },
{ "type": "Feature", "properties": { "difference_1990_2000": 45.0, "difference_1990_2010": 601.0, "difference_1990_2020": 651.0 }, "geometry": { "type": "Polygon", "coordinates": [ [ [ -99.533607681755839, 27.460664465750217 ], [ -99.52903520804756, 27.460664465750195 ], [ -99.52903520804756, 27.456286932677592 ], [ -99.533607681755839, 27.456286932677617 ], [ -99.533607681755839, 27.460664465750217 ] ] ] } },
{ "type": "Feature", "properties": { "difference_1990_2000": -4.0, "difference_1990_2010": 87.0, "difference_1990_2020": 147.0 }, "geometry": { "type": "Polygon", "coordinates": [ [ [ -99.533607681755839, 27.421272854253946 ], [ -99.52903520804756, 27.421272854253925 ], [ -99.52903520804756, 27.416896867035046 ], [ -99.533607681755839, 27.416896867034993 ], [ -99.533607681755839, 27.421272854253946 ] ] ] } },
{ "type": "Feature", "properties": { "difference_1990_2000": 0.0, "difference_1990_2010": 366.0, "difference_1990_2020": 340.0 }, "geometry": { "type": "Polygon", "coordinates": [ [ [ -99.533607681755839, 27.395019503024379 ], [ -99.52903520804756, 27.395019503024336 ], [ -99.52903520804756, 27.390644544319745 ], [ -99.533607681755839, 27.390644544319716 ], [ -99.533607681755839, 27.395019503024379 ] ] ] } },
{ "type": "Feature", "properties": { "difference_1990_2000": 36.0, "difference_1990_2010": 202.0, "difference_1990_2020": 251.0 }, "geometry": { "type": "Polygon", "coordinates": [ [ [ -99.533607681755839, 27.425649013051608 ], [ -99.52903520804756, 27.425649013051626 ], [ -99.52903520804756, 27.421272854253925 ], [ -99.533607681755839, 27.421272854253946 ], [ -99.533607681755839, 27.425649013051608 ] ] ] } },
{ "type": "Feature", "properties": { "difference_1990_2000": 36.0, "difference_1990_2010": 6.0, "difference_1990_2020": 25.0 }, "geometry": { "type": "Polygon", "coordinates": [ [ [ -99.533607681755839, 27.517588063478499 ], [ -99.52903520804756, 27.517588063478499 ], [ -99.52903520804756, 27.513208290958847 ], [ -99.533607681755839, 27.51320829095884 ], [ -99.533607681755839, 27.517588063478499 ] ] ] } },
{ "type": "Feature", "properties": { "difference_1990_2000": 2.0, "difference_1990_2010": 1.0, "difference_1990_2020": 1.0 }, "geometry": { "type": "Polygon", "coordinates": [ [ [ -99.533607681755839, 27.53510887988039 ], [ -99.52903520804756, 27.535108879880394 ], [ -99.52903520804756, 27.530728416739514 ], [ -99.533607681755839, 27.53072841673951 ], [ -99.533607681755839, 27.53510887988039 ] ] ] } },
{ "type": "Feature", "properties": { "difference_1990_2000": 27.0, "difference_1990_2010": 70.0, "difference_1990_2020": 85.0 }, "geometry": { "type": "Polygon", "coordinates": [ [ [ -99.533607681755839, 27.43002534347368 ], [ -99.52903520804756, 27.430025343473684 ], [ -99.52903520804756, 27.425649013051626 ], [ -99.533607681755839, 27.425649013051608 ], [ -99.533607681755839, 27.43002534347368 ] ] ] } },
{ "type": "Feature", "properties": { "difference_1990_2000": 58.0, "difference_1990_2010": 25.0, "difference_1990_2020": 36.0 }, "geometry": { "type": "Polygon", "coordinates": [ [ [ -99.533607681755839, 27.408145407150833 ], [ -99.52903520804756, 27.408145407150833 ], [ -99.52903520804756, 27.403769934394301 ], [ -99.533607681755839, 27.403769934394294 ], [ -99.533607681755839, 27.408145407150833 ] ] ] } },
{ "type": "Feature", "properties": { "difference_1990_2000": -1.0, "difference_1990_2010": -1.0, "difference_1990_2020": -1.0 }, "geometry": { "type": "Polygon", "coordinates": [ [ [ -99.533607681755839, 27.543870324518831 ], [ -99.52903520804756, 27.543870324518831 ], [ -99.52903520804756, 27.539489515791484 ], [ -99.533607681755839, 27.53948951579148 ], [ -99.533607681755839, 27.543870324518831 ] ] ] } },
{ "type": "Feature", "properties": { "difference_1990_2000": 0.0, "difference_1990_2010": 223.0, "difference_1990_2020": 239.0 }, "geometry": { "type": "Polygon", "coordinates": [ [ [ -99.533607681755839, 27.390644544319716 ], [ -99.52903520804756, 27.390644544319745 ], [ -99.52903520804756, 27.386269756874576 ], [ -99.533607681755839, 27.386269756874597 ], [ -99.533607681755839, 27.390644544319716 ] ] ] } },
{ "type": "Feature", "properties": { "difference_1990_2000": -272.0, "difference_1990_2010": -903.0, "difference_1990_2020": -980.0 }, "geometry": { "type": "Polygon", "coordinates": [ [ [ -99.533607681755839, 27.495690925825151 ], [ -99.52903520804756, 27.495690925825127 ], [ -99.52903520804756, 27.491312015548424 ], [ -99.533607681755839, 27.491312015548392 ], [ -99.533607681755839, 27.495690925825151 ] ] ] } },
{ "type": "Feature", "properties": { "difference_1990_2000": 2.0, "difference_1990_2010": 2.0, "difference_1990_2020": 2.0 }, "geometry": { "type": "Polygon", "coordinates": [ [ [ -99.533607681755839, 27.521968008584558 ], [ -99.52903520804756, 27.521968008584569 ], [ -99.52903520804756, 27.517588063478499 ], [ -99.533607681755839, 27.517588063478499 ], [ -99.533607681755839, 27.521968008584558 ] ] ] } },
{ "type": "Feature", "properties": { "difference_1990_2000": 6.0, "difference_1990_2010": 161.0, "difference_1990_2020": 248.0 }, "geometry": { "type": "Polygon", "coordinates": [ [ [ -99.533607681755839, 27.451909571549386 ], [ -99.52903520804756, 27.451909571549383 ], [ -99.52903520804756, 27.447532382319849 ], [ -99.533607681755839, 27.447532382319849 ], [ -99.533607681755839, 27.451909571549386 ] ] ] } },
{ "type": "Feature", "properties": { "difference_1990_2000": 0.0, "difference_1990_2010": 22.0, "difference_1990_2020": 25.0 }, "geometry": { "type": "Polygon", "coordinates": [ [ [ -99.533607681755839, 27.386269756874597 ], [ -99.52903520804756, 27.386269756874576 ], [ -99.52903520804756, 27.381895140643344 ], [ -99.533607681755839, 27.381895140643344 ], [ -99.533607681755839, 27.386269756874597 ] ] ] } },
{ "type": "Feature", "properties": { "difference_1990_2000": 10.0, "difference_1990_2010": 135.0, "difference_1990_2020": 192.0 }, "geometry": { "type": "Polygon", "coordinates": [ [ [ -99.533607681755839, 27.438778519373802 ], [ -99.52903520804756, 27.438778519373777 ], [ -99.52903520804756, 27.434401845565834 ], [ -99.533607681755839, 27.43440184556583 ], [ -99.533607681755839, 27.438778519373802 ] ] ] } },
{ "type": "Feature", "properties": { "difference_1990_2000": 101.0, "difference_1990_2010": 34.0, "difference_1990_2020": 9.0 }, "geometry": { "type": "Polygon", "coordinates": [ [ [ -99.533607681755839, 27.412521051349216 ], [ -99.52903520804756, 27.41252105134922 ], [ -99.52903520804756, 27.408145407150833 ], [ -99.533607681755839, 27.408145407150833 ], [ -99.533607681755839, 27.412521051349216 ] ] ] } },
{ "type": "Feature", "properties": { "difference_1990_2000": 29.0, "difference_1990_2010": 13.0, "difference_1990_2020": 19.0 }, "geometry": { "type": "Polygon", "coordinates": [ [ [ -99.533607681755839, 27.403769934394294 ], [ -99.52903520804756, 27.403769934394301 ], [ -99.52903520804756, 27.39939463303401 ], [ -99.533607681755839, 27.399394633034014 ], [ -99.533607681755839, 27.403769934394294 ] ] ] } },
{ "type": "Feature", "properties": { "difference_1990_2000": 16.0, "difference_1990_2010": 611.0, "difference_1990_2020": 844.0 }, "geometry": { "type": "Polygon", "coordinates": [ [ [ -99.533607681755839, 27.447532382319849 ], [ -99.52903520804756, 27.447532382319849 ], [ -99.52903520804756, 27.443155364943195 ], [ -99.533607681755839, 27.443155364943198 ], [ -99.533607681755839, 27.447532382319849 ] ] ] } },
{ "type": "Feature", "properties": { "difference_1990_2000": -1.0, "difference_1990_2010": 0.0, "difference_1990_2020": 0.0 }, "geometry": { "type": "Polygon", "coordinates": [ [ [ -99.533607681755839, 27.53948951579148 ], [ -99.52903520804756, 27.539489515791484 ], [ -99.52903520804756, 27.535108879880394 ], [ -99.533607681755839, 27.53510887988039 ], [ -99.533607681755839, 27.53948951579148 ] ] ] } },
{ "type": "Feature", "properties": { "difference_1990_2000": 35.0, "difference_1990_2010": 67.0, "difference_1990_2020": 69.0 }, "geometry": { "type": "Polygon", "coordinates": [ [ [ -99.533607681755839, 27.43440184556583 ], [ -99.52903520804756, 27.434401845565834 ], [ -99.52903520804756, 27.430025343473684 ], [ -99.533607681755839, 27.43002534347368 ], [ -99.533607681755839, 27.43440184556583 ] ] ] } },
{ "type": "Feature", "properties": { "difference_1990_2000": 812.0, "difference_1990_2010": 756.0, "difference_1990_2020": 764.0 }, "geometry": { "type": "Polygon", "coordinates": [ [ [ -99.547325102880663, 27.508828690979581 ], [ -99.542752629172355, 27.508828690979584 ], [ -99.542752629172355, 27.504449263494802 ], [ -99.547325102880663, 27.504449263494802 ], [ -99.547325102880663, 27.508828690979581 ] ] ] } },
{ "type": "Feature", "properties": { "difference_1990_2000": 109.0, "difference_1990_2010": 276.0, "difference_1990_2020": 311.0 }, "geometry": { "type": "Polygon", "coordinates": [ [ [ -99.547325102880663, 27.465042170813017 ], [ -99.542752629172355, 27.465042170813017 ], [ -99.542752629172355, 27.460664465750192 ], [ -99.547325102880663, 27.460664465750188 ], [ -99.547325102880663, 27.465042170813017 ] ] ] } },
{ "type": "Feature", "properties": { "difference_1990_2000": 5.0, "difference_1990_2010": 3.0, "difference_1990_2020": 3.0 }, "geometry": { "type": "Polygon", "coordinates": [ [ [ -99.547325102880663, 27.526348126322873 ], [ -99.542752629172355, 27.526348126322883 ], [ -99.542752629172355, 27.521968008584576 ], [ -99.547325102880663, 27.521968008584558 ], [ -99.547325102880663, 27.526348126322873 ] ] ] } },
{ "type": "Feature", "properties": { "difference_1990_2000": 183.0, "difference_1990_2010": 680.0, "difference_1990_2020": 1102.0 }, "geometry": { "type": "Polygon", "coordinates": [ [ [ -99.547325102880663, 27.486933277582619 ], [ -99.542752629172355, 27.486933277582644 ], [ -99.542752629172355, 27.482554711881924 ], [ -99.547325102880663, 27.482554711881924 ], [ -99.547325102880663, 27.486933277582619 ] ] ] } },
{ "type": "Feature", "properties": { "difference_1990_2000": 674.0, "difference_1990_2010": 631.0, "difference_1990_2020": 659.0 }, "geometry": { "type": "Polygon", "coordinates": [ [ [ -99.547325102880663, 27.473798097092342 ], [ -99.542752629172355, 27.473798097092335 ], [ -99.542752629172355, 27.469420047911825 ], [ -99.547325102880663, 27.469420047911811 ], [ -99.547325102880663, 27.473798097092342 ] ] ] } },
{ "type": "Feature", "properties": { "difference_1990_2000": 587.0, "difference_1990_2010": 591.0, "difference_1990_2020": 618.0 }, "geometry": { "type": "Polygon", "coordinates": [ [ [ -99.547325102880663, 27.469420047911811 ], [ -99.542752629172355, 27.469420047911825 ], [ -99.542752629172355, 27.465042170813017 ], [ -99.547325102880663, 27.465042170813017 ], [ -99.547325102880663, 27.469420047911811 ] ] ] } },
{ "type": "Feature", "properties": { "difference_1990_2000": 87.0, "difference_1990_2010": 44.0, "difference_1990_2020": 21.0 }, "geometry": { "type": "Polygon", "coordinates": [ [ [ -99.547325102880663, 27.399394633034007 ], [ -99.542752629172355, 27.399394633034017 ], [ -99.542752629172355, 27.395019503024336 ], [ -99.547325102880663, 27.395019503024333 ], [ -99.547325102880663, 27.399394633034007 ] ] ] } },
{ "type": "Feature", "properties": { "difference_1990_2000": 7.0, "difference_1990_2010": 3.0, "difference_1990_2020": 4.0 }, "geometry": { "type": "Polygon", "coordinates": [ [ [ -99.547325102880663, 27.530728416739514 ], [ -99.542752629172355, 27.530728416739549 ], [ -99.542752629172355, 27.526348126322883 ], [ -99.547325102880663, 27.526348126322873 ], [ -99.547325102880663, 27.530728416739514 ] ] ] } },
{ "type": "Feature", "properties": { "difference_1990_2000": 337.0, "difference_1990_2010": 661.0, "difference_1990_2020": 970.0 }, "geometry": { "type": "Polygon", "coordinates": [ [ [ -99.547325102880663, 27.482554711881924 ], [ -99.542752629172355, 27.482554711881924 ], [ -99.542752629172355, 27.47817631840045 ], [ -99.547325102880663, 27.47817631840045 ], [ -99.547325102880663, 27.482554711881924 ] ] ] } },
{ "type": "Feature", "properties": { "difference_1990_2000": 20.0, "difference_1990_2010": 1292.0, "difference_1990_2020": 1474.0 }, "geometry": { "type": "Polygon", "coordinates": [ [ [ -99.547325102880663, 27.45628693267761 ], [ -99.542752629172355, 27.456286932677614 ], [ -99.542752629172355, 27.451909571549379 ], [ -99.547325102880663, 27.451909571549383 ], [ -99.547325102880663, 27.45628693267761 ] ] ] } },
{ "type": "Feature", "properties": { "difference_1990_2000": 477.0, "difference_1990_2010": 371.0, "difference_1990_2020": 366.0 }, "geometry": { "type": "Polygon", "coordinates": [ [ [ -99.547325102880663, 27.513208290958847 ], [ -99.542752629172355, 27.513208290958843 ], [ -99.542752629172355, 27.508828690979584 ], [ -99.547325102880663, 27.508828690979581 ], [ -99.547325102880663, 27.513208290958847 ] ] ] } },
{ "type": "Feature", "properties": { "difference_1990_2000": 957.0, "difference_1990_2010": 1278.0, "difference_1990_2020": 1363.0 }, "geometry": { "type": "Polygon", "coordinates": [ [ [ -99.547325102880663, 27.50007000845865 ], [ -99.542752629172355, 27.500070008458628 ], [ -99.542752629172355, 27.495690925825151 ], [ -99.547325102880663, 27.495690925825144 ], [ -99.547325102880663, 27.50007000845865 ] ] ] } },
{ "type": "Feature", "properties": { "difference_1990_2000": 16.0, "difference_1990_2010": 313.0, "difference_1990_2020": 450.0 }, "geometry": { "type": "Polygon", "coordinates": [ [ [ -99.547325102880663, 27.443155364943195 ], [ -99.542752629172355, 27.443155364943202 ], [ -99.542752629172355, 27.438778519373781 ], [ -99.547325102880663, 27.438778519373805 ], [ -99.547325102880663, 27.443155364943195 ] ] ] } },
{ "type": "Feature", "properties": { "difference_1990_2000": 256.0, "difference_1990_2010": 158.0, "difference_1990_2020": 36.0 }, "geometry": { "type": "Polygon", "coordinates": [ [ [ -99.547325102880663, 27.416896867034996 ], [ -99.542752629172355, 27.416896867034996 ], [ -99.542752629172355, 27.412521051349191 ], [ -99.547325102880663, 27.412521051349195 ], [ -99.547325102880663, 27.416896867034996 ] ] ] } },
{ "type": "Feature", "properties": { "difference_1990_2000": 592.0, "difference_1990_2010": 522.0, "difference_1990_2020": 533.0 }, "geometry": { "type": "Polygon", "coordinates": [ [ [ -99.547325102880663, 27.47817631840045 ], [ -99.542752629172355, 27.47817631840045 ], [ -99.542752629172355, 27.473798097092335 ], [ -99.547325102880663, 27.473798097092342 ], [ -99.547325102880663, 27.47817631840045 ] ] ] } },
{ "type": "Feature", "properties": { "difference_1990_2000": 58.0, "difference_1990_2010": 68.0, "difference_1990_2020": 66.0 }, "geometry": { "type": "Polygon", "coordinates": [ [ [ -99.547325102880663, 27.381895140643344 ], [ -99.542752629172355, 27.381895140643341 ], [ -99.542752629172355, 27.377520695580493 ], [ -99.547325102880663, 27.37752069558044 ], [ -99.547325102880663, 27.381895140643344 ] ] ] } },
{ "type": "Feature", "properties": { "difference_1990_2000": 62.0, "difference_1990_2010": -258.0, "difference_1990_2020": -312.0 }, "geometry": { "type": "Polygon", "coordinates": [ [ [ -99.547325102880663, 27.491312015548417 ], [ -99.542752629172355, 27.491312015548388 ], [ -99.542752629172355, 27.486933277582644 ], [ -99.547325102880663, 27.486933277582619 ], [ -99.547325102880663, 27.491312015548417 ] ] ] } },
{ "type": "Feature", "properties": { "difference_1990_2000": 90.0, "difference_1990_2010": 42.0, "difference_1990_2020": 21.0 }, "geometry": { "type": "Polygon", "coordinates": [ [ [ -99.547325102880663, 27.395019503024333 ], [ -99.542752629172355, 27.395019503024336 ], [ -99.542752629172355, 27.390644544319745 ], [ -99.547325102880663, 27.390644544319716 ], [ -99.547325102880663, 27.395019503024333 ] ] ] } },
{ "type": "Feature", "properties": { "difference_1990_2000": 68.0, "difference_1990_2010": 302.0, "difference_1990_2020": 338.0 }, "geometry": { "type": "Polygon", "coordinates": [ [ [ -99.547325102880663, 27.460664465750188 ], [ -99.542752629172355, 27.460664465750192 ], [ -99.542752629172355, 27.456286932677614 ], [ -99.547325102880663, 27.45628693267761 ], [ -99.547325102880663, 27.460664465750188 ] ] ] } },
{ "type": "Feature", "properties": { "difference_1990_2000": 273.0, "difference_1990_2010": 680.0, "difference_1990_2020": 638.0 }, "geometry": { "type": "Polygon", "coordinates": [ [ [ -99.547325102880663, 27.421272854253921 ], [ -99.542752629172355, 27.421272854253925 ], [ -99.542752629172355, 27.416896867035021 ], [ -99.547325102880663, 27.416896867035035 ], [ -99.547325102880663, 27.421272854253921 ] ] ] } },
{ "type": "Feature", "properties": { "difference_1990_2000": 928.0, "difference_1990_2010": 1083.0, "difference_1990_2020": 1147.0 }, "geometry": { "type": "Polygon", "coordinates": [ [ [ -99.547325102880663, 27.504449263494802 ], [ -99.542752629172355, 27.504449263494802 ], [ -99.542752629172355, 27.500070008458628 ], [ -99.547325102880663, 27.50007000845865 ], [ -99.547325102880663, 27.504449263494802 ] ] ] } },
{ "type": "Feature", "properties": { "difference_1990_2000": 240.0, "difference_1990_2010": 812.0, "difference_1990_2020": 900.0 }, "geometry": { "type": "Polygon", "coordinates": [ [ [ -99.547325102880663, 27.425649013051611 ], [ -99.542752629172355, 27.425649013051611 ], [ -99.542752629172355, 27.421272854253925 ], [ -99.547325102880663, 27.421272854253921 ], [ -99.547325102880663, 27.425649013051611 ] ] ] } },
{ "type": "Feature", "properties": { "difference_1990_2000": 3.0, "difference_1990_2010": 1.0, "difference_1990_2020": 1.0 }, "geometry": { "type": "Polygon", "coordinates": [ [ [ -99.547325102880663, 27.535108879880369 ], [ -99.542752629172355, 27.535108879880394 ], [ -99.542752629172355, 27.530728416739549 ], [ -99.547325102880663, 27.530728416739514 ], [ -99.547325102880663, 27.535108879880369 ] ] ] } },
{ "type": "Feature", "properties": { "difference_1990_2000": 220.0, "difference_1990_2010": 242.0, "difference_1990_2020": 273.0 }, "geometry": { "type": "Polygon", "coordinates": [ [ [ -99.547325102880663, 27.517588063478499 ], [ -99.542752629172355, 27.517588063478534 ], [ -99.542752629172355, 27.513208290958843 ], [ -99.547325102880663, 27.513208290958847 ], [ -99.547325102880663, 27.517588063478499 ] ] ] } },
{ "type": "Feature", "properties": { "difference_1990_2000": 107.0, "difference_1990_2010": 338.0, "difference_1990_2020": 396.0 }, "geometry": { "type": "Polygon", "coordinates": [ [ [ -99.547325102880663, 27.430025343473684 ], [ -99.542752629172355, 27.430025343473687 ], [ -99.542752629172355, 27.425649013051611 ], [ -99.547325102880663, 27.425649013051611 ], [ -99.547325102880663, 27.430025343473684 ] ] ] } },
{ "type": "Feature", "properties": { "difference_1990_2000": 15.0, "difference_1990_2010": 17.0, "difference_1990_2020": 15.0 }, "geometry": { "type": "Polygon", "coordinates": [ [ [ -99.547325102880663, 27.408145407150833 ], [ -99.542752629172355, 27.408145407150837 ], [ -99.542752629172355, 27.403769934394301 ], [ -99.547325102880663, 27.403769934394298 ], [ -99.547325102880663, 27.408145407150833 ] ] ] } },
{ "type": "Feature", "properties": { "difference_1990_2000": -1.0, "difference_1990_2010": -1.0, "difference_1990_2020": -1.0 }, "geometry": { "type": "Polygon", "coordinates": [ [ [ -99.547325102880663, 27.543870324518846 ], [ -99.542752629172355, 27.543870324518885 ], [ -99.542752629172355, 27.53948951579148 ], [ -99.547325102880663, 27.53948951579148 ], [ -99.547325102880663, 27.543870324518846 ] ] ] } },
{ "type": "Feature", "properties": { "difference_1990_2000": 73.0, "difference_1990_2010": 83.0, "difference_1990_2020": 79.0 }, "geometry": { "type": "Polygon", "coordinates": [ [ [ -99.547325102880663, 27.390644544319716 ], [ -99.542752629172355, 27.390644544319745 ], [ -99.542752629172355, 27.386269756874601 ], [ -99.547325102880663, 27.386269756874572 ], [ -99.547325102880663, 27.390644544319716 ] ] ] } },
{ "type": "Feature", "properties": { "difference_1990_2000": 17.0, "difference_1990_2010": -375.0, "difference_1990_2020": -422.0 }, "geometry": { "type": "Polygon", "coordinates": [ [ [ -99.547325102880663, 27.495690925825144 ], [ -99.542752629172355, 27.495690925825151 ], [ -99.542752629172355, 27.491312015548388 ], [ -99.547325102880663, 27.491312015548417 ], [ -99.547325102880663, 27.495690925825144 ] ] ] } },
{ "type": "Feature", "properties": { "difference_1990_2000": 38.0, "difference_1990_2010": 38.0, "difference_1990_2020": 33.0 }, "geometry": { "type": "Polygon", "coordinates": [ [ [ -99.547325102880663, 27.386269756874572 ], [ -99.542752629172355, 27.386269756874601 ], [ -99.542752629172355, 27.381895140643341 ], [ -99.547325102880663, 27.381895140643344 ], [ -99.547325102880663, 27.386269756874572 ] ] ] } },
{ "type": "Feature", "properties": { "difference_1990_2000": 99.0, "difference_1990_2010": 111.0, "difference_1990_2020": 124.0 }, "geometry": { "type": "Polygon", "coordinates": [ [ [ -99.547325102880663, 27.521968008584558 ], [ -99.542752629172355, 27.521968008584576 ], [ -99.542752629172355, 27.517588063478534 ], [ -99.547325102880663, 27.517588063478499 ], [ -99.547325102880663, 27.521968008584558 ] ] ] } },
{ "type": "Feature", "properties": { "difference_1990_2000": 3.0, "difference_1990_2010": 8.0, "difference_1990_2020": 9.0 }, "geometry": { "type": "Polygon", "coordinates": [ [ [ -99.547325102880663, 27.412521051349195 ], [ -99.542752629172355, 27.412521051349191 ], [ -99.542752629172355, 27.408145407150837 ], [ -99.547325102880663, 27.408145407150833 ], [ -99.547325102880663, 27.412521051349195 ] ] ] } },
{ "type": "Feature", "properties": { "difference_1990_2000": 16.0, "difference_1990_2010": 320.0, "difference_1990_2020": 948.0 }, "geometry": { "type": "Polygon", "coordinates": [ [ [ -99.547325102880663, 27.451909571549383 ], [ -99.542752629172355, 27.451909571549379 ], [ -99.542752629172355, 27.447532382319849 ], [ -99.547325102880663, 27.447532382319846 ], [ -99.547325102880663, 27.451909571549383 ] ] ] } },
{ "type": "Feature", "properties": { "difference_1990_2000": 23.0, "difference_1990_2010": 48.0, "difference_1990_2020": 71.0 }, "geometry": { "type": "Polygon", "coordinates": [ [ [ -99.547325102880663, 27.438778519373805 ], [ -99.542752629172355, 27.438778519373781 ], [ -99.542752629172355, 27.43440184556583 ], [ -99.547325102880663, 27.434401845565834 ], [ -99.547325102880663, 27.438778519373805 ] ] ] } },
{ "type": "Feature", "properties": { "difference_1990_2000": 82.0, "difference_1990_2010": 60.0, "difference_1990_2020": 40.0 }, "geometry": { "type": "Polygon", "coordinates": [ [ [ -99.547325102880663, 27.403769934394298 ], [ -99.542752629172355, 27.403769934394301 ], [ -99.542752629172355, 27.399394633034017 ], [ -99.547325102880663, 27.399394633034007 ], [ -99.547325102880663, 27.403769934394298 ] ] ] } },
{ "type": "Feature", "properties": { "difference_1990_2000": 9.0, "difference_1990_2010": 618.0, "difference_1990_2020": 1166.0 }, "geometry": { "type": "Polygon", "coordinates": [ [ [ -99.547325102880663, 27.447532382319846 ], [ -99.542752629172355, 27.447532382319849 ], [ -99.542752629172355, 27.443155364943202 ], [ -99.547325102880663, 27.443155364943195 ], [ -99.547325102880663, 27.447532382319846 ] ] ] } },
{ "type": "Feature", "properties": { "difference_1990_2000": -2.0, "difference_1990_2010": -2.0, "difference_1990_2020": -2.0 }, "geometry": { "type": "Polygon", "coordinates": [ [ [ -99.547325102880663, 27.53948951579148 ], [ -99.542752629172355, 27.53948951579148 ], [ -99.542752629172355, 27.535108879880394 ], [ -99.547325102880663, 27.535108879880369 ], [ -99.547325102880663, 27.53948951579148 ] ] ] } },
{ "type": "Feature", "properties": { "difference_1990_2000": 23.0, "difference_1990_2010": 48.0, "difference_1990_2020": 71.0 }, "geometry": { "type": "Polygon", "coordinates": [ [ [ -99.547325102880663, 27.434401845565834 ], [ -99.542752629172355, 27.43440184556583 ], [ -99.542752629172355, 27.430025343473687 ], [ -99.547325102880663, 27.430025343473684 ], [ -99.547325102880663, 27.434401845565834 ] ] ] } },
{ "type": "Feature", "properties": { "difference_1990_2000": 615.0, "difference_1990_2010": 480.0, "difference_1990_2020": 429.0 }, "geometry": { "type": "Polygon", "coordinates": [ [ [ -99.538180155464104, 27.465042170812985 ], [ -99.533607681755839, 27.465042170813025 ], [ -99.533607681755839, 27.460664465750217 ], [ -99.538180155464104, 27.460664465750167 ], [ -99.538180155464104, 27.465042170812985 ] ] ] } },
{ "type": "Feature", "properties": { "difference_1990_2000": 151.0, "difference_1990_2010": 41.0, "difference_1990_2020": 74.0 }, "geometry": { "type": "Polygon", "coordinates": [ [ [ -99.538180155464104, 27.508828690979584 ], [ -99.533607681755839, 27.508828690979612 ], [ -99.533607681755839, 27.504449263494806 ], [ -99.538180155464104, 27.504449263494799 ], [ -99.538180155464104, 27.508828690979584 ] ] ] } },
{ "type": "Feature", "properties": { "difference_1990_2000": 0.0, "difference_1990_2010": 1.0, "difference_1990_2020": 1.0 }, "geometry": { "type": "Polygon", "coordinates": [ [ [ -99.538180155464104, 27.52634812632288 ], [ -99.533607681755839, 27.526348126322876 ], [ -99.533607681755839, 27.521968008584558 ], [ -99.538180155464104, 27.521968008584562 ], [ -99.538180155464104, 27.52634812632288 ] ] ] } },
{ "type": "Feature", "properties": { "difference_1990_2000": 640.0, "difference_1990_2010": 261.0, "difference_1990_2020": -154.0 }, "geometry": { "type": "Polygon", "coordinates": [ [ [ -99.538180155464104, 27.473798097092306 ], [ -99.533607681755839, 27.473798097092338 ], [ -99.533607681755839, 27.469420047911807 ], [ -99.538180155464104, 27.469420047911811 ], [ -99.538180155464104, 27.473798097092306 ] ] ] } },
{ "type": "Feature", "properties": { "difference_1990_2000": -44.0, "difference_1990_2010": -539.0, "difference_1990_2020": -591.0 }, "geometry": { "type": "Polygon", "coordinates": [ [ [ -99.538180155464104, 27.486933277582644 ], [ -99.533607681755839, 27.486933277582665 ], [ -99.533607681755839, 27.482554711881949 ], [ -99.538180155464104, 27.482554711881932 ], [ -99.538180155464104, 27.486933277582644 ] ] ] } },
{ "type": "Feature", "properties": { "difference_1990_2000": 1129.0, "difference_1990_2010": 818.0, "difference_1990_2020": 685.0 }, "geometry": { "type": "Polygon", "coordinates": [ [ [ -99.538180155464104, 27.469420047911811 ], [ -99.533607681755839, 27.469420047911807 ], [ -99.533607681755839, 27.465042170813025 ], [ -99.538180155464104, 27.465042170812985 ], [ -99.538180155464104, 27.469420047911811 ] ] ] } },
{ "type": "Feature", "properties": { "difference_1990_2000": 52.0, "difference_1990_2010": 26.0, "difference_1990_2020": 13.0 }, "geometry": { "type": "Polygon", "coordinates": [ [ [ -99.538180155464104, 27.39939463303401 ], [ -99.533607681755839, 27.399394633034014 ], [ -99.533607681755839, 27.395019503024379 ], [ -99.538180155464104, 27.395019503024333 ], [ -99.538180155464104, 27.39939463303401 ] ] ] } },
{ "type": "Feature", "properties": { "difference_1990_2000": 5.0, "difference_1990_2010": 3.0, "difference_1990_2020": 2.0 }, "geometry": { "type": "Polygon", "coordinates": [ [ [ -99.538180155464104, 27.530728416739514 ], [ -99.533607681755839, 27.53072841673951 ], [ -99.533607681755839, 27.526348126322876 ], [ -99.538180155464104, 27.52634812632288 ], [ -99.538180155464104, 27.530728416739514 ] ] ] } },
{ "type": "Feature", "properties": { "difference_1990_2000": 14.0, "difference_1990_2010": 1578.0, "difference_1990_2020": 1650.0 }, "geometry": { "type": "Polygon", "coordinates": [ [ [ -99.538180155464104, 27.456286932677589 ], [ -99.533607681755839, 27.456286932677617 ], [ -99.533607681755839, 27.451909571549386 ], [ -99.538180155464104, 27.451909571549383 ], [ -99.538180155464104, 27.456286932677589 ] ] ] } },
{ "type": "Feature", "properties": { "difference_1990_2000": -36.0, "difference_1990_2010": -512.0, "difference_1990_2020": -557.0 }, "geometry": { "type": "Polygon", "coordinates": [ [ [ -99.538180155464104, 27.482554711881932 ], [ -99.533607681755839, 27.482554711881949 ], [ -99.533607681755839, 27.478176318400454 ], [ -99.538180155464104, 27.478176318400418 ], [ -99.538180155464104, 27.482554711881932 ] ] ] } },
{ "type": "Feature", "properties": { "difference_1990_2000": 106.0, "difference_1990_2010": -236.0, "difference_1990_2020": -225.0 }, "geometry": { "type": "Polygon", "coordinates": [ [ [ -99.538180155464104, 27.500070008458625 ], [ -99.533607681755839, 27.500070008458653 ], [ -99.533607681755839, 27.495690925825151 ], [ -99.538180155464104, 27.495690925825127 ], [ -99.538180155464104, 27.500070008458625 ] ] ] } },
{ "type": "Feature", "properties": { "difference_1990_2000": 37.0, "difference_1990_2010": 6.0, "difference_1990_2020": 26.0 }, "geometry": { "type": "Polygon", "coordinates": [ [ [ -99.538180155464104, 27.513208290958843 ], [ -99.533607681755839, 27.51320829095884 ], [ -99.533607681755839, 27.508828690979612 ], [ -99.538180155464104, 27.508828690979584 ], [ -99.538180155464104, 27.513208290958843 ] ] ] } },
{ "type": "Feature", "properties": { "difference_1990_2000": 13.0, "difference_1990_2010": 209.0, "difference_1990_2020": 296.0 }, "geometry": { "type": "Polygon", "coordinates": [ [ [ -99.538180155464104, 27.443155364943184 ], [ -99.533607681755839, 27.443155364943198 ], [ -99.533607681755839, 27.438778519373802 ], [ -99.538180155464104, 27.438778519373781 ], [ -99.538180155464104, 27.443155364943184 ] ] ] } },
{ "type": "Feature", "properties": { "difference_1990_2000": 53.0, "difference_1990_2010": 60.0, "difference_1990_2020": 40.0 }, "geometry": { "type": "Polygon", "coordinates": [ [ [ -99.538180155464104, 27.416896867035007 ], [ -99.533607681755839, 27.416896867034964 ], [ -99.533607681755839, 27.412521051349216 ], [ -99.538180155464104, 27.412521051349195 ], [ -99.538180155464104, 27.416896867035007 ] ] ] } },
{ "type": "Feature", "properties": { "difference_1990_2000": -59.0, "difference_1990_2010": -597.0, "difference_1990_2020": -688.0 }, "geometry": { "type": "Polygon", "coordinates": [ [ [ -99.538180155464104, 27.478176318400418 ], [ -99.533607681755839, 27.478176318400454 ], [ -99.533607681755839, 27.473798097092338 ], [ -99.538180155464104, 27.473798097092306 ], [ -99.538180155464104, 27.478176318400418 ] ] ] } },
{ "type": "Feature", "properties": { "difference_1990_2000": 5.0, "difference_1990_2010": 1026.0, "difference_1990_2020": 1114.0 }, "geometry": { "type": "Polygon", "coordinates": [ [ [ -99.538180155464104, 27.460664465750167 ], [ -99.533607681755839, 27.460664465750217 ], [ -99.533607681755839, 27.456286932677617 ], [ -99.538180155464104, 27.456286932677589 ], [ -99.538180155464104, 27.460664465750167 ] ] ] } },
{ "type": "Feature", "properties": { "difference_1990_2000": 162.0, "difference_1990_2010": 561.0, "difference_1990_2020": 573.0 }, "geometry": { "type": "Polygon", "coordinates": [ [ [ -99.538180155464104, 27.421272854253889 ], [ -99.533607681755839, 27.421272854253946 ], [ -99.533607681755839, 27.416896867034993 ], [ -99.538180155464104, 27.416896867035025 ], [ -99.538180155464104, 27.421272854253889 ] ] ] } },
{ "type": "Feature", "properties": { "difference_1990_2000": -4.0, "difference_1990_2010": -643.0, "difference_1990_2020": -602.0 }, "geometry": { "type": "Polygon", "coordinates": [ [ [ -99.538180155464104, 27.491312015548417 ], [ -99.533607681755839, 27.491312015548392 ], [ -99.533607681755839, 27.486933277582665 ], [ -99.538180155464104, 27.486933277582644 ], [ -99.538180155464104, 27.491312015548417 ] ] ] } },
{ "type": "Feature", "properties": { "difference_1990_2000": 8.0, "difference_1990_2010": 222.0, "difference_1990_2020": 246.0 }, "geometry": { "type": "Polygon", "coordinates": [ [ [ -99.538180155464104, 27.395019503024333 ], [ -99.533607681755839, 27.395019503024379 ], [ -99.533607681755839, 27.390644544319716 ], [ -99.538180155464104, 27.390644544319716 ], [ -99.538180155464104, 27.395019503024333 ] ] ] } },
{ "type": "Feature", "properties": { "difference_1990_2000": 288.0, "difference_1990_2010": -62.0, "difference_1990_2020": -22.0 }, "geometry": { "type": "Polygon", "coordinates": [ [ [ -99.538180155464104, 27.504449263494799 ], [ -99.533607681755839, 27.504449263494806 ], [ -99.533607681755839, 27.500070008458653 ], [ -99.538180155464104, 27.500070008458625 ], [ -99.538180155464104, 27.504449263494799 ] ] ] } },
{ "type": "Feature", "properties": { "difference_1990_2000": 254.0, "difference_1990_2010": 828.0, "difference_1990_2020": 816.0 }, "geometry": { "type": "Polygon", "coordinates": [ [ [ -99.538180155464104, 27.425649013051611 ], [ -99.533607681755839, 27.425649013051608 ], [ -99.533607681755839, 27.421272854253946 ], [ -99.538180155464104, 27.421272854253889 ], [ -99.538180155464104, 27.425649013051611 ] ] ] } },
{ "type": "Feature", "properties": { "difference_1990_2000": 29.0, "difference_1990_2010": 6.0, "difference_1990_2020": 20.0 }, "geometry": { "type": "Polygon", "coordinates": [ [ [ -99.538180155464104, 27.517588063478495 ], [ -99.533607681755839, 27.517588063478499 ], [ -99.533607681755839, 27.51320829095884 ], [ -99.538180155464104, 27.513208290958843 ], [ -99.538180155464104, 27.517588063478495 ] ] ] } },
{ "type": "Feature", "properties": { "difference_1990_2000": 3.0, "difference_1990_2010": 1.0, "difference_1990_2020": 1.0 }, "geometry": { "type": "Polygon", "coordinates": [ [ [ -99.538180155464104, 27.535108879880397 ], [ -99.533607681755839, 27.53510887988039 ], [ -99.533607681755839, 27.53072841673951 ], [ -99.538180155464104, 27.530728416739514 ], [ -99.538180155464104, 27.535108879880397 ] ] ] } },
{ "type": "Feature", "properties": { "difference_1990_2000": 58.0, "difference_1990_2010": 118.0, "difference_1990_2020": 110.0 }, "geometry": { "type": "Polygon", "coordinates": [ [ [ -99.538180155464104, 27.430025343473691 ], [ -99.533607681755839, 27.43002534347368 ], [ -99.533607681755839, 27.425649013051608 ], [ -99.538180155464104, 27.425649013051611 ], [ -99.538180155464104, 27.430025343473691 ] ] ] } },
{ "type": "Feature", "properties": { "difference_1990_2000": 58.0, "difference_1990_2010": 25.0, "difference_1990_2020": 36.0 }, "geometry": { "type": "Polygon", "coordinates": [ [ [ -99.538180155464104, 27.408145407150833 ], [ -99.533607681755839, 27.408145407150833 ], [ -99.533607681755839, 27.403769934394294 ], [ -99.538180155464104, 27.403769934394298 ], [ -99.538180155464104, 27.408145407150833 ] ] ] } },
{ "type": "Feature", "properties": { "difference_1990_2000": -1.0, "difference_1990_2010": -1.0, "difference_1990_2020": -1.0 }, "geometry": { "type": "Polygon", "coordinates": [ [ [ -99.538180155464104, 27.543870324518839 ], [ -99.533607681755839, 27.543870324518831 ], [ -99.533607681755839, 27.53948951579148 ], [ -99.538180155464104, 27.53948951579148 ], [ -99.538180155464104, 27.543870324518839 ] ] ] } },
{ "type": "Feature", "properties": { "difference_1990_2000": 6.0, "difference_1990_2010": -552.0, "difference_1990_2020": -526.0 }, "geometry": { "type": "Polygon", "coordinates": [ [ [ -99.538180155464104, 27.495690925825127 ], [ -99.533607681755839, 27.495690925825151 ], [ -99.533607681755839, 27.491312015548392 ], [ -99.538180155464104, 27.491312015548417 ], [ -99.538180155464104, 27.495690925825127 ] ] ] } },
{ "type": "Feature", "properties": { "difference_1990_2000": 0.0, "difference_1990_2010": 472.0, "difference_1990_2020": 532.0 }, "geometry": { "type": "Polygon", "coordinates": [ [ [ -99.538180155464104, 27.390644544319716 ], [ -99.533607681755839, 27.390644544319716 ], [ -99.533607681755839, 27.386269756874597 ], [ -99.538180155464104, 27.386269756874572 ], [ -99.538180155464104, 27.390644544319716 ] ] ] } },
{ "type": "Feature", "properties": { "difference_1990_2000": 0.0, "difference_1990_2010": 24.0, "difference_1990_2020": 28.0 }, "geometry": { "type": "Polygon", "coordinates": [ [ [ -99.538180155464104, 27.386269756874572 ], [ -99.533607681755839, 27.386269756874597 ], [ -99.533607681755839, 27.381895140643344 ], [ -99.538180155464104, 27.381895140643348 ], [ -99.538180155464104, 27.386269756874572 ] ] ] } },
{ "type": "Feature", "properties": { "difference_1990_2000": 0.0, "difference_1990_2010": 1.0, "difference_1990_2020": 1.0 }, "geometry": { "type": "Polygon", "coordinates": [ [ [ -99.538180155464104, 27.521968008584562 ], [ -99.533607681755839, 27.521968008584558 ], [ -99.533607681755839, 27.517588063478499 ], [ -99.538180155464104, 27.517588063478495 ], [ -99.538180155464104, 27.521968008584562 ] ] ] } },
{ "type": "Feature", "properties": { "difference_1990_2000": 16.0, "difference_1990_2010": 114.0, "difference_1990_2020": 160.0 }, "geometry": { "type": "Polygon", "coordinates": [ [ [ -99.538180155464104, 27.438778519373781 ], [ -99.533607681755839, 27.438778519373802 ], [ -99.533607681755839, 27.43440184556583 ], [ -99.538180155464104, 27.43440184556583 ], [ -99.538180155464104, 27.438778519373781 ] ] ] } },
{ "type": "Feature", "properties": { "difference_1990_2000": 21.0, "difference_1990_2010": 6.0, "difference_1990_2020": -18.0 }, "geometry": { "type": "Polygon", "coordinates": [ [ [ -99.538180155464104, 27.412521051349195 ], [ -99.533607681755839, 27.412521051349216 ], [ -99.533607681755839, 27.408145407150833 ], [ -99.538180155464104, 27.408145407150833 ], [ -99.538180155464104, 27.412521051349195 ] ] ] } },
{ "type": "Feature", "properties": { "difference_1990_2000": 16.0, "difference_1990_2010": 743.0, "difference_1990_2020": 1035.0 }, "geometry": { "type": "Polygon", "coordinates": [ [ [ -99.538180155464104, 27.451909571549383 ], [ -99.533607681755839, 27.451909571549386 ], [ -99.533607681755839, 27.447532382319849 ], [ -99.538180155464104, 27.447532382319849 ], [ -99.538180155464104, 27.451909571549383 ] ] ] } },
{ "type": "Feature", "properties": { "difference_1990_2000": 60.0, "difference_1990_2010": 25.0, "difference_1990_2020": 38.0 }, "geometry": { "type": "Polygon", "coordinates": [ [ [ -99.538180155464104, 27.403769934394298 ], [ -99.533607681755839, 27.403769934394294 ], [ -99.533607681755839, 27.399394633034014 ], [ -99.538180155464104, 27.39939463303401 ], [ -99.538180155464104, 27.403769934394298 ] ] ] } },
{ "type": "Feature", "properties": { "difference_1990_2000": 16.0, "difference_1990_2010": 429.0, "difference_1990_2020": 637.0 }, "geometry": { "type": "Polygon", "coordinates": [ [ [ -99.538180155464104, 27.447532382319849 ], [ -99.533607681755839, 27.447532382319849 ], [ -99.533607681755839, 27.443155364943198 ], [ -99.538180155464104, 27.443155364943184 ], [ -99.538180155464104, 27.447532382319849 ] ] ] } },
{ "type": "Feature", "properties": { "difference_1990_2000": -2.0, "difference_1990_2010": -2.0, "difference_1990_2020": -2.0 }, "geometry": { "type": "Polygon", "coordinates": [ [ [ -99.538180155464104, 27.53948951579148 ], [ -99.533607681755839, 27.53948951579148 ], [ -99.533607681755839, 27.53510887988039 ], [ -99.538180155464104, 27.535108879880397 ], [ -99.538180155464104, 27.53948951579148 ] ] ] } },
{ "type": "Feature", "properties": { "difference_1990_2000": 35.0, "difference_1990_2010": 64.0, "difference_1990_2020": 66.0 }, "geometry": { "type": "Polygon", "coordinates": [ [ [ -99.538180155464104, 27.43440184556583 ], [ -99.533607681755839, 27.43440184556583 ], [ -99.533607681755839, 27.43002534347368 ], [ -99.538180155464104, 27.430025343473691 ], [ -99.538180155464104, 27.43440184556583 ] ] ] } },
{ "type": "Feature", "properties": { "difference_1990_2000": 21.0, "difference_1990_2010": 3.0, "difference_1990_2020": 14.0 }, "geometry": { "type": "Polygon", "coordinates": [ [ [ -99.529035208047574, 27.508828690979584 ], [ -99.524462734339295, 27.508828690979581 ], [ -99.524462734339295, 27.504449263494795 ], [ -99.529035208047574, 27.504449263494802 ], [ -99.529035208047574, 27.508828690979584 ] ] ] } },
{ "type": "Feature", "properties": { "difference_1990_2000": 31.0, "difference_1990_2010": -345.0, "difference_1990_2020": -370.0 }, "geometry": { "type": "Polygon", "coordinates": [ [ [ -99.529035208047574, 27.465042170813014 ], [ -99.524462734339295, 27.465042170812985 ], [ -99.524462734339295, 27.460664465750188 ], [ -99.529035208047574, 27.460664465750195 ], [ -99.529035208047574, 27.465042170813014 ] ] ] } },
{ "type": "Feature", "properties": { "difference_1990_2000": 1.0, "difference_1990_2010": 2.0, "difference_1990_2020": 2.0 }, "geometry": { "type": "Polygon", "coordinates": [ [ [ -99.529035208047574, 27.526348126322883 ], [ -99.524462734339295, 27.526348126322855 ], [ -99.524462734339295, 27.521968008584562 ], [ -99.529035208047574, 27.521968008584569 ], [ -99.529035208047574, 27.526348126322883 ] ] ] } },
{ "type": "Feature", "properties": { "difference_1990_2000": -112.0, "difference_1990_2010": -612.0, "difference_1990_2020": -746.0 }, "geometry": { "type": "Polygon", "coordinates": [ [ [ -99.529035208047574, 27.473798097092335 ], [ -99.524462734339295, 27.473798097092338 ], [ -99.524462734339295, 27.469420047911775 ], [ -99.529035208047574, 27.469420047911807 ], [ -99.529035208047574, 27.473798097092335 ] ] ] } },
{ "type": "Feature", "properties": { "difference_1990_2000": 6.0, "difference_1990_2010": -426.0, "difference_1990_2020": -450.0 }, "geometry": { "type": "Polygon", "coordinates": [ [ [ -99.529035208047574, 27.469420047911807 ], [ -99.524462734339295, 27.469420047911775 ], [ -99.524462734339295, 27.465042170812985 ], [ -99.529035208047574, 27.465042170813014 ], [ -99.529035208047574, 27.469420047911807 ] ] ] } },
{ "type": "Feature", "properties": { "difference_1990_2000": -263.0, "difference_1990_2010": -786.0, "difference_1990_2020": -912.0 }, "geometry": { "type": "Polygon", "coordinates": [ [ [ -99.529035208047574, 27.486933277582665 ], [ -99.524462734339295, 27.486933277582644 ], [ -99.524462734339295, 27.482554711881928 ], [ -99.529035208047574, 27.482554711881928 ], [ -99.529035208047574, 27.486933277582665 ] ] ] } },
{ "type": "Feature", "properties": { "difference_1990_2000": 0.0, "difference_1990_2010": 1.0, "difference_1990_2020": 1.0 }, "geometry": { "type": "Polygon", "coordinates": [ [ [ -99.529035208047574, 27.530728416739514 ], [ -99.524462734339295, 27.530728416739496 ], [ -99.524462734339295, 27.526348126322855 ], [ -99.529035208047574, 27.526348126322883 ], [ -99.529035208047574, 27.530728416739514 ] ] ] } },
{ "type": "Feature", "properties": { "difference_1990_2000": 11.0, "difference_1990_2010": 56.0, "difference_1990_2020": 107.0 }, "geometry": { "type": "Polygon", "coordinates": [ [ [ -99.529035208047574, 27.456286932677592 ], [ -99.524462734339295, 27.456286932677589 ], [ -99.524462734339295, 27.451909571549383 ], [ -99.529035208047574, 27.451909571549383 ], [ -99.529035208047574, 27.456286932677592 ] ] ] } },
{ "type": "Feature", "properties": { "difference_1990_2000": -263.0, "difference_1990_2010": -767.0, "difference_1990_2020": -920.0 }, "geometry": { "type": "Polygon", "coordinates": [ [ [ -99.529035208047574, 27.482554711881928 ], [ -99.524462734339295, 27.482554711881928 ], [ -99.524462734339295, 27.478176318400418 ], [ -99.529035208047574, 27.478176318400461 ], [ -99.529035208047574, 27.482554711881928 ] ] ] } },
{ "type": "Feature", "properties": { "difference_1990_2000": -70.0, "difference_1990_2010": -391.0, "difference_1990_2020": -417.0 }, "geometry": { "type": "Polygon", "coordinates": [ [ [ -99.529035208047574, 27.500070008458618 ], [ -99.524462734339295, 27.500070008458621 ], [ -99.524462734339295, 27.495690925825123 ], [ -99.529035208047574, 27.495690925825127 ], [ -99.529035208047574, 27.500070008458618 ] ] ] } },
{ "type": "Feature", "properties": { "difference_1990_2000": 30.0, "difference_1990_2010": 5.0, "difference_1990_2020": 21.0 }, "geometry": { "type": "Polygon", "coordinates": [ [ [ -99.529035208047574, 27.513208290958847 ], [ -99.524462734339295, 27.51320829095884 ], [ -99.524462734339295, 27.508828690979581 ], [ -99.529035208047574, 27.508828690979584 ], [ -99.529035208047574, 27.513208290958847 ] ] ] } },
{ "type": "Feature", "properties": { "difference_1990_2000": 31.0, "difference_1990_2010": 341.0, "difference_1990_2020": 481.0 }, "geometry": { "type": "Polygon", "coordinates": [ [ [ -99.529035208047574, 27.443155364943195 ], [ -99.524462734339295, 27.443155364943198 ], [ -99.524462734339295, 27.438778519373805 ], [ -99.529035208047574, 27.438778519373777 ], [ -99.529035208047574, 27.443155364943195 ] ] ] } },
{ "type": "Feature", "properties": { "difference_1990_2000": 7.0, "difference_1990_2010": 77.0, "difference_1990_2020": 116.0 }, "geometry": { "type": "Polygon", "coordinates": [ [ [ -99.529035208047574, 27.416896867035021 ], [ -99.524462734339295, 27.416896867034964 ], [ -99.524462734339295, 27.412521051349163 ], [ -99.529035208047574, 27.41252105134922 ], [ -99.529035208047574, 27.416896867035021 ] ] ] } },
{ "type": "Feature", "properties": { "difference_1990_2000": -207.0, "difference_1990_2010": -719.0, "difference_1990_2020": -890.0 }, "geometry": { "type": "Polygon", "coordinates": [ [ [ -99.529035208047574, 27.478176318400461 ], [ -99.524462734339295, 27.478176318400418 ], [ -99.524462734339295, 27.473798097092338 ], [ -99.529035208047574, 27.473798097092335 ], [ -99.529035208047574, 27.478176318400461 ] ] ] } },
{ "type": "Feature", "properties": { "difference_1990_2000": -195.0, "difference_1990_2010": -1044.0, "difference_1990_2020": -1115.0 }, "geometry": { "type": "Polygon", "coordinates": [ [ [ -99.529035208047574, 27.491312015548424 ], [ -99.524462734339295, 27.491312015548388 ], [ -99.524462734339295, 27.486933277582644 ], [ -99.529035208047574, 27.486933277582665 ], [ -99.529035208047574, 27.491312015548424 ] ] ] } },
{ "type": "Feature", "properties": { "difference_1990_2000": 0.0, "difference_1990_2010": 17.0, "difference_1990_2020": 14.0 }, "geometry": { "type": "Polygon", "coordinates": [ [ [ -99.529035208047574, 27.395019503024336 ], [ -99.524462734339295, 27.395019503024333 ], [ -99.524462734339295, 27.39064454431972 ], [ -99.529035208047574, 27.390644544319745 ], [ -99.529035208047574, 27.395019503024336 ] ] ] } },
{ "type": "Feature", "properties": { "difference_1990_2000": 19.0, "difference_1990_2010": -21.0, "difference_1990_2020": -10.0 }, "geometry": { "type": "Polygon", "coordinates": [ [ [ -99.529035208047574, 27.460664465750195 ], [ -99.524462734339295, 27.460664465750188 ], [ -99.524462734339295, 27.456286932677589 ], [ -99.529035208047574, 27.456286932677592 ], [ -99.529035208047574, 27.460664465750195 ] ] ] } },
{ "type": "Feature", "properties": { "difference_1990_2000": -3.0, "difference_1990_2010": 73.0, "difference_1990_2020": 128.0 }, "geometry": { "type": "Polygon", "coordinates": [ [ [ -99.529035208047574, 27.421272854253925 ], [ -99.524462734339295, 27.421272854253917 ], [ -99.524462734339295, 27.416896867034996 ], [ -99.529035208047574, 27.416896867035046 ], [ -99.529035208047574, 27.421272854253925 ] ] ] } },
{ "type": "Feature", "properties": { "difference_1990_2000": 10.0, "difference_1990_2010": 2.0, "difference_1990_2020": 7.0 }, "geometry": { "type": "Polygon", "coordinates": [ [ [ -99.529035208047574, 27.504449263494802 ], [ -99.524462734339295, 27.504449263494795 ], [ -99.524462734339295, 27.500070008458621 ], [ -99.529035208047574, 27.500070008458618 ], [ -99.529035208047574, 27.504449263494802 ] ] ] } },
{ "type": "Feature", "properties": { "difference_1990_2000": -4.0, "difference_1990_2010": 87.0, "difference_1990_2020": 147.0 }, "geometry": { "type": "Polygon", "coordinates": [ [ [ -99.529035208047574, 27.425649013051626 ], [ -99.524462734339295, 27.425649013051611 ], [ -99.524462734339295, 27.421272854253917 ], [ -99.529035208047574, 27.421272854253925 ], [ -99.529035208047574, 27.425649013051626 ] ] ] } },
{ "type": "Feature", "properties": { "difference_1990_2000": 30.0, "difference_1990_2010": 5.0, "difference_1990_2020": 21.0 }, "geometry": { "type": "Polygon", "coordinates": [ [ [ -99.529035208047574, 27.517588063478499 ], [ -99.524462734339295, 27.517588063478492 ], [ -99.524462734339295, 27.51320829095884 ], [ -99.529035208047574, 27.513208290958847 ], [ -99.529035208047574, 27.517588063478499 ] ] ] } },
{ "type": "Feature", "properties": { "difference_1990_2000": 0.0, "difference_1990_2010": 1.0, "difference_1990_2020": 1.0 }, "geometry": { "type": "Polygon", "coordinates": [ [ [ -99.529035208047574, 27.535108879880394 ], [ -99.524462734339295, 27.535108879880372 ], [ -99.524462734339295, 27.530728416739496 ], [ -99.529035208047574, 27.530728416739514 ], [ -99.529035208047574, 27.535108879880394 ] ] ] } },
{ "type": "Feature", "properties": { "difference_1990_2000": -4.0, "difference_1990_2010": 87.0, "difference_1990_2020": 147.0 }, "geometry": { "type": "Polygon", "coordinates": [ [ [ -99.529035208047574, 27.430025343473684 ], [ -99.524462734339295, 27.430025343473684 ], [ -99.524462734339295, 27.425649013051611 ], [ -99.529035208047574, 27.425649013051626 ], [ -99.529035208047574, 27.430025343473684 ] ] ] } },
{ "type": "Feature", "properties": { "difference_1990_2000": 8.0, "difference_1990_2010": 897.0, "difference_1990_2020": 903.0 }, "geometry": { "type": "Polygon", "coordinates": [ [ [ -99.529035208047574, 27.408145407150833 ], [ -99.524462734339295, 27.408145407150837 ], [ -99.524462734339295, 27.403769934394269 ], [ -99.529035208047574, 27.403769934394301 ], [ -99.529035208047574, 27.408145407150833 ] ] ] } },
{ "type": "Feature", "properties": { "difference_1990_2000": 0.0, "difference_1990_2010": 1.0, "difference_1990_2020": 0.0 }, "geometry": { "type": "Polygon", "coordinates": [ [ [ -99.529035208047574, 27.543870324518831 ], [ -99.524462734339295, 27.543870324518839 ], [ -99.524462734339295, 27.539489515791455 ], [ -99.529035208047574, 27.539489515791484 ], [ -99.529035208047574, 27.543870324518831 ] ] ] } },
{ "type": "Feature", "properties": { "difference_1990_2000": -193.0, "difference_1990_2010": -954.0, "difference_1990_2020": -1031.0 }, "geometry": { "type": "Polygon", "coordinates": [ [ [ -99.529035208047574, 27.495690925825127 ], [ -99.524462734339295, 27.495690925825123 ], [ -99.524462734339295, 27.491312015548388 ], [ -99.529035208047574, 27.491312015548424 ], [ -99.529035208047574, 27.495690925825127 ] ] ] } },
{ "type": "Feature", "properties": { "difference_1990_2000": 16.0, "difference_1990_2010": 115.0, "difference_1990_2020": 159.0 }, "geometry": { "type": "Polygon", "coordinates": [ [ [ -99.529035208047574, 27.438778519373777 ], [ -99.524462734339295, 27.438778519373805 ], [ -99.524462734339295, 27.434401845565816 ], [ -99.529035208047574, 27.434401845565834 ], [ -99.529035208047574, 27.438778519373777 ] ] ] } },
{ "type": "Feature", "properties": { "difference_1990_2000": 0.0, "difference_1990_2010": 5.0, "difference_1990_2020": 5.0 }, "geometry": { "type": "Polygon", "coordinates": [ [ [ -99.529035208047574, 27.390644544319745 ], [ -99.524462734339295, 27.39064454431972 ], [ -99.524462734339295, 27.386269756874572 ], [ -99.529035208047574, 27.386269756874576 ], [ -99.529035208047574, 27.390644544319745 ] ] ] } },
{ "type": "Feature", "properties": { "difference_1990_2000": 68.0, "difference_1990_2010": 141.0, "difference_1990_2020": 220.0 }, "geometry": { "type": "Polygon", "coordinates": [ [ [ -99.529035208047574, 27.451909571549383 ], [ -99.524462734339295, 27.451909571549383 ], [ -99.524462734339295, 27.447532382319849 ], [ -99.529035208047574, 27.447532382319849 ], [ -99.529035208047574, 27.451909571549383 ] ] ] } },
{ "type": "Feature", "properties": { "difference_1990_2000": 6.0, "difference_1990_2010": 2.0, "difference_1990_2020": 5.0 }, "geometry": { "type": "Polygon", "coordinates": [ [ [ -99.529035208047574, 27.521968008584569 ], [ -99.524462734339295, 27.521968008584562 ], [ -99.524462734339295, 27.517588063478492 ], [ -99.529035208047574, 27.517588063478499 ], [ -99.529035208047574, 27.521968008584569 ] ] ] } },
{ "type": "Feature", "properties": { "difference_1990_2000": 22.0, "difference_1990_2010": 623.0, "difference_1990_2020": 608.0 }, "geometry": { "type": "Polygon", "coordinates": [ [ [ -99.529035208047574, 27.41252105134922 ], [ -99.524462734339295, 27.412521051349163 ], [ -99.524462734339295, 27.408145407150837 ], [ -99.529035208047574, 27.408145407150833 ], [ -99.529035208047574, 27.41252105134922 ] ] ] } },
{ "type": "Feature", "properties": { "difference_1990_2000": 0.0, "difference_1990_2010": 149.0, "difference_1990_2020": 156.0 }, "geometry": { "type": "Polygon", "coordinates": [ [ [ -99.529035208047574, 27.403769934394301 ], [ -99.524462734339295, 27.403769934394269 ], [ -99.524462734339295, 27.399394633033985 ], [ -99.529035208047574, 27.39939463303401 ], [ -99.529035208047574, 27.403769934394301 ] ] ] } },
{ "type": "Feature", "properties": { "difference_1990_2000": 62.0, "difference_1990_2010": 336.0, "difference_1990_2020": 474.0 }, "geometry": { "type": "Polygon", "coordinates": [ [ [ -99.529035208047574, 27.447532382319849 ], [ -99.524462734339295, 27.447532382319849 ], [ -99.524462734339295, 27.443155364943198 ], [ -99.529035208047574, 27.443155364943195 ], [ -99.529035208047574, 27.447532382319849 ] ] ] } },
{ "type": "Feature", "properties": { "difference_1990_2000": 0.0, "difference_1990_2010": 1.0, "difference_1990_2020": 1.0 }, "geometry": { "type": "Polygon", "coordinates": [ [ [ -99.529035208047574, 27.539489515791484 ], [ -99.524462734339295, 27.539489515791455 ], [ -99.524462734339295, 27.535108879880372 ], [ -99.529035208047574, 27.535108879880394 ], [ -99.529035208047574, 27.539489515791484 ] ] ] } },
{ "type": "Feature", "properties": { "difference_1990_2000": 6.0, "difference_1990_2010": 79.0, "difference_1990_2020": 123.0 }, "geometry": { "type": "Polygon", "coordinates": [ [ [ -99.529035208047574, 27.434401845565834 ], [ -99.524462734339295, 27.434401845565816 ], [ -99.524462734339295, 27.430025343473684 ], [ -99.529035208047574, 27.430025343473684 ], [ -99.529035208047574, 27.434401845565834 ] ] ] } }
]
}
