{
"type": "FeatureCollection",
"name": "M03.01",
"crs": { "type": "name", "properties": { "name": "urn:ogc:def:crs:OGC:1.3:CRS84" } },
"features": [
{ "type": "Feature", "properties": { "difference_1990_2000": 99.0, "difference_1990_2010": 161.0, "difference_1990_2020": 80.0 }, "geometry": { "type": "Polygon", "coordinates": [ [ [ -110.310928212162807, 24.137580349495778 ], [ -110.306355738454513, 24.137580349495774 ], [ -110.306355738454513, 24.13332257755377 ], [ -110.310928212162807, 24.133322577553749 ], [ -110.310928212162807, 24.137580349495778 ] ] ] } },
{ "type": "Feature", "properties": { "difference_1990_2000": 23.0, "difference_1990_2010": 56.0, "difference_1990_2020": 51.0 }, "geometry": { "type": "Polygon", "coordinates": [ [ [ -110.310928212162807, 24.103522096685253 ], [ -110.306355738454513, 24.103522096685253 ], [ -110.306355738454513, 24.099265445075346 ], [ -110.310928212162807, 24.09926544507535 ], [ -110.310928212162807, 24.103522096685253 ] ] ] } },
{ "type": "Feature", "properties": { "difference_1990_2000": -163.0, "difference_1990_2010": -292.0, "difference_1990_2020": -375.0 }, "geometry": { "type": "Polygon", "coordinates": [ [ [ -110.310928212162807, 24.141838261646861 ], [ -110.306355738454513, 24.141838261646857 ], [ -110.306355738454513, 24.137580349495774 ], [ -110.310928212162807, 24.137580349495778 ], [ -110.310928212162807, 24.141838261646861 ] ] ] } },
{ "type": "Feature", "properties": { "difference_1990_2000": 68.0, "difference_1990_2010": 166.0, "difference_1990_2020": 148.0 }, "geometry": { "type": "Polygon", "coordinates": [ [ [ -110.310928212162807, 24.11203581967608 ], [ -110.306355738454513, 24.112035819676098 ], [ -110.306355738454513, 24.107778888206433 ], [ -110.310928212162807, 24.107778888206436 ], [ -110.310928212162807, 24.11203581967608 ] ] ] } },
{ "type": "Feature", "properties": { "difference_1990_2000": 93.0, "difference_1990_2010": -33.0, "difference_1990_2020": -10.0 }, "geometry": { "type": "Polygon", "coordinates": [ [ [ -110.310928212162807, 24.129064945783558 ], [ -110.306355738454513, 24.12906494578359 ], [ -110.306355738454513, 24.124807454147916 ], [ -110.310928212162807, 24.12480745414792 ], [ -110.310928212162807, 24.129064945783558 ] ] ] } },
{ "type": "Feature", "properties": { "difference_1990_2000": -83.0, "difference_1990_2010": -169.0, "difference_1990_2020": -186.0 }, "geometry": { "type": "Polygon", "coordinates": [ [ [ -110.310928212162807, 24.17164757568964 ], [ -110.306355738454513, 24.171647575689637 ], [ -110.306355738454513, 24.167388681031184 ], [ -110.310928212162807, 24.167388681031184 ], [ -110.310928212162807, 24.17164757568964 ] ] ] } },
{ "type": "Feature", "properties": { "difference_1990_2000": -4.0, "difference_1990_2010": -8.0, "difference_1990_2020": -9.0 }, "geometry": { "type": "Polygon", "coordinates": [ [ [ -110.310928212162807, 24.175906610855559 ], [ -110.306355738454513, 24.175906610855552 ], [ -110.306355738454513, 24.171647575689637 ], [ -110.310928212162807, 24.17164757568964 ], [ -110.310928212162807, 24.175906610855559 ] ] ] } },
{ "type": "Feature", "properties": { "difference_1990_2000": 238.0, "difference_1990_2010": 326.0, "difference_1990_2020": 306.0 }, "geometry": { "type": "Polygon", "coordinates": [ [ [ -110.310928212162807, 24.133322577553749 ], [ -110.306355738454513, 24.13332257755377 ], [ -110.306355738454513, 24.12906494578359 ], [ -110.310928212162807, 24.129064945783558 ], [ -110.310928212162807, 24.133322577553749 ] ] ] } },
{ "type": "Feature", "properties": { "difference_1990_2000": -158.0, "difference_1990_2010": -296.0, "difference_1990_2020": -382.0 }, "geometry": { "type": "Polygon", "coordinates": [ [ [ -110.310928212162807, 24.158871313087243 ], [ -110.306355738454513, 24.158871313087246 ], [ -110.306355738454513, 24.1546128397272 ], [ -110.310928212162807, 24.154612839727196 ], [ -110.310928212162807, 24.158871313087243 ] ] ] } },
{ "type": "Feature", "properties": { "difference_1990_2000": -138.0, "difference_1990_2010": -347.0, "difference_1990_2020": -398.0 }, "geometry": { "type": "Polygon", "coordinates": [ [ [ -110.310928212162807, 24.154612839727196 ], [ -110.306355738454513, 24.1546128397272 ], [ -110.306355738454513, 24.150354506725282 ], [ -110.310928212162807, 24.150354506725282 ], [ -110.310928212162807, 24.154612839727196 ] ] ] } },
{ "type": "Feature", "properties": { "difference_1990_2000": 244.0, "difference_1990_2010": 246.0, "difference_1990_2020": 207.0 }, "geometry": { "type": "Polygon", "coordinates": [ [ [ -110.310928212162807, 24.116292891131437 ], [ -110.306355738454513, 24.11629289113143 ], [ -110.306355738454513, 24.112035819676098 ], [ -110.310928212162807, 24.11203581967608 ], [ -110.310928212162807, 24.116292891131437 ] ] ] } },
{ "type": "Feature", "properties": { "difference_1990_2000": 64.0, "difference_1990_2010": 148.0, "difference_1990_2020": 146.0 }, "geometry": { "type": "Polygon", "coordinates": [ [ [ -110.310928212162807, 24.107778888206436 ], [ -110.306355738454513, 24.107778888206433 ], [ -110.306355738454513, 24.103522096685253 ], [ -110.310928212162807, 24.103522096685253 ], [ -110.310928212162807, 24.107778888206436 ] ] ] } },
{ "type": "Feature", "properties": { "difference_1990_2000": 351.0, "difference_1990_2010": 231.0, "difference_1990_2020": 189.0 }, "geometry": { "type": "Polygon", "coordinates": [ [ [ -110.310928212162807, 24.12480745414792 ], [ -110.306355738454513, 24.124807454147916 ], [ -110.306355738454513, 24.120550102609638 ], [ -110.310928212162807, 24.120550102609617 ], [ -110.310928212162807, 24.12480745414792 ] ] ] } },
{ "type": "Feature", "properties": { "difference_1990_2000": 454.0, "difference_1990_2010": 342.0, "difference_1990_2020": 275.0 }, "geometry": { "type": "Polygon", "coordinates": [ [ [ -110.310928212162807, 24.120550102609563 ], [ -110.306355738454513, 24.120550102609585 ], [ -110.306355738454513, 24.11629289113143 ], [ -110.310928212162807, 24.116292891131437 ], [ -110.310928212162807, 24.120550102609563 ] ] ] } },
{ "type": "Feature", "properties": { "difference_1990_2000": -127.0, "difference_1990_2010": -267.0, "difference_1990_2020": -305.0 }, "geometry": { "type": "Polygon", "coordinates": [ [ [ -110.310928212162807, 24.167388681031184 ], [ -110.306355738454513, 24.167388681031184 ], [ -110.306355738454513, 24.163129926842828 ], [ -110.310928212162807, 24.163129926842831 ], [ -110.310928212162807, 24.167388681031184 ] ] ] } },
{ "type": "Feature", "properties": { "difference_1990_2000": -78.0, "difference_1990_2010": -143.0, "difference_1990_2020": -195.0 }, "geometry": { "type": "Polygon", "coordinates": [ [ [ -110.310928212162807, 24.146096314044303 ], [ -110.306355738454513, 24.146096314044296 ], [ -110.306355738454513, 24.141838261646857 ], [ -110.310928212162807, 24.141838261646861 ], [ -110.310928212162807, 24.146096314044303 ] ] ] } },
{ "type": "Feature", "properties": { "difference_1990_2000": -141.0, "difference_1990_2010": -288.0, "difference_1990_2020": -359.0 }, "geometry": { "type": "Polygon", "coordinates": [ [ [ -110.310928212162807, 24.163129926842831 ], [ -110.306355738454513, 24.163129926842828 ], [ -110.306355738454513, 24.158871313087246 ], [ -110.310928212162807, 24.158871313087243 ], [ -110.310928212162807, 24.163129926842831 ] ] ] } },
{ "type": "Feature", "properties": { "difference_1990_2000": -105.0, "difference_1990_2010": -236.0, "difference_1990_2020": -298.0 }, "geometry": { "type": "Polygon", "coordinates": [ [ [ -110.310928212162807, 24.150354506725282 ], [ -110.306355738454513, 24.150354506725282 ], [ -110.306355738454513, 24.146096314044296 ], [ -110.310928212162807, 24.146096314044303 ], [ -110.310928212162807, 24.150354506725282 ] ] ] } },
{ "type": "Feature", "properties": { "difference_1990_2000": -123.0, "difference_1990_2010": -231.0, "difference_1990_2020": -313.0 }, "geometry": { "type": "Polygon", "coordinates": [ [ [ -110.301783264746234, 24.137580349495778 ], [ -110.297210791037955, 24.137580349495778 ], [ -110.297210791037955, 24.133322577553791 ], [ -110.301783264746234, 24.133322577553766 ], [ -110.301783264746234, 24.137580349495778 ] ] ] } },
{ "type": "Feature", "properties": { "difference_1990_2000": -218.0, "difference_1990_2010": -444.0, "difference_1990_2020": -562.0 }, "geometry": { "type": "Polygon", "coordinates": [ [ [ -110.301783264746234, 24.141838261646861 ], [ -110.297210791037955, 24.141838261646889 ], [ -110.297210791037955, 24.137580349495778 ], [ -110.301783264746234, 24.137580349495778 ], [ -110.301783264746234, 24.141838261646861 ] ] ] } },
{ "type": "Feature", "properties": { "difference_1990_2000": 112.0, "difference_1990_2010": 323.0, "difference_1990_2020": 380.0 }, "geometry": { "type": "Polygon", "coordinates": [ [ [ -110.301783264746234, 24.112035819676098 ], [ -110.297210791037955, 24.112035819676098 ], [ -110.297210791037955, 24.107778888206468 ], [ -110.301783264746234, 24.107778888206433 ], [ -110.301783264746234, 24.112035819676098 ] ] ] } },
{ "type": "Feature", "properties": { "difference_1990_2000": 9.0, "difference_1990_2010": 23.0, "difference_1990_2020": 42.0 }, "geometry": { "type": "Polygon", "coordinates": [ [ [ -110.301783264746234, 24.184425102859045 ], [ -110.297210791037955, 24.184425102859048 ], [ -110.297210791037955, 24.180165786566185 ], [ -110.301783264746234, 24.180165786566182 ], [ -110.301783264746234, 24.184425102859045 ] ] ] } },
{ "type": "Feature", "properties": { "difference_1990_2000": -42.0, "difference_1990_2010": -76.0, "difference_1990_2020": -124.0 }, "geometry": { "type": "Polygon", "coordinates": [ [ [ -110.301783264746234, 24.171647575689633 ], [ -110.297210791037955, 24.171647575689601 ], [ -110.297210791037955, 24.167388681031195 ], [ -110.301783264746234, 24.167388681031184 ], [ -110.301783264746234, 24.171647575689633 ] ] ] } },
{ "type": "Feature", "properties": { "difference_1990_2000": -89.0, "difference_1990_2010": -74.0, "difference_1990_2020": -62.0 }, "geometry": { "type": "Polygon", "coordinates": [ [ [ -110.301783264746234, 24.175906610855552 ], [ -110.297210791037955, 24.175906610855556 ], [ -110.297210791037955, 24.171647575689601 ], [ -110.301783264746234, 24.171647575689633 ], [ -110.301783264746234, 24.175906610855552 ] ] ] } },
{ "type": "Feature", "properties": { "difference_1990_2000": 35.0, "difference_1990_2010": 168.0, "difference_1990_2020": 138.0 }, "geometry": { "type": "Polygon", "coordinates": [ [ [ -110.301783264746234, 24.129064945783611 ], [ -110.297210791037955, 24.129064945783593 ], [ -110.297210791037955, 24.124807454147934 ], [ -110.301783264746234, 24.124807454147934 ], [ -110.301783264746234, 24.129064945783611 ] ] ] } },
{ "type": "Feature", "properties": { "difference_1990_2000": 2.0, "difference_1990_2010": 4.0, "difference_1990_2020": 8.0 }, "geometry": { "type": "Polygon", "coordinates": [ [ [ -110.301783264746234, 24.188684559771385 ], [ -110.297210791037955, 24.188684559771346 ], [ -110.297210791037955, 24.184425102859048 ], [ -110.301783264746234, 24.184425102859045 ], [ -110.301783264746234, 24.188684559771385 ] ] ] } },
{ "type": "Feature", "properties": { "difference_1990_2000": -8.0, "difference_1990_2010": 20.0, "difference_1990_2020": -38.0 }, "geometry": { "type": "Polygon", "coordinates": [ [ [ -110.301783264746234, 24.133322577553766 ], [ -110.297210791037955, 24.133322577553791 ], [ -110.297210791037955, 24.129064945783593 ], [ -110.301783264746234, 24.129064945783611 ], [ -110.301783264746234, 24.133322577553766 ] ] ] } },
{ "type": "Feature", "properties": { "difference_1990_2000": 303.0, "difference_1990_2010": 91.0, "difference_1990_2020": -150.0 }, "geometry": { "type": "Polygon", "coordinates": [ [ [ -110.301783264746234, 24.158871313087275 ], [ -110.297210791037955, 24.158871313087275 ], [ -110.297210791037955, 24.154612839727196 ], [ -110.301783264746234, 24.154612839727196 ], [ -110.301783264746234, 24.158871313087275 ] ] ] } },
{ "type": "Feature", "properties": { "difference_1990_2000": -127.0, "difference_1990_2010": -337.0, "difference_1990_2020": -475.0 }, "geometry": { "type": "Polygon", "coordinates": [ [ [ -110.301783264746234, 24.154612839727196 ], [ -110.297210791037955, 24.154612839727196 ], [ -110.297210791037955, 24.150354506725286 ], [ -110.301783264746234, 24.150354506725286 ], [ -110.301783264746234, 24.154612839727196 ] ] ] } },
{ "type": "Feature", "properties": { "difference_1990_2000": -148.0, "difference_1990_2010": -29.0, "difference_1990_2020": -10.0 }, "geometry": { "type": "Polygon", "coordinates": [ [ [ -110.301783264746234, 24.116292891131433 ], [ -110.297210791037955, 24.116292891131433 ], [ -110.297210791037955, 24.112035819676098 ], [ -110.301783264746234, 24.112035819676098 ], [ -110.301783264746234, 24.116292891131433 ] ] ] } },
{ "type": "Feature", "properties": { "difference_1990_2000": 27.0, "difference_1990_2010": 48.0, "difference_1990_2020": 55.0 }, "geometry": { "type": "Polygon", "coordinates": [ [ [ -110.301783264746234, 24.107778888206433 ], [ -110.297210791037955, 24.107778888206468 ], [ -110.297210791037955, 24.103522096685261 ], [ -110.301783264746234, 24.103522096685257 ], [ -110.301783264746234, 24.107778888206433 ] ] ] } },
{ "type": "Feature", "properties": { "difference_1990_2000": 264.0, "difference_1990_2010": 261.0, "difference_1990_2020": 231.0 }, "geometry": { "type": "Polygon", "coordinates": [ [ [ -110.301783264746234, 24.124807454147934 ], [ -110.297210791037955, 24.124807454147934 ], [ -110.297210791037955, 24.120550102609634 ], [ -110.301783264746234, 24.12055010260967 ], [ -110.301783264746234, 24.124807454147934 ] ] ] } },
{ "type": "Feature", "properties": { "difference_1990_2000": -139.0, "difference_1990_2010": -23.0, "difference_1990_2020": -4.0 }, "geometry": { "type": "Polygon", "coordinates": [ [ [ -110.301783264746234, 24.120550102609581 ], [ -110.297210791037955, 24.120550102609581 ], [ -110.297210791037955, 24.116292891131412 ], [ -110.301783264746234, 24.116292891131433 ], [ -110.301783264746234, 24.120550102609581 ] ] ] } },
{ "type": "Feature", "properties": { "difference_1990_2000": -120.0, "difference_1990_2010": -270.0, "difference_1990_2020": -354.0 }, "geometry": { "type": "Polygon", "coordinates": [ [ [ -110.301783264746234, 24.167388681031184 ], [ -110.297210791037955, 24.167388681031195 ], [ -110.297210791037955, 24.163129926842831 ], [ -110.301783264746234, 24.163129926842831 ], [ -110.301783264746234, 24.167388681031184 ] ] ] } },
{ "type": "Feature", "properties": { "difference_1990_2000": -174.0, "difference_1990_2010": -395.0, "difference_1990_2020": -544.0 }, "geometry": { "type": "Polygon", "coordinates": [ [ [ -110.301783264746234, 24.1460963140443 ], [ -110.297210791037955, 24.146096314044303 ], [ -110.297210791037955, 24.141838261646889 ], [ -110.301783264746234, 24.141838261646861 ], [ -110.301783264746234, 24.1460963140443 ] ] ] } },
{ "type": "Feature", "properties": { "difference_1990_2000": 11.0, "difference_1990_2010": 31.0, "difference_1990_2020": 53.0 }, "geometry": { "type": "Polygon", "coordinates": [ [ [ -110.301783264746234, 24.180165786566182 ], [ -110.297210791037955, 24.180165786566185 ], [ -110.297210791037955, 24.175906610855556 ], [ -110.301783264746234, 24.175906610855552 ], [ -110.301783264746234, 24.180165786566182 ] ] ] } },
{ "type": "Feature", "properties": { "difference_1990_2000": -14.0, "difference_1990_2010": -166.0, "difference_1990_2020": -289.0 }, "geometry": { "type": "Polygon", "coordinates": [ [ [ -110.301783264746234, 24.163129926842831 ], [ -110.297210791037955, 24.163129926842831 ], [ -110.297210791037955, 24.158871313087275 ], [ -110.301783264746234, 24.158871313087275 ], [ -110.301783264746234, 24.163129926842831 ] ] ] } },
{ "type": "Feature", "properties": { "difference_1990_2000": -164.0, "difference_1990_2010": -381.0, "difference_1990_2020": -536.0 }, "geometry": { "type": "Polygon", "coordinates": [ [ [ -110.301783264746234, 24.150354506725286 ], [ -110.297210791037955, 24.150354506725286 ], [ -110.297210791037955, 24.146096314044303 ], [ -110.301783264746234, 24.1460963140443 ], [ -110.301783264746234, 24.150354506725286 ] ] ] } },
{ "type": "Feature", "properties": { "difference_1990_2000": 99.0, "difference_1990_2010": 20.0, "difference_1990_2020": -16.0 }, "geometry": { "type": "Polygon", "coordinates": [ [ [ -110.292638317329676, 24.137580349495778 ], [ -110.288065843621425, 24.137580349495742 ], [ -110.288065843621425, 24.133322577553766 ], [ -110.292638317329676, 24.133322577553766 ], [ -110.292638317329676, 24.137580349495778 ] ] ] } },
{ "type": "Feature", "properties": { "difference_1990_2000": -13.0, "difference_1990_2010": -141.0, "difference_1990_2020": -289.0 }, "geometry": { "type": "Polygon", "coordinates": [ [ [ -110.292638317329676, 24.141838261646857 ], [ -110.288065843621425, 24.141838261646853 ], [ -110.288065843621425, 24.137580349495742 ], [ -110.292638317329676, 24.137580349495778 ], [ -110.292638317329676, 24.141838261646857 ] ] ] } },
{ "type": "Feature", "properties": { "difference_1990_2000": 1506.0, "difference_1990_2010": 1112.0, "difference_1990_2020": 890.0 }, "geometry": { "type": "Polygon", "coordinates": [ [ [ -110.292638317329676, 24.175906610855517 ], [ -110.288065843621425, 24.175906610855552 ], [ -110.288065843621425, 24.171647575689597 ], [ -110.292638317329676, 24.171647575689637 ], [ -110.292638317329676, 24.175906610855517 ] ] ] } },
{ "type": "Feature", "properties": { "difference_1990_2000": 250.0, "difference_1990_2010": 37.0, "difference_1990_2020": -85.0 }, "geometry": { "type": "Polygon", "coordinates": [ [ [ -110.292638317329676, 24.171647575689637 ], [ -110.288065843621425, 24.171647575689597 ], [ -110.288065843621425, 24.167388681031184 ], [ -110.292638317329676, 24.167388681031181 ], [ -110.292638317329676, 24.171647575689637 ] ] ] } },
{ "type": "Feature", "properties": { "difference_1990_2000": 29.0, "difference_1990_2010": -1.0, "difference_1990_2020": -6.0 }, "geometry": { "type": "Polygon", "coordinates": [ [ [ -110.292638317329676, 24.133322577553766 ], [ -110.288065843621425, 24.133322577553766 ], [ -110.288065843621425, 24.129064945783593 ], [ -110.292638317329676, 24.129064945783593 ], [ -110.292638317329676, 24.133322577553766 ] ] ] } },
{ "type": "Feature", "properties": { "difference_1990_2000": -70.0, "difference_1990_2010": -47.0, "difference_1990_2020": -91.0 }, "geometry": { "type": "Polygon", "coordinates": [ [ [ -110.292638317329676, 24.158871313087275 ], [ -110.288065843621425, 24.158871313087239 ], [ -110.288065843621425, 24.154612839727196 ], [ -110.292638317329676, 24.154612839727204 ], [ -110.292638317329676, 24.158871313087275 ] ] ] } },
{ "type": "Feature", "properties": { "difference_1990_2000": -8.0, "difference_1990_2010": -207.0, "difference_1990_2020": -229.0 }, "geometry": { "type": "Polygon", "coordinates": [ [ [ -110.292638317329676, 24.154612839727204 ], [ -110.288065843621425, 24.154612839727196 ], [ -110.288065843621425, 24.150354506725286 ], [ -110.292638317329676, 24.150354506725286 ], [ -110.292638317329676, 24.154612839727204 ] ] ] } },
{ "type": "Feature", "properties": { "difference_1990_2000": 0.0, "difference_1990_2010": 1.0, "difference_1990_2020": 3.0 }, "geometry": { "type": "Polygon", "coordinates": [ [ [ -110.292638317329676, 24.116292891131433 ], [ -110.288065843621425, 24.116292891131437 ], [ -110.288065843621425, 24.112035819676098 ], [ -110.292638317329676, 24.112035819676095 ], [ -110.292638317329676, 24.116292891131433 ] ] ] } },
{ "type": "Feature", "properties": { "difference_1990_2000": 0.0, "difference_1990_2010": 74.0, "difference_1990_2020": 65.0 }, "geometry": { "type": "Polygon", "coordinates": [ [ [ -110.292638317329676, 24.120550102609581 ], [ -110.288065843621425, 24.120550102609577 ], [ -110.288065843621425, 24.116292891131437 ], [ -110.292638317329676, 24.116292891131433 ], [ -110.292638317329676, 24.120550102609581 ] ] ] } },
{ "type": "Feature", "properties": { "difference_1990_2000": 78.0, "difference_1990_2010": 199.0, "difference_1990_2020": 245.0 }, "geometry": { "type": "Polygon", "coordinates": [ [ [ -110.292638317329676, 24.167388681031181 ], [ -110.288065843621425, 24.167388681031184 ], [ -110.288065843621425, 24.163129926842831 ], [ -110.292638317329676, 24.163129926842831 ], [ -110.292638317329676, 24.167388681031181 ] ] ] } },
{ "type": "Feature", "properties": { "difference_1990_2000": -192.0, "difference_1990_2010": -426.0, "difference_1990_2020": -584.0 }, "geometry": { "type": "Polygon", "coordinates": [ [ [ -110.292638317329676, 24.146096314044314 ], [ -110.288065843621425, 24.146096314044261 ], [ -110.288065843621425, 24.141838261646853 ], [ -110.292638317329676, 24.141838261646857 ], [ -110.292638317329676, 24.146096314044314 ] ] ] } },
{ "type": "Feature", "properties": { "difference_1990_2000": -48.0, "difference_1990_2010": 55.0, "difference_1990_2020": -30.0 }, "geometry": { "type": "Polygon", "coordinates": [ [ [ -110.292638317329676, 24.163129926842831 ], [ -110.288065843621425, 24.163129926842831 ], [ -110.288065843621425, 24.158871313087239 ], [ -110.292638317329676, 24.158871313087275 ], [ -110.292638317329676, 24.163129926842831 ] ] ] } },
{ "type": "Feature", "properties": { "difference_1990_2000": -46.0, "difference_1990_2010": -174.0, "difference_1990_2020": -257.0 }, "geometry": { "type": "Polygon", "coordinates": [ [ [ -110.292638317329676, 24.150354506725286 ], [ -110.288065843621425, 24.150354506725286 ], [ -110.288065843621425, 24.146096314044261 ], [ -110.292638317329676, 24.146096314044314 ], [ -110.292638317329676, 24.150354506725286 ] ] ] } },
{ "type": "Feature", "properties": { "difference_1990_2000": 60.0, "difference_1990_2010": 17.0, "difference_1990_2020": -31.0 }, "geometry": { "type": "Polygon", "coordinates": [ [ [ -110.283493369913145, 24.137580349495781 ], [ -110.278920896204866, 24.137580349495781 ], [ -110.278920896204866, 24.133322577553773 ], [ -110.283493369913145, 24.13332257755377 ], [ -110.283493369913145, 24.137580349495781 ] ] ] } },
{ "type": "Feature", "properties": { "difference_1990_2000": 43.0, "difference_1990_2010": 15.0, "difference_1990_2020": -8.0 }, "geometry": { "type": "Polygon", "coordinates": [ [ [ -110.283493369913145, 24.141838261646853 ], [ -110.278920896204866, 24.141838261646861 ], [ -110.278920896204866, 24.137580349495781 ], [ -110.283493369913145, 24.137580349495781 ], [ -110.283493369913145, 24.141838261646853 ] ] ] } },
{ "type": "Feature", "properties": { "difference_1990_2000": 23.0, "difference_1990_2010": 22.0, "difference_1990_2020": 38.0 }, "geometry": { "type": "Polygon", "coordinates": [ [ [ -110.283493369913145, 24.158871313087275 ], [ -110.278920896204866, 24.158871313087271 ], [ -110.278920896204866, 24.1546128397272 ], [ -110.283493369913145, 24.154612839727204 ], [ -110.283493369913145, 24.158871313087275 ] ] ] } },
{ "type": "Feature", "properties": { "difference_1990_2000": 512.0, "difference_1990_2010": 607.0, "difference_1990_2020": 519.0 }, "geometry": { "type": "Polygon", "coordinates": [ [ [ -110.283493369913145, 24.154612839727204 ], [ -110.278920896204866, 24.1546128397272 ], [ -110.278920896204866, 24.150354506725289 ], [ -110.283493369913145, 24.150354506725282 ], [ -110.283493369913145, 24.154612839727204 ] ] ] } },
{ "type": "Feature", "properties": { "difference_1990_2000": 25.0, "difference_1990_2010": 119.0, "difference_1990_2020": 170.0 }, "geometry": { "type": "Polygon", "coordinates": [ [ [ -110.283493369913145, 24.167388681031184 ], [ -110.278920896204866, 24.167388681031184 ], [ -110.278920896204866, 24.163129926842831 ], [ -110.283493369913145, 24.163129926842831 ], [ -110.283493369913145, 24.167388681031184 ] ] ] } },
{ "type": "Feature", "properties": { "difference_1990_2000": 91.0, "difference_1990_2010": 58.0, "difference_1990_2020": -82.0 }, "geometry": { "type": "Polygon", "coordinates": [ [ [ -110.283493369913145, 24.1460963140443 ], [ -110.278920896204866, 24.146096314044307 ], [ -110.278920896204866, 24.141838261646861 ], [ -110.283493369913145, 24.141838261646853 ], [ -110.283493369913145, 24.1460963140443 ] ] ] } },
{ "type": "Feature", "properties": { "difference_1990_2000": 12.0, "difference_1990_2010": 24.0, "difference_1990_2020": 26.0 }, "geometry": { "type": "Polygon", "coordinates": [ [ [ -110.283493369913145, 24.163129926842831 ], [ -110.278920896204866, 24.163129926842831 ], [ -110.278920896204866, 24.158871313087271 ], [ -110.283493369913145, 24.158871313087275 ], [ -110.283493369913145, 24.163129926842831 ] ] ] } },
{ "type": "Feature", "properties": { "difference_1990_2000": 400.0, "difference_1990_2010": 420.0, "difference_1990_2020": 318.0 }, "geometry": { "type": "Polygon", "coordinates": [ [ [ -110.283493369913145, 24.150354506725282 ], [ -110.278920896204866, 24.150354506725289 ], [ -110.278920896204866, 24.146096314044307 ], [ -110.283493369913145, 24.1460963140443 ], [ -110.283493369913145, 24.150354506725282 ] ] ] } },
{ "type": "Feature", "properties": { "difference_1990_2000": 171.0, "difference_1990_2010": 301.0, "difference_1990_2020": 283.0 }, "geometry": { "type": "Polygon", "coordinates": [ [ [ -110.274348422496587, 24.150354506725314 ], [ -110.269775948788293, 24.150354506725286 ], [ -110.269775948788293, 24.146096314044261 ], [ -110.274348422496587, 24.146096314044303 ], [ -110.274348422496587, 24.150354506725314 ] ] ] } },
{ "type": "Feature", "properties": { "difference_1990_2000": 0.0, "difference_1990_2010": 1.0, "difference_1990_2020": 13.0 }, "geometry": { "type": "Polygon", "coordinates": [ [ [ -110.274348422496587, 24.137580349495778 ], [ -110.269775948788293, 24.137580349495785 ], [ -110.269775948788293, 24.13332257755377 ], [ -110.274348422496587, 24.13332257755377 ], [ -110.274348422496587, 24.137580349495778 ] ] ] } },
{ "type": "Feature", "properties": { "difference_1990_2000": -65.0, "difference_1990_2010": -30.0, "difference_1990_2020": 1.0 }, "geometry": { "type": "Polygon", "coordinates": [ [ [ -110.274348422496587, 24.141838261646857 ], [ -110.269775948788293, 24.141838261646857 ], [ -110.269775948788293, 24.137580349495785 ], [ -110.274348422496587, 24.137580349495778 ], [ -110.274348422496587, 24.141838261646857 ] ] ] } },
{ "type": "Feature", "properties": { "difference_1990_2000": 0.0, "difference_1990_2010": 0.0, "difference_1990_2020": 13.0 }, "geometry": { "type": "Polygon", "coordinates": [ [ [ -110.274348422496587, 24.17164757568964 ], [ -110.269775948788293, 24.171647575689637 ], [ -110.269775948788293, 24.167388681031184 ], [ -110.274348422496587, 24.167388681031184 ], [ -110.274348422496587, 24.17164757568964 ] ] ] } },
{ "type": "Feature", "properties": { "difference_1990_2000": 22.0, "difference_1990_2010": 74.0, "difference_1990_2020": 184.0 }, "geometry": { "type": "Polygon", "coordinates": [ [ [ -110.274348422496587, 24.158871313087271 ], [ -110.269775948788293, 24.158871313087275 ], [ -110.269775948788293, 24.154612839727196 ], [ -110.274348422496587, 24.154612839727196 ], [ -110.274348422496587, 24.158871313087271 ] ] ] } },
{ "type": "Feature", "properties": { "difference_1990_2000": 491.0, "difference_1990_2010": 909.0, "difference_1990_2020": 864.0 }, "geometry": { "type": "Polygon", "coordinates": [ [ [ -110.274348422496587, 24.154612839727196 ], [ -110.269775948788293, 24.154612839727196 ], [ -110.269775948788293, 24.150354506725286 ], [ -110.274348422496587, 24.150354506725314 ], [ -110.274348422496587, 24.154612839727196 ] ] ] } },
{ "type": "Feature", "properties": { "difference_1990_2000": 0.0, "difference_1990_2010": 4.0, "difference_1990_2020": 66.0 }, "geometry": { "type": "Polygon", "coordinates": [ [ [ -110.274348422496587, 24.167388681031184 ], [ -110.269775948788293, 24.167388681031184 ], [ -110.269775948788293, 24.163129926842831 ], [ -110.274348422496587, 24.163129926842831 ], [ -110.274348422496587, 24.167388681031184 ] ] ] } },
{ "type": "Feature", "properties": { "difference_1990_2000": -1.0, "difference_1990_2010": 77.0, "difference_1990_2020": 93.0 }, "geometry": { "type": "Polygon", "coordinates": [ [ [ -110.274348422496587, 24.146096314044303 ], [ -110.269775948788293, 24.146096314044261 ], [ -110.269775948788293, 24.141838261646857 ], [ -110.274348422496587, 24.141838261646857 ], [ -110.274348422496587, 24.146096314044303 ] ] ] } },
{ "type": "Feature", "properties": { "difference_1990_2000": 0.0, "difference_1990_2010": 1.0, "difference_1990_2020": 12.0 }, "geometry": { "type": "Polygon", "coordinates": [ [ [ -110.274348422496587, 24.163129926842831 ], [ -110.269775948788293, 24.163129926842831 ], [ -110.269775948788293, 24.158871313087275 ], [ -110.274348422496587, 24.158871313087271 ], [ -110.274348422496587, 24.163129926842831 ] ] ] } },
{ "type": "Feature", "properties": { "difference_1990_2000": -39.0, "difference_1990_2010": -15.0, "difference_1990_2020": 1.0 }, "geometry": { "type": "Polygon", "coordinates": [ [ [ -110.265203475080014, 24.1418382616469 ], [ -110.260631001371735, 24.141838261646857 ], [ -110.260631001371735, 24.137580349495774 ], [ -110.265203475080014, 24.137580349495778 ], [ -110.265203475080014, 24.1418382616469 ] ] ] } },
{ "type": "Feature", "properties": { "difference_1990_2000": 0.0, "difference_1990_2010": 2.0, "difference_1990_2020": 2.0 }, "geometry": { "type": "Polygon", "coordinates": [ [ [ -110.265203475080014, 24.17164757568964 ], [ -110.260631001371735, 24.171647575689654 ], [ -110.260631001371735, 24.167388681031184 ], [ -110.265203475080014, 24.167388681031184 ], [ -110.265203475080014, 24.17164757568964 ] ] ] } },
{ "type": "Feature", "properties": { "difference_1990_2000": 0.0, "difference_1990_2010": 250.0, "difference_1990_2020": 327.0 }, "geometry": { "type": "Polygon", "coordinates": [ [ [ -110.265203475080014, 24.158871313087275 ], [ -110.260631001371735, 24.158871313087275 ], [ -110.260631001371735, 24.154612839727196 ], [ -110.265203475080014, 24.154612839727196 ], [ -110.265203475080014, 24.158871313087275 ] ] ] } },
{ "type": "Feature", "properties": { "difference_1990_2000": 2.0, "difference_1990_2010": 109.0, "difference_1990_2020": 123.0 }, "geometry": { "type": "Polygon", "coordinates": [ [ [ -110.265203475080014, 24.154612839727196 ], [ -110.260631001371735, 24.154612839727196 ], [ -110.260631001371735, 24.150354506725286 ], [ -110.265203475080014, 24.150354506725282 ], [ -110.265203475080014, 24.154612839727196 ] ] ] } },
{ "type": "Feature", "properties": { "difference_1990_2000": 0.0, "difference_1990_2010": 117.0, "difference_1990_2020": 216.0 }, "geometry": { "type": "Polygon", "coordinates": [ [ [ -110.265203475080014, 24.167388681031184 ], [ -110.260631001371735, 24.167388681031184 ], [ -110.260631001371735, 24.163129926842831 ], [ -110.265203475080014, 24.163129926842831 ], [ -110.265203475080014, 24.167388681031184 ] ] ] } },
{ "type": "Feature", "properties": { "difference_1990_2000": -75.0, "difference_1990_2010": -28.0, "difference_1990_2020": 2.0 }, "geometry": { "type": "Polygon", "coordinates": [ [ [ -110.265203475080014, 24.146096314044314 ], [ -110.260631001371735, 24.1460963140443 ], [ -110.260631001371735, 24.141838261646857 ], [ -110.265203475080014, 24.1418382616469 ], [ -110.265203475080014, 24.146096314044314 ] ] ] } },
{ "type": "Feature", "properties": { "difference_1990_2000": 0.0, "difference_1990_2010": 171.0, "difference_1990_2020": 249.0 }, "geometry": { "type": "Polygon", "coordinates": [ [ [ -110.265203475080014, 24.163129926842831 ], [ -110.260631001371735, 24.163129926842831 ], [ -110.260631001371735, 24.158871313087275 ], [ -110.265203475080014, 24.158871313087275 ], [ -110.265203475080014, 24.163129926842831 ] ] ] } },
{ "type": "Feature", "properties": { "difference_1990_2000": -75.0, "difference_1990_2010": -25.0, "difference_1990_2020": 5.0 }, "geometry": { "type": "Polygon", "coordinates": [ [ [ -110.265203475080014, 24.150354506725282 ], [ -110.260631001371735, 24.150354506725286 ], [ -110.260631001371735, 24.1460963140443 ], [ -110.265203475080014, 24.146096314044314 ], [ -110.265203475080014, 24.150354506725282 ] ] ] } },
{ "type": "Feature", "properties": { "difference_1990_2000": 0.0, "difference_1990_2010": 15.0, "difference_1990_2020": 15.0 }, "geometry": { "type": "Polygon", "coordinates": [ [ [ -110.256058527663484, 24.158871313087275 ], [ -110.251486053955205, 24.158871313087243 ], [ -110.251486053955205, 24.1546128397272 ], [ -110.256058527663484, 24.154612839727196 ], [ -110.256058527663484, 24.158871313087275 ] ] ] } },
{ "type": "Feature", "properties": { "difference_1990_2000": 0.0, "difference_1990_2010": 2.0, "difference_1990_2020": 7.0 }, "geometry": { "type": "Polygon", "coordinates": [ [ [ -110.256058527663484, 24.167388681031181 ], [ -110.251486053955205, 24.167388681031184 ], [ -110.251486053955205, 24.163129926842831 ], [ -110.256058527663484, 24.163129926842831 ], [ -110.256058527663484, 24.167388681031181 ] ] ] } },
{ "type": "Feature", "properties": { "difference_1990_2000": 0.0, "difference_1990_2010": 39.0, "difference_1990_2020": 46.0 }, "geometry": { "type": "Polygon", "coordinates": [ [ [ -110.256058527663484, 24.163129926842831 ], [ -110.251486053955205, 24.163129926842831 ], [ -110.251486053955205, 24.158871313087243 ], [ -110.256058527663484, 24.158871313087275 ], [ -110.256058527663484, 24.163129926842831 ] ] ] } },
{ "type": "Feature", "properties": { "difference_1990_2000": 51.0, "difference_1990_2010": -117.0, "difference_1990_2020": -182.0 }, "geometry": { "type": "Polygon", "coordinates": [ [ [ -110.315500685871058, 24.137580349495774 ], [ -110.310928212162764, 24.137580349495778 ], [ -110.310928212162764, 24.133322577553749 ], [ -110.315500685871058, 24.133322577553745 ], [ -110.315500685871058, 24.137580349495774 ] ] ] } },
{ "type": "Feature", "properties": { "difference_1990_2000": -194.0, "difference_1990_2010": -18.0, "difference_1990_2020": -12.0 }, "geometry": { "type": "Polygon", "coordinates": [ [ [ -110.315500685871058, 24.103522096685261 ], [ -110.310928212162764, 24.103522096685253 ], [ -110.310928212162764, 24.09926544507535 ], [ -110.315500685871058, 24.099265445075346 ], [ -110.315500685871058, 24.103522096685261 ] ] ] } },
{ "type": "Feature", "properties": { "difference_1990_2000": -53.0, "difference_1990_2010": -112.0, "difference_1990_2020": -152.0 }, "geometry": { "type": "Polygon", "coordinates": [ [ [ -110.315500685871058, 24.141838261646857 ], [ -110.310928212162764, 24.141838261646861 ], [ -110.310928212162764, 24.137580349495778 ], [ -110.315500685871058, 24.137580349495774 ], [ -110.315500685871058, 24.141838261646857 ] ] ] } },
{ "type": "Feature", "properties": { "difference_1990_2000": 0.0, "difference_1990_2010": -1.0, "difference_1990_2020": -1.0 }, "geometry": { "type": "Polygon", "coordinates": [ [ [ -110.315500685871058, 24.171647575689597 ], [ -110.310928212162764, 24.17164757568964 ], [ -110.310928212162764, 24.167388681031184 ], [ -110.315500685871058, 24.167388681031181 ], [ -110.315500685871058, 24.171647575689597 ] ] ] } },
{ "type": "Feature", "properties": { "difference_1990_2000": 428.0, "difference_1990_2010": 251.0, "difference_1990_2020": 144.0 }, "geometry": { "type": "Polygon", "coordinates": [ [ [ -110.315500685871058, 24.112035819676098 ], [ -110.310928212162764, 24.11203581967608 ], [ -110.310928212162764, 24.107778888206436 ], [ -110.315500685871058, 24.107778888206411 ], [ -110.315500685871058, 24.112035819676098 ] ] ] } },
{ "type": "Feature", "properties": { "difference_1990_2000": -281.0, "difference_1990_2010": -327.0, "difference_1990_2020": -339.0 }, "geometry": { "type": "Polygon", "coordinates": [ [ [ -110.315500685871058, 24.129064945783593 ], [ -110.310928212162764, 24.129064945783597 ], [ -110.310928212162764, 24.12480745414792 ], [ -110.315500685871058, 24.124807454147934 ], [ -110.315500685871058, 24.129064945783593 ] ] ] } },
{ "type": "Feature", "properties": { "difference_1990_2000": 339.0, "difference_1990_2010": 68.0, "difference_1990_2020": -21.0 }, "geometry": { "type": "Polygon", "coordinates": [ [ [ -110.315500685871058, 24.133322577553745 ], [ -110.310928212162764, 24.133322577553749 ], [ -110.310928212162764, 24.129064945783597 ], [ -110.315500685871058, 24.129064945783593 ], [ -110.315500685871058, 24.133322577553745 ] ] ] } },
{ "type": "Feature", "properties": { "difference_1990_2000": -153.0, "difference_1990_2010": -347.0, "difference_1990_2020": -403.0 }, "geometry": { "type": "Polygon", "coordinates": [ [ [ -110.315500685871058, 24.158871313087243 ], [ -110.310928212162764, 24.158871313087243 ], [ -110.310928212162764, 24.154612839727196 ], [ -110.315500685871058, 24.1546128397272 ], [ -110.315500685871058, 24.158871313087243 ] ] ] } },
{ "type": "Feature", "properties": { "difference_1990_2000": -147.0, "difference_1990_2010": -414.0, "difference_1990_2020": -448.0 }, "geometry": { "type": "Polygon", "coordinates": [ [ [ -110.315500685871058, 24.1546128397272 ], [ -110.310928212162764, 24.154612839727196 ], [ -110.310928212162764, 24.150354506725282 ], [ -110.315500685871058, 24.150354506725282 ], [ -110.315500685871058, 24.1546128397272 ] ] ] } },
{ "type": "Feature", "properties": { "difference_1990_2000": 822.0, "difference_1990_2010": 527.0, "difference_1990_2020": 355.0 }, "geometry": { "type": "Polygon", "coordinates": [ [ [ -110.315500685871058, 24.116292891131426 ], [ -110.310928212162764, 24.116292891131437 ], [ -110.310928212162764, 24.11203581967608 ], [ -110.315500685871058, 24.112035819676098 ], [ -110.315500685871058, 24.116292891131426 ] ] ] } },
{ "type": "Feature", "properties": { "difference_1990_2000": -229.0, "difference_1990_2010": -47.0, "difference_1990_2020": -37.0 }, "geometry": { "type": "Polygon", "coordinates": [ [ [ -110.315500685871058, 24.107778888206411 ], [ -110.310928212162764, 24.107778888206436 ], [ -110.310928212162764, 24.103522096685253 ], [ -110.315500685871058, 24.103522096685261 ], [ -110.315500685871058, 24.107778888206411 ] ] ] } },
{ "type": "Feature", "properties": { "difference_1990_2000": -381.0, "difference_1990_2010": -426.0, "difference_1990_2020": -449.0 }, "geometry": { "type": "Polygon", "coordinates": [ [ [ -110.315500685871058, 24.124807454147934 ], [ -110.310928212162764, 24.12480745414792 ], [ -110.310928212162764, 24.120550102609631 ], [ -110.315500685871058, 24.120550102609634 ], [ -110.315500685871058, 24.124807454147934 ] ] ] } },
{ "type": "Feature", "properties": { "difference_1990_2000": 356.0, "difference_1990_2010": 119.0, "difference_1990_2020": -14.0 }, "geometry": { "type": "Polygon", "coordinates": [ [ [ -110.315500685871058, 24.120550102609577 ], [ -110.310928212162764, 24.120550102609581 ], [ -110.310928212162764, 24.116292891131437 ], [ -110.315500685871058, 24.116292891131426 ], [ -110.315500685871058, 24.120550102609577 ] ] ] } },
{ "type": "Feature", "properties": { "difference_1990_2000": -76.0, "difference_1990_2010": -158.0, "difference_1990_2020": -180.0 }, "geometry": { "type": "Polygon", "coordinates": [ [ [ -110.315500685871058, 24.167388681031181 ], [ -110.310928212162764, 24.167388681031184 ], [ -110.310928212162764, 24.163129926842831 ], [ -110.315500685871058, 24.163129926842831 ], [ -110.315500685871058, 24.167388681031181 ] ] ] } },
{ "type": "Feature", "properties": { "difference_1990_2000": -48.0, "difference_1990_2010": -105.0, "difference_1990_2020": -143.0 }, "geometry": { "type": "Polygon", "coordinates": [ [ [ -110.315500685871058, 24.1460963140443 ], [ -110.310928212162764, 24.146096314044303 ], [ -110.310928212162764, 24.141838261646861 ], [ -110.315500685871058, 24.141838261646857 ], [ -110.315500685871058, 24.1460963140443 ] ] ] } },
{ "type": "Feature", "properties": { "difference_1990_2000": -120.0, "difference_1990_2010": -249.0, "difference_1990_2020": -293.0 }, "geometry": { "type": "Polygon", "coordinates": [ [ [ -110.315500685871058, 24.163129926842831 ], [ -110.310928212162764, 24.163129926842831 ], [ -110.310928212162764, 24.158871313087243 ], [ -110.315500685871058, 24.158871313087243 ], [ -110.315500685871058, 24.163129926842831 ] ] ] } },
{ "type": "Feature", "properties": { "difference_1990_2000": -99.0, "difference_1990_2010": -308.0, "difference_1990_2020": -342.0 }, "geometry": { "type": "Polygon", "coordinates": [ [ [ -110.315500685871058, 24.150354506725282 ], [ -110.310928212162764, 24.150354506725282 ], [ -110.310928212162764, 24.146096314044303 ], [ -110.315500685871058, 24.1460963140443 ], [ -110.315500685871058, 24.150354506725282 ] ] ] } },
{ "type": "Feature", "properties": { "difference_1990_2000": -199.0, "difference_1990_2010": -410.0, "difference_1990_2020": -524.0 }, "geometry": { "type": "Polygon", "coordinates": [ [ [ -110.306355738454513, 24.137580349495774 ], [ -110.301783264746234, 24.137580349495778 ], [ -110.301783264746234, 24.133322577553766 ], [ -110.306355738454513, 24.13332257755377 ], [ -110.306355738454513, 24.137580349495774 ] ] ] } },
{ "type": "Feature", "properties": { "difference_1990_2000": -249.0, "difference_1990_2010": -466.0, "difference_1990_2020": -585.0 }, "geometry": { "type": "Polygon", "coordinates": [ [ [ -110.306355738454513, 24.141838261646857 ], [ -110.301783264746234, 24.141838261646861 ], [ -110.301783264746234, 24.137580349495778 ], [ -110.306355738454513, 24.137580349495774 ], [ -110.306355738454513, 24.141838261646857 ] ] ] } },
{ "type": "Feature", "properties": { "difference_1990_2000": -10.0, "difference_1990_2010": 96.0, "difference_1990_2020": 93.0 }, "geometry": { "type": "Polygon", "coordinates": [ [ [ -110.306355738454513, 24.112035819676098 ], [ -110.301783264746234, 24.112035819676098 ], [ -110.301783264746234, 24.107778888206433 ], [ -110.306355738454513, 24.107778888206433 ], [ -110.306355738454513, 24.112035819676098 ] ] ] } },
{ "type": "Feature", "properties": { "difference_1990_2000": 3.0, "difference_1990_2010": 9.0, "difference_1990_2020": 16.0 }, "geometry": { "type": "Polygon", "coordinates": [ [ [ -110.306355738454513, 24.184425102859048 ], [ -110.301783264746234, 24.184425102859045 ], [ -110.301783264746234, 24.180165786566182 ], [ -110.306355738454513, 24.180165786566182 ], [ -110.306355738454513, 24.184425102859048 ] ] ] } },
{ "type": "Feature", "properties": { "difference_1990_2000": -102.0, "difference_1990_2010": -217.0, "difference_1990_2020": -252.0 }, "geometry": { "type": "Polygon", "coordinates": [ [ [ -110.306355738454513, 24.171647575689637 ], [ -110.301783264746234, 24.171647575689633 ], [ -110.301783264746234, 24.167388681031184 ], [ -110.306355738454513, 24.167388681031184 ], [ -110.306355738454513, 24.171647575689637 ] ] ] } },
{ "type": "Feature", "properties": { "difference_1990_2000": 69.0, "difference_1990_2010": 253.0, "difference_1990_2020": 214.0 }, "geometry": { "type": "Polygon", "coordinates": [ [ [ -110.306355738454513, 24.12906494578359 ], [ -110.301783264746234, 24.129064945783611 ], [ -110.301783264746234, 24.124807454147934 ], [ -110.306355738454513, 24.124807454147916 ], [ -110.306355738454513, 24.12906494578359 ] ] ] } },
{ "type": "Feature", "properties": { "difference_1990_2000": -4.0, "difference_1990_2010": 7.0, "difference_1990_2020": 11.0 }, "geometry": { "type": "Polygon", "coordinates": [ [ [ -110.306355738454513, 24.175906610855552 ], [ -110.301783264746234, 24.175906610855552 ], [ -110.301783264746234, 24.171647575689633 ], [ -110.306355738454513, 24.171647575689637 ], [ -110.306355738454513, 24.175906610855552 ] ] ] } },
{ "type": "Feature", "properties": { "difference_1990_2000": 2.0, "difference_1990_2010": 6.0, "difference_1990_2020": 9.0 }, "geometry": { "type": "Polygon", "coordinates": [ [ [ -110.306355738454513, 24.18868455977135 ], [ -110.301783264746234, 24.188684559771385 ], [ -110.301783264746234, 24.184425102859045 ], [ -110.306355738454513, 24.184425102859048 ], [ -110.306355738454513, 24.18868455977135 ] ] ] } },
{ "type": "Feature", "properties": { "difference_1990_2000": 106.0, "difference_1990_2010": 167.0, "difference_1990_2020": 128.0 }, "geometry": { "type": "Polygon", "coordinates": [ [ [ -110.306355738454513, 24.13332257755377 ], [ -110.301783264746234, 24.133322577553766 ], [ -110.301783264746234, 24.129064945783611 ], [ -110.306355738454513, 24.12906494578359 ], [ -110.306355738454513, 24.13332257755377 ] ] ] } },
{ "type": "Feature", "properties": { "difference_1990_2000": -152.0, "difference_1990_2010": -302.0, "difference_1990_2020": -407.0 }, "geometry": { "type": "Polygon", "coordinates": [ [ [ -110.306355738454513, 24.158871313087246 ], [ -110.301783264746234, 24.158871313087275 ], [ -110.301783264746234, 24.154612839727196 ], [ -110.306355738454513, 24.1546128397272 ], [ -110.306355738454513, 24.158871313087246 ] ] ] } },
{ "type": "Feature", "properties": { "difference_1990_2000": -150.0, "difference_1990_2010": -324.0, "difference_1990_2020": -458.0 }, "geometry": { "type": "Polygon", "coordinates": [ [ [ -110.306355738454513, 24.1546128397272 ], [ -110.301783264746234, 24.154612839727196 ], [ -110.301783264746234, 24.150354506725286 ], [ -110.306355738454513, 24.150354506725282 ], [ -110.306355738454513, 24.1546128397272 ] ] ] } },
{ "type": "Feature", "properties": { "difference_1990_2000": -77.0, "difference_1990_2010": 33.0, "difference_1990_2020": 41.0 }, "geometry": { "type": "Polygon", "coordinates": [ [ [ -110.306355738454513, 24.11629289113143 ], [ -110.301783264746234, 24.116292891131433 ], [ -110.301783264746234, 24.112035819676098 ], [ -110.306355738454513, 24.112035819676098 ], [ -110.306355738454513, 24.11629289113143 ] ] ] } },
{ "type": "Feature", "properties": { "difference_1990_2000": 56.0, "difference_1990_2010": 107.0, "difference_1990_2020": 128.0 }, "geometry": { "type": "Polygon", "coordinates": [ [ [ -110.306355738454513, 24.107778888206433 ], [ -110.301783264746234, 24.107778888206433 ], [ -110.301783264746234, 24.103522096685257 ], [ -110.306355738454513, 24.103522096685253 ], [ -110.306355738454513, 24.107778888206433 ] ] ] } },
{ "type": "Feature", "properties": { "difference_1990_2000": 894.0, "difference_1990_2010": 852.0, "difference_1990_2020": 720.0 }, "geometry": { "type": "Polygon", "coordinates": [ [ [ -110.306355738454513, 24.124807454147916 ], [ -110.301783264746234, 24.124807454147934 ], [ -110.301783264746234, 24.12055010260967 ], [ -110.306355738454513, 24.120550102609638 ], [ -110.306355738454513, 24.124807454147916 ] ] ] } },
{ "type": "Feature", "properties": { "difference_1990_2000": 311.0, "difference_1990_2010": 265.0, "difference_1990_2020": 222.0 }, "geometry": { "type": "Polygon", "coordinates": [ [ [ -110.306355738454513, 24.120550102609585 ], [ -110.301783264746234, 24.120550102609581 ], [ -110.301783264746234, 24.116292891131433 ], [ -110.306355738454513, 24.11629289113143 ], [ -110.306355738454513, 24.120550102609585 ] ] ] } },
{ "type": "Feature", "properties": { "difference_1990_2000": -136.0, "difference_1990_2010": -317.0, "difference_1990_2020": -386.0 }, "geometry": { "type": "Polygon", "coordinates": [ [ [ -110.306355738454513, 24.167388681031184 ], [ -110.301783264746234, 24.167388681031184 ], [ -110.301783264746234, 24.163129926842831 ], [ -110.306355738454513, 24.163129926842828 ], [ -110.306355738454513, 24.167388681031184 ] ] ] } },
{ "type": "Feature", "properties": { "difference_1990_2000": -209.0, "difference_1990_2010": -400.0, "difference_1990_2020": -514.0 }, "geometry": { "type": "Polygon", "coordinates": [ [ [ -110.306355738454513, 24.146096314044296 ], [ -110.301783264746234, 24.1460963140443 ], [ -110.301783264746234, 24.141838261646861 ], [ -110.306355738454513, 24.141838261646857 ], [ -110.306355738454513, 24.146096314044296 ] ] ] } },
{ "type": "Feature", "properties": { "difference_1990_2000": 4.0, "difference_1990_2010": 12.0, "difference_1990_2020": 21.0 }, "geometry": { "type": "Polygon", "coordinates": [ [ [ -110.306355738454513, 24.180165786566182 ], [ -110.301783264746234, 24.180165786566182 ], [ -110.301783264746234, 24.175906610855552 ], [ -110.306355738454513, 24.175906610855552 ], [ -110.306355738454513, 24.180165786566182 ] ] ] } },
{ "type": "Feature", "properties": { "difference_1990_2000": -131.0, "difference_1990_2010": -293.0, "difference_1990_2020": -370.0 }, "geometry": { "type": "Polygon", "coordinates": [ [ [ -110.306355738454513, 24.163129926842828 ], [ -110.301783264746234, 24.163129926842831 ], [ -110.301783264746234, 24.158871313087275 ], [ -110.306355738454513, 24.158871313087246 ], [ -110.306355738454513, 24.163129926842828 ] ] ] } },
{ "type": "Feature", "properties": { "difference_1990_2000": -110.0, "difference_1990_2010": -233.0, "difference_1990_2020": -315.0 }, "geometry": { "type": "Polygon", "coordinates": [ [ [ -110.306355738454513, 24.150354506725282 ], [ -110.301783264746234, 24.150354506725286 ], [ -110.301783264746234, 24.1460963140443 ], [ -110.306355738454513, 24.146096314044296 ], [ -110.306355738454513, 24.150354506725282 ] ] ] } },
{ "type": "Feature", "properties": { "difference_1990_2000": -2.0, "difference_1990_2010": -76.0, "difference_1990_2020": -121.0 }, "geometry": { "type": "Polygon", "coordinates": [ [ [ -110.297210791037955, 24.137580349495778 ], [ -110.292638317329676, 24.137580349495778 ], [ -110.292638317329676, 24.133322577553766 ], [ -110.297210791037955, 24.133322577553791 ], [ -110.297210791037955, 24.137580349495778 ] ] ] } },
{ "type": "Feature", "properties": { "difference_1990_2000": -186.0, "difference_1990_2010": -292.0, "difference_1990_2020": -343.0 }, "geometry": { "type": "Polygon", "coordinates": [ [ [ -110.297210791037955, 24.171647575689601 ], [ -110.292638317329676, 24.171647575689637 ], [ -110.292638317329676, 24.167388681031181 ], [ -110.297210791037955, 24.167388681031195 ], [ -110.297210791037955, 24.171647575689601 ] ] ] } },
{ "type": "Feature", "properties": { "difference_1990_2000": 126.0, "difference_1990_2010": 241.0, "difference_1990_2020": 293.0 }, "geometry": { "type": "Polygon", "coordinates": [ [ [ -110.297210791037955, 24.112035819676098 ], [ -110.292638317329676, 24.112035819676095 ], [ -110.292638317329676, 24.107778888206411 ], [ -110.297210791037955, 24.107778888206468 ], [ -110.297210791037955, 24.112035819676098 ] ] ] } },
{ "type": "Feature", "properties": { "difference_1990_2000": -127.0, "difference_1990_2010": -304.0, "difference_1990_2020": -418.0 }, "geometry": { "type": "Polygon", "coordinates": [ [ [ -110.297210791037955, 24.141838261646889 ], [ -110.292638317329676, 24.141838261646857 ], [ -110.292638317329676, 24.137580349495778 ], [ -110.297210791037955, 24.137580349495778 ], [ -110.297210791037955, 24.141838261646889 ] ] ] } },
{ "type": "Feature", "properties": { "difference_1990_2000": 2.0, "difference_1990_2010": 6.0, "difference_1990_2020": 10.0 }, "geometry": { "type": "Polygon", "coordinates": [ [ [ -110.297210791037955, 24.184425102859048 ], [ -110.292638317329676, 24.184425102859027 ], [ -110.292638317329676, 24.180165786566178 ], [ -110.297210791037955, 24.180165786566185 ], [ -110.297210791037955, 24.184425102859048 ] ] ] } },
{ "type": "Feature", "properties": { "difference_1990_2000": 64.0, "difference_1990_2010": 79.0, "difference_1990_2020": 51.0 }, "geometry": { "type": "Polygon", "coordinates": [ [ [ -110.297210791037955, 24.129064945783593 ], [ -110.292638317329676, 24.129064945783593 ], [ -110.292638317329676, 24.12480745414792 ], [ -110.297210791037955, 24.124807454147934 ], [ -110.297210791037955, 24.129064945783593 ] ] ] } },
{ "type": "Feature", "properties": { "difference_1990_2000": -1139.0, "difference_1990_2010": -1145.0, "difference_1990_2020": -1134.0 }, "geometry": { "type": "Polygon", "coordinates": [ [ [ -110.297210791037955, 24.175906610855556 ], [ -110.292638317329676, 24.175906610855517 ], [ -110.292638317329676, 24.171647575689637 ], [ -110.297210791037955, 24.171647575689601 ], [ -110.297210791037955, 24.175906610855556 ] ] ] } },
{ "type": "Feature", "properties": { "difference_1990_2000": 80.0, "difference_1990_2010": -6.0, "difference_1990_2020": -22.0 }, "geometry": { "type": "Polygon", "coordinates": [ [ [ -110.297210791037955, 24.133322577553791 ], [ -110.292638317329676, 24.133322577553766 ], [ -110.292638317329676, 24.129064945783593 ], [ -110.297210791037955, 24.129064945783593 ], [ -110.297210791037955, 24.133322577553791 ] ] ] } },
{ "type": "Feature", "properties": { "difference_1990_2000": 3.0, "difference_1990_2010": -173.0, "difference_1990_2020": -232.0 }, "geometry": { "type": "Polygon", "coordinates": [ [ [ -110.297210791037955, 24.158871313087275 ], [ -110.292638317329676, 24.158871313087275 ], [ -110.292638317329676, 24.154612839727204 ], [ -110.297210791037955, 24.154612839727196 ], [ -110.297210791037955, 24.158871313087275 ] ] ] } },
{ "type": "Feature", "properties": { "difference_1990_2000": -12.0, "difference_1990_2010": -288.0, "difference_1990_2020": -322.0 }, "geometry": { "type": "Polygon", "coordinates": [ [ [ -110.297210791037955, 24.154612839727196 ], [ -110.292638317329676, 24.154612839727204 ], [ -110.292638317329676, 24.150354506725286 ], [ -110.297210791037955, 24.150354506725286 ], [ -110.297210791037955, 24.154612839727196 ] ] ] } },
{ "type": "Feature", "properties": { "difference_1990_2000": -118.0, "difference_1990_2010": -20.0, "difference_1990_2020": -2.0 }, "geometry": { "type": "Polygon", "coordinates": [ [ [ -110.297210791037955, 24.116292891131433 ], [ -110.292638317329676, 24.116292891131433 ], [ -110.292638317329676, 24.112035819676095 ], [ -110.297210791037955, 24.112035819676098 ], [ -110.297210791037955, 24.116292891131433 ] ] ] } },
{ "type": "Feature", "properties": { "difference_1990_2000": 236.0, "difference_1990_2010": 238.0, "difference_1990_2020": 208.0 }, "geometry": { "type": "Polygon", "coordinates": [ [ [ -110.297210791037955, 24.124807454147934 ], [ -110.292638317329676, 24.12480745414792 ], [ -110.292638317329676, 24.120550102609638 ], [ -110.297210791037955, 24.120550102609634 ], [ -110.297210791037955, 24.124807454147934 ] ] ] } },
{ "type": "Feature", "properties": { "difference_1990_2000": -111.0, "difference_1990_2010": 17.0, "difference_1990_2020": 27.0 }, "geometry": { "type": "Polygon", "coordinates": [ [ [ -110.297210791037955, 24.120550102609581 ], [ -110.292638317329676, 24.120550102609581 ], [ -110.292638317329676, 24.116292891131433 ], [ -110.297210791037955, 24.116292891131412 ], [ -110.297210791037955, 24.120550102609581 ] ] ] } },
{ "type": "Feature", "properties": { "difference_1990_2000": -58.0, "difference_1990_2010": -84.0, "difference_1990_2020": -180.0 }, "geometry": { "type": "Polygon", "coordinates": [ [ [ -110.297210791037955, 24.167388681031195 ], [ -110.292638317329676, 24.167388681031181 ], [ -110.292638317329676, 24.163129926842831 ], [ -110.297210791037955, 24.163129926842831 ], [ -110.297210791037955, 24.167388681031195 ] ] ] } },
{ "type": "Feature", "properties": { "difference_1990_2000": -101.0, "difference_1990_2010": -356.0, "difference_1990_2020": -481.0 }, "geometry": { "type": "Polygon", "coordinates": [ [ [ -110.297210791037955, 24.146096314044303 ], [ -110.292638317329676, 24.146096314044314 ], [ -110.292638317329676, 24.141838261646857 ], [ -110.297210791037955, 24.141838261646889 ], [ -110.297210791037955, 24.146096314044303 ] ] ] } },
{ "type": "Feature", "properties": { "difference_1990_2000": -199.0, "difference_1990_2010": -191.0, "difference_1990_2020": -177.0 }, "geometry": { "type": "Polygon", "coordinates": [ [ [ -110.297210791037955, 24.180165786566185 ], [ -110.292638317329676, 24.180165786566178 ], [ -110.292638317329676, 24.175906610855517 ], [ -110.297210791037955, 24.175906610855556 ], [ -110.297210791037955, 24.180165786566185 ] ] ] } },
{ "type": "Feature", "properties": { "difference_1990_2000": 45.0, "difference_1990_2010": 51.0, "difference_1990_2020": -93.0 }, "geometry": { "type": "Polygon", "coordinates": [ [ [ -110.297210791037955, 24.163129926842831 ], [ -110.292638317329676, 24.163129926842831 ], [ -110.292638317329676, 24.158871313087275 ], [ -110.297210791037955, 24.158871313087275 ], [ -110.297210791037955, 24.163129926842831 ] ] ] } },
{ "type": "Feature", "properties": { "difference_1990_2000": -120.0, "difference_1990_2010": -358.0, "difference_1990_2020": -483.0 }, "geometry": { "type": "Polygon", "coordinates": [ [ [ -110.297210791037955, 24.150354506725286 ], [ -110.292638317329676, 24.150354506725286 ], [ -110.292638317329676, 24.146096314044314 ], [ -110.297210791037955, 24.146096314044303 ], [ -110.297210791037955, 24.150354506725286 ] ] ] } },
{ "type": "Feature", "properties": { "difference_1990_2000": 64.0, "difference_1990_2010": 15.0, "difference_1990_2020": -32.0 }, "geometry": { "type": "Polygon", "coordinates": [ [ [ -110.288065843621425, 24.137580349495742 ], [ -110.283493369913145, 24.137580349495781 ], [ -110.283493369913145, 24.13332257755377 ], [ -110.288065843621425, 24.133322577553766 ], [ -110.288065843621425, 24.137580349495742 ] ] ] } },
{ "type": "Feature", "properties": { "difference_1990_2000": 164.0, "difference_1990_2010": 138.0, "difference_1990_2020": 80.0 }, "geometry": { "type": "Polygon", "coordinates": [ [ [ -110.288065843621425, 24.141838261646853 ], [ -110.283493369913145, 24.141838261646853 ], [ -110.283493369913145, 24.137580349495781 ], [ -110.288065843621425, 24.137580349495742 ], [ -110.288065843621425, 24.141838261646853 ] ] ] } },
{ "type": "Feature", "properties": { "difference_1990_2000": 3.0, "difference_1990_2010": 29.0, "difference_1990_2020": -3.0 }, "geometry": { "type": "Polygon", "coordinates": [ [ [ -110.288065843621425, 24.171647575689597 ], [ -110.283493369913145, 24.171647575689637 ], [ -110.283493369913145, 24.167388681031184 ], [ -110.288065843621425, 24.167388681031184 ], [ -110.288065843621425, 24.171647575689597 ] ] ] } },
{ "type": "Feature", "properties": { "difference_1990_2000": 318.0, "difference_1990_2010": 294.0, "difference_1990_2020": 200.0 }, "geometry": { "type": "Polygon", "coordinates": [ [ [ -110.288065843621425, 24.175906610855552 ], [ -110.283493369913145, 24.175906610855566 ], [ -110.283493369913145, 24.171647575689637 ], [ -110.288065843621425, 24.171647575689597 ], [ -110.288065843621425, 24.175906610855552 ] ] ] } },
{ "type": "Feature", "properties": { "difference_1990_2000": 1.0, "difference_1990_2010": 0.0, "difference_1990_2020": -1.0 }, "geometry": { "type": "Polygon", "coordinates": [ [ [ -110.288065843621425, 24.133322577553766 ], [ -110.283493369913145, 24.13332257755377 ], [ -110.283493369913145, 24.129064945783593 ], [ -110.288065843621425, 24.129064945783593 ], [ -110.288065843621425, 24.133322577553766 ] ] ] } },
{ "type": "Feature", "properties": { "difference_1990_2000": -10.0, "difference_1990_2010": -5.0, "difference_1990_2020": -10.0 }, "geometry": { "type": "Polygon", "coordinates": [ [ [ -110.288065843621425, 24.158871313087239 ], [ -110.283493369913145, 24.158871313087275 ], [ -110.283493369913145, 24.154612839727204 ], [ -110.288065843621425, 24.154612839727196 ], [ -110.288065843621425, 24.158871313087239 ] ] ] } },
{ "type": "Feature", "properties": { "difference_1990_2000": -6.0, "difference_1990_2010": -162.0, "difference_1990_2020": -186.0 }, "geometry": { "type": "Polygon", "coordinates": [ [ [ -110.288065843621425, 24.154612839727196 ], [ -110.283493369913145, 24.154612839727204 ], [ -110.283493369913145, 24.150354506725282 ], [ -110.288065843621425, 24.150354506725286 ], [ -110.288065843621425, 24.154612839727196 ] ] ] } },
{ "type": "Feature", "properties": { "difference_1990_2000": 550.0, "difference_1990_2010": 1130.0, "difference_1990_2020": 1234.0 }, "geometry": { "type": "Polygon", "coordinates": [ [ [ -110.288065843621425, 24.167388681031184 ], [ -110.283493369913145, 24.167388681031184 ], [ -110.283493369913145, 24.163129926842831 ], [ -110.288065843621425, 24.163129926842831 ], [ -110.288065843621425, 24.167388681031184 ] ] ] } },
{ "type": "Feature", "properties": { "difference_1990_2000": 99.0, "difference_1990_2010": -7.0, "difference_1990_2020": -110.0 }, "geometry": { "type": "Polygon", "coordinates": [ [ [ -110.288065843621425, 24.146096314044261 ], [ -110.283493369913145, 24.1460963140443 ], [ -110.283493369913145, 24.141838261646853 ], [ -110.288065843621425, 24.141838261646853 ], [ -110.288065843621425, 24.146096314044261 ] ] ] } },
{ "type": "Feature", "properties": { "difference_1990_2000": 81.0, "difference_1990_2010": 164.0, "difference_1990_2020": 184.0 }, "geometry": { "type": "Polygon", "coordinates": [ [ [ -110.288065843621425, 24.163129926842831 ], [ -110.283493369913145, 24.163129926842831 ], [ -110.283493369913145, 24.158871313087275 ], [ -110.288065843621425, 24.158871313087239 ], [ -110.288065843621425, 24.163129926842831 ] ] ] } },
{ "type": "Feature", "properties": { "difference_1990_2000": -16.0, "difference_1990_2010": 404.0, "difference_1990_2020": 285.0 }, "geometry": { "type": "Polygon", "coordinates": [ [ [ -110.288065843621425, 24.150354506725286 ], [ -110.283493369913145, 24.150354506725282 ], [ -110.283493369913145, 24.1460963140443 ], [ -110.288065843621425, 24.146096314044261 ], [ -110.288065843621425, 24.150354506725286 ] ] ] } },
{ "type": "Feature", "properties": { "difference_1990_2000": 5.0, "difference_1990_2010": 2.0, "difference_1990_2020": -2.0 }, "geometry": { "type": "Polygon", "coordinates": [ [ [ -110.278920896204866, 24.137580349495781 ], [ -110.274348422496587, 24.137580349495778 ], [ -110.274348422496587, 24.13332257755377 ], [ -110.278920896204866, 24.133322577553773 ], [ -110.278920896204866, 24.137580349495781 ] ] ] } },
{ "type": "Feature", "properties": { "difference_1990_2000": -11.0, "difference_1990_2010": -6.0, "difference_1990_2020": -12.0 }, "geometry": { "type": "Polygon", "coordinates": [ [ [ -110.278920896204866, 24.141838261646861 ], [ -110.274348422496587, 24.141838261646857 ], [ -110.274348422496587, 24.137580349495778 ], [ -110.278920896204866, 24.137580349495781 ], [ -110.278920896204866, 24.141838261646861 ] ] ] } },
{ "type": "Feature", "properties": { "difference_1990_2000": 5.0, "difference_1990_2010": 84.0, "difference_1990_2020": 87.0 }, "geometry": { "type": "Polygon", "coordinates": [ [ [ -110.278920896204866, 24.158871313087271 ], [ -110.274348422496587, 24.158871313087271 ], [ -110.274348422496587, 24.154612839727196 ], [ -110.278920896204866, 24.1546128397272 ], [ -110.278920896204866, 24.158871313087271 ] ] ] } },
{ "type": "Feature", "properties": { "difference_1990_2000": 642.0, "difference_1990_2010": 821.0, "difference_1990_2020": 728.0 }, "geometry": { "type": "Polygon", "coordinates": [ [ [ -110.278920896204866, 24.1546128397272 ], [ -110.274348422496587, 24.154612839727196 ], [ -110.274348422496587, 24.150354506725314 ], [ -110.278920896204866, 24.150354506725289 ], [ -110.278920896204866, 24.1546128397272 ] ] ] } },
{ "type": "Feature", "properties": { "difference_1990_2000": 75.0, "difference_1990_2010": 119.0, "difference_1990_2020": -43.0 }, "geometry": { "type": "Polygon", "coordinates": [ [ [ -110.278920896204866, 24.146096314044307 ], [ -110.274348422496587, 24.146096314044303 ], [ -110.274348422496587, 24.141838261646857 ], [ -110.278920896204866, 24.141838261646861 ], [ -110.278920896204866, 24.146096314044307 ] ] ] } },
{ "type": "Feature", "properties": { "difference_1990_2000": 410.0, "difference_1990_2010": 461.0, "difference_1990_2020": 319.0 }, "geometry": { "type": "Polygon", "coordinates": [ [ [ -110.278920896204866, 24.150354506725289 ], [ -110.274348422496587, 24.150354506725314 ], [ -110.274348422496587, 24.146096314044303 ], [ -110.278920896204866, 24.146096314044307 ], [ -110.278920896204866, 24.150354506725289 ] ] ] } },
{ "type": "Feature", "properties": { "difference_1990_2000": -2.0, "difference_1990_2010": -1.0, "difference_1990_2020": 0.0 }, "geometry": { "type": "Polygon", "coordinates": [ [ [ -110.269775948788293, 24.137580349495785 ], [ -110.265203475080014, 24.137580349495778 ], [ -110.265203475080014, 24.133322577553791 ], [ -110.269775948788293, 24.13332257755377 ], [ -110.269775948788293, 24.137580349495785 ] ] ] } },
{ "type": "Feature", "properties": { "difference_1990_2000": -64.0, "difference_1990_2010": -24.0, "difference_1990_2020": 1.0 }, "geometry": { "type": "Polygon", "coordinates": [ [ [ -110.269775948788293, 24.141838261646857 ], [ -110.265203475080014, 24.1418382616469 ], [ -110.265203475080014, 24.137580349495778 ], [ -110.269775948788293, 24.137580349495785 ], [ -110.269775948788293, 24.141838261646857 ] ] ] } },
{ "type": "Feature", "properties": { "difference_1990_2000": 0.0, "difference_1990_2010": 0.0, "difference_1990_2020": 1.0 }, "geometry": { "type": "Polygon", "coordinates": [ [ [ -110.269775948788293, 24.171647575689637 ], [ -110.265203475080014, 24.17164757568964 ], [ -110.265203475080014, 24.167388681031184 ], [ -110.269775948788293, 24.167388681031184 ], [ -110.269775948788293, 24.171647575689637 ] ] ] } },
{ "type": "Feature", "properties": { "difference_1990_2000": 4.0, "difference_1990_2010": 351.0, "difference_1990_2020": 522.0 }, "geometry": { "type": "Polygon", "coordinates": [ [ [ -110.269775948788293, 24.158871313087275 ], [ -110.265203475080014, 24.158871313087275 ], [ -110.265203475080014, 24.154612839727196 ], [ -110.269775948788293, 24.154612839727196 ], [ -110.269775948788293, 24.158871313087275 ] ] ] } },
{ "type": "Feature", "properties": { "difference_1990_2000": 99.0, "difference_1990_2010": 410.0, "difference_1990_2020": 509.0 }, "geometry": { "type": "Polygon", "coordinates": [ [ [ -110.269775948788293, 24.154612839727196 ], [ -110.265203475080014, 24.154612839727196 ], [ -110.265203475080014, 24.150354506725282 ], [ -110.269775948788293, 24.150354506725286 ], [ -110.269775948788293, 24.154612839727196 ] ] ] } },
{ "type": "Feature", "properties": { "difference_1990_2000": 0.0, "difference_1990_2010": 135.0, "difference_1990_2020": 450.0 }, "geometry": { "type": "Polygon", "coordinates": [ [ [ -110.269775948788293, 24.167388681031184 ], [ -110.265203475080014, 24.167388681031184 ], [ -110.265203475080014, 24.163129926842831 ], [ -110.269775948788293, 24.163129926842831 ], [ -110.269775948788293, 24.167388681031184 ] ] ] } },
{ "type": "Feature", "properties": { "difference_1990_2000": -74.0, "difference_1990_2010": -23.0, "difference_1990_2020": 7.0 }, "geometry": { "type": "Polygon", "coordinates": [ [ [ -110.269775948788293, 24.146096314044261 ], [ -110.265203475080014, 24.146096314044314 ], [ -110.265203475080014, 24.1418382616469 ], [ -110.269775948788293, 24.141838261646857 ], [ -110.269775948788293, 24.146096314044261 ] ] ] } },
{ "type": "Feature", "properties": { "difference_1990_2000": 0.0, "difference_1990_2010": 177.0, "difference_1990_2020": 390.0 }, "geometry": { "type": "Polygon", "coordinates": [ [ [ -110.269775948788293, 24.163129926842831 ], [ -110.265203475080014, 24.163129926842831 ], [ -110.265203475080014, 24.158871313087275 ], [ -110.269775948788293, 24.158871313087275 ], [ -110.269775948788293, 24.163129926842831 ] ] ] } },
{ "type": "Feature", "properties": { "difference_1990_2000": 84.0, "difference_1990_2010": 191.0, "difference_1990_2020": 194.0 }, "geometry": { "type": "Polygon", "coordinates": [ [ [ -110.269775948788293, 24.150354506725286 ], [ -110.265203475080014, 24.150354506725282 ], [ -110.265203475080014, 24.146096314044314 ], [ -110.269775948788293, 24.146096314044261 ], [ -110.269775948788293, 24.150354506725286 ] ] ] } },
{ "type": "Feature", "properties": { "difference_1990_2000": 0.0, "difference_1990_2010": 100.0, "difference_1990_2020": 188.0 }, "geometry": { "type": "Polygon", "coordinates": [ [ [ -110.260631001371735, 24.171647575689654 ], [ -110.256058527663455, 24.171647575689633 ], [ -110.256058527663455, 24.167388681031181 ], [ -110.260631001371735, 24.167388681031184 ], [ -110.260631001371735, 24.171647575689654 ] ] ] } },
{ "type": "Feature", "properties": { "difference_1990_2000": -5.0, "difference_1990_2010": 228.0, "difference_1990_2020": 227.0 }, "geometry": { "type": "Polygon", "coordinates": [ [ [ -110.260631001371735, 24.158871313087275 ], [ -110.256058527663455, 24.158871313087275 ], [ -110.256058527663455, 24.154612839727196 ], [ -110.260631001371735, 24.154612839727196 ], [ -110.260631001371735, 24.158871313087275 ] ] ] } },
{ "type": "Feature", "properties": { "difference_1990_2000": -51.0, "difference_1990_2010": -5.0, "difference_1990_2020": 14.0 }, "geometry": { "type": "Polygon", "coordinates": [ [ [ -110.260631001371735, 24.154612839727196 ], [ -110.256058527663455, 24.154612839727196 ], [ -110.256058527663455, 24.150354506725282 ], [ -110.260631001371735, 24.150354506725286 ], [ -110.260631001371735, 24.154612839727196 ] ] ] } },
{ "type": "Feature", "properties": { "difference_1990_2000": 0.0, "difference_1990_2010": 83.0, "difference_1990_2020": 182.0 }, "geometry": { "type": "Polygon", "coordinates": [ [ [ -110.260631001371735, 24.167388681031184 ], [ -110.256058527663455, 24.167388681031181 ], [ -110.256058527663455, 24.163129926842831 ], [ -110.260631001371735, 24.163129926842831 ], [ -110.260631001371735, 24.167388681031184 ] ] ] } },
{ "type": "Feature", "properties": { "difference_1990_2000": -4.0, "difference_1990_2010": -1.0, "difference_1990_2020": 0.0 }, "geometry": { "type": "Polygon", "coordinates": [ [ [ -110.260631001371735, 24.1460963140443 ], [ -110.256058527663455, 24.146096314044296 ], [ -110.256058527663455, 24.141838261646853 ], [ -110.260631001371735, 24.141838261646857 ], [ -110.260631001371735, 24.1460963140443 ] ] ] } },
{ "type": "Feature", "properties": { "difference_1990_2000": 0.0, "difference_1990_2010": 147.0, "difference_1990_2020": 222.0 }, "geometry": { "type": "Polygon", "coordinates": [ [ [ -110.260631001371735, 24.163129926842831 ], [ -110.256058527663455, 24.163129926842831 ], [ -110.256058527663455, 24.158871313087275 ], [ -110.260631001371735, 24.158871313087275 ], [ -110.260631001371735, 24.163129926842831 ] ] ] } },
{ "type": "Feature", "properties": { "difference_1990_2000": -25.0, "difference_1990_2010": -10.0, "difference_1990_2020": 0.0 }, "geometry": { "type": "Polygon", "coordinates": [ [ [ -110.260631001371735, 24.150354506725286 ], [ -110.256058527663455, 24.150354506725282 ], [ -110.256058527663455, 24.146096314044296 ], [ -110.260631001371735, 24.1460963140443 ], [ -110.260631001371735, 24.150354506725286 ] ] ] } }
]
}
