{
"type": "FeatureCollection",
"name": "M08.02",
"crs": { "type": "name", "properties": { "name": "urn:ogc:def:crs:OGC:1.3:CRS84" } },
"features": [
{ "type": "Feature", "properties": { "difference_1990_2000": -68.0, "difference_1990_2010": -173.0, "difference_1990_2020": -158.0 }, "geometry": { "type": "Polygon", "coordinates": [ [ [ -105.450388660265205, 28.202975468310811 ], [ -105.445816186556925, 28.202975468310811 ], [ -105.445816186556925, 28.198568208448329 ], [ -105.450388660265205, 28.198568208448354 ], [ -105.450388660265205, 28.202975468310811 ] ] ] } },
{ "type": "Feature", "properties": { "difference_1990_2000": -82.0, "difference_1990_2010": -136.0, "difference_1990_2020": -259.0 }, "geometry": { "type": "Polygon", "coordinates": [ [ [ -105.450388660265205, 28.194161128455583 ], [ -105.445816186556925, 28.194161128455587 ], [ -105.445816186556925, 28.189754228284574 ], [ -105.450388660265205, 28.189754228284574 ], [ -105.450388660265205, 28.194161128455583 ] ] ] } },
{ "type": "Feature", "properties": { "difference_1990_2000": 975.0, "difference_1990_2010": 766.0, "difference_1990_2020": 697.0 }, "geometry": { "type": "Polygon", "coordinates": [ [ [ -105.450388660265205, 28.167722423074366 ], [ -105.445816186556925, 28.167722423074366 ], [ -105.445816186556925, 28.163316600825286 ], [ -105.450388660265205, 28.163316600825286 ], [ -105.450388660265205, 28.167722423074366 ] ] ] } },
{ "type": "Feature", "properties": { "difference_1990_2000": 38.0, "difference_1990_2010": 30.0, "difference_1990_2020": 27.0 }, "geometry": { "type": "Polygon", "coordinates": [ [ [ -105.450388660265205, 28.172128424857149 ], [ -105.445816186556925, 28.17212842485711 ], [ -105.445816186556925, 28.167722423074366 ], [ -105.450388660265205, 28.167722423074366 ], [ -105.450388660265205, 28.172128424857149 ] ] ] } },
{ "type": "Feature", "properties": { "difference_1990_2000": -100.0, "difference_1990_2010": 596.0, "difference_1990_2020": 577.0 }, "geometry": { "type": "Polygon", "coordinates": [ [ [ -105.450388660265205, 28.207382908091137 ], [ -105.445816186556925, 28.207382908091098 ], [ -105.445816186556925, 28.202975468310811 ], [ -105.450388660265205, 28.202975468310811 ], [ -105.450388660265205, 28.207382908091137 ] ] ] } },
{ "type": "Feature", "properties": { "difference_1990_2000": 0.0, "difference_1990_2010": 0.0, "difference_1990_2020": 5.0 }, "geometry": { "type": "Polygon", "coordinates": [ [ [ -105.450388660265205, 28.216198327597606 ], [ -105.445816186556925, 28.216198327597574 ], [ -105.445816186556925, 28.211790527837362 ], [ -105.450388660265205, 28.211790527837362 ], [ -105.450388660265205, 28.216198327597606 ] ] ] } },
{ "type": "Feature", "properties": { "difference_1990_2000": 2.0, "difference_1990_2010": 224.0, "difference_1990_2020": 219.0 }, "geometry": { "type": "Polygon", "coordinates": [ [ [ -105.450388660265205, 28.185347507887247 ], [ -105.445816186556925, 28.185347507887244 ], [ -105.445816186556925, 28.18094096721557 ], [ -105.450388660265205, 28.180940967215601 ], [ -105.450388660265205, 28.185347507887247 ] ] ] } },
{ "type": "Feature", "properties": { "difference_1990_2000": 17.0, "difference_1990_2010": 86.0, "difference_1990_2020": 69.0 }, "geometry": { "type": "Polygon", "coordinates": [ [ [ -105.450388660265205, 28.176534606221541 ], [ -105.445816186556925, 28.176534606221541 ], [ -105.445816186556925, 28.172128424857057 ], [ -105.450388660265205, 28.172128424857089 ], [ -105.450388660265205, 28.176534606221541 ] ] ] } },
{ "type": "Feature", "properties": { "difference_1990_2000": 35.0, "difference_1990_2010": 272.0, "difference_1990_2020": 115.0 }, "geometry": { "type": "Polygon", "coordinates": [ [ [ -105.450388660265205, 28.189754228284574 ], [ -105.445816186556925, 28.189754228284574 ], [ -105.445816186556925, 28.185347507887244 ], [ -105.450388660265205, 28.185347507887247 ], [ -105.450388660265205, 28.189754228284574 ] ] ] } },
{ "type": "Feature", "properties": { "difference_1990_2000": -19.0, "difference_1990_2010": -40.0, "difference_1990_2020": 64.0 }, "geometry": { "type": "Polygon", "coordinates": [ [ [ -105.450388660265205, 28.198568208448304 ], [ -105.445816186556925, 28.198568208448304 ], [ -105.445816186556925, 28.194161128455587 ], [ -105.450388660265205, 28.194161128455583 ], [ -105.450388660265205, 28.198568208448304 ] ] ] } },
{ "type": "Feature", "properties": { "difference_1990_2000": 18.0, "difference_1990_2010": 129.0, "difference_1990_2020": 131.0 }, "geometry": { "type": "Polygon", "coordinates": [ [ [ -105.450388660265205, 28.180940967215601 ], [ -105.445816186556925, 28.18094096721557 ], [ -105.445816186556925, 28.176534606221541 ], [ -105.450388660265205, 28.176534606221541 ], [ -105.450388660265205, 28.180940967215601 ] ] ] } },
{ "type": "Feature", "properties": { "difference_1990_2000": 0.0, "difference_1990_2010": 0.0, "difference_1990_2020": 3.0 }, "geometry": { "type": "Polygon", "coordinates": [ [ [ -105.450388660265205, 28.220606307419935 ], [ -105.445816186556925, 28.220606307419935 ], [ -105.445816186556925, 28.216198327597574 ], [ -105.450388660265205, 28.216198327597606 ], [ -105.450388660265205, 28.220606307419935 ] ] ] } },
{ "type": "Feature", "properties": { "difference_1990_2000": -1.0, "difference_1990_2010": 572.0, "difference_1990_2020": 627.0 }, "geometry": { "type": "Polygon", "coordinates": [ [ [ -105.450388660265205, 28.211790527837362 ], [ -105.445816186556925, 28.211790527837362 ], [ -105.445816186556925, 28.207382908091098 ], [ -105.450388660265205, 28.207382908091137 ], [ -105.450388660265205, 28.211790527837362 ] ] ] } },
{ "type": "Feature", "properties": { "difference_1990_2000": -1.0, "difference_1990_2010": -1.0, "difference_1990_2020": 0.0 }, "geometry": { "type": "Polygon", "coordinates": [ [ [ -105.441243712848674, 28.167722423074348 ], [ -105.436671239140395, 28.167722423074366 ], [ -105.436671239140395, 28.163316600825269 ], [ -105.441243712848674, 28.163316600825286 ], [ -105.441243712848674, 28.167722423074348 ] ] ] } },
{ "type": "Feature", "properties": { "difference_1990_2000": 0.0, "difference_1990_2010": 572.0, "difference_1990_2020": 884.0 }, "geometry": { "type": "Polygon", "coordinates": [ [ [ -105.441243712848674, 28.202975468310811 ], [ -105.436671239140395, 28.202975468310811 ], [ -105.436671239140395, 28.198568208448354 ], [ -105.441243712848674, 28.198568208448322 ], [ -105.441243712848674, 28.202975468310811 ] ] ] } },
{ "type": "Feature", "properties": { "difference_1990_2000": 710.0, "difference_1990_2010": 1445.0, "difference_1990_2020": 1435.0 }, "geometry": { "type": "Polygon", "coordinates": [ [ [ -105.441243712848674, 28.194161128455583 ], [ -105.436671239140395, 28.194161128455583 ], [ -105.436671239140395, 28.189754228284574 ], [ -105.441243712848674, 28.189754228284563 ], [ -105.441243712848674, 28.194161128455583 ] ] ] } },
{ "type": "Feature", "properties": { "difference_1990_2000": -1.0, "difference_1990_2010": -1.0, "difference_1990_2020": -1.0 }, "geometry": { "type": "Polygon", "coordinates": [ [ [ -105.441243712848674, 28.172128424857149 ], [ -105.436671239140395, 28.172128424857149 ], [ -105.436671239140395, 28.167722423074366 ], [ -105.441243712848674, 28.167722423074348 ], [ -105.441243712848674, 28.172128424857149 ] ] ] } },
{ "type": "Feature", "properties": { "difference_1990_2000": 0.0, "difference_1990_2010": 578.0, "difference_1990_2020": 1413.0 }, "geometry": { "type": "Polygon", "coordinates": [ [ [ -105.441243712848674, 28.207382908091141 ], [ -105.436671239140395, 28.207382908091084 ], [ -105.436671239140395, 28.202975468310811 ], [ -105.441243712848674, 28.202975468310811 ], [ -105.441243712848674, 28.207382908091141 ] ] ] } },
{ "type": "Feature", "properties": { "difference_1990_2000": 38.0, "difference_1990_2010": 911.0, "difference_1990_2020": 1358.0 }, "geometry": { "type": "Polygon", "coordinates": [ [ [ -105.441243712848674, 28.185347507887247 ], [ -105.436671239140395, 28.185347507887251 ], [ -105.436671239140395, 28.180940967215552 ], [ -105.441243712848674, 28.180940967215573 ], [ -105.441243712848674, 28.185347507887247 ] ] ] } },
{ "type": "Feature", "properties": { "difference_1990_2000": 611.0, "difference_1990_2010": 1535.0, "difference_1990_2020": 1619.0 }, "geometry": { "type": "Polygon", "coordinates": [ [ [ -105.441243712848674, 28.189754228284563 ], [ -105.436671239140395, 28.189754228284574 ], [ -105.436671239140395, 28.185347507887251 ], [ -105.441243712848674, 28.185347507887247 ], [ -105.441243712848674, 28.189754228284563 ] ] ] } },
{ "type": "Feature", "properties": { "difference_1990_2000": 0.0, "difference_1990_2010": 181.0, "difference_1990_2020": 272.0 }, "geometry": { "type": "Polygon", "coordinates": [ [ [ -105.441243712848674, 28.180940967215573 ], [ -105.436671239140395, 28.180940967215552 ], [ -105.436671239140395, 28.176534606221548 ], [ -105.441243712848674, 28.176534606221541 ], [ -105.441243712848674, 28.180940967215573 ] ] ] } },
{ "type": "Feature", "properties": { "difference_1990_2000": 1.0, "difference_1990_2010": 1003.0, "difference_1990_2020": 1080.0 }, "geometry": { "type": "Polygon", "coordinates": [ [ [ -105.441243712848674, 28.198568208448304 ], [ -105.436671239140395, 28.1985682084483 ], [ -105.436671239140395, 28.194161128455583 ], [ -105.441243712848674, 28.194161128455583 ], [ -105.441243712848674, 28.198568208448304 ] ] ] } },
{ "type": "Feature", "properties": { "difference_1990_2000": 0.0, "difference_1990_2010": 320.0, "difference_1990_2020": 554.0 }, "geometry": { "type": "Polygon", "coordinates": [ [ [ -105.441243712848674, 28.211790527837362 ], [ -105.436671239140395, 28.211790527837323 ], [ -105.436671239140395, 28.207382908091084 ], [ -105.441243712848674, 28.207382908091141 ], [ -105.441243712848674, 28.211790527837362 ] ] ] } },
{ "type": "Feature", "properties": { "difference_1990_2000": 306.0, "difference_1990_2010": 295.0, "difference_1990_2020": 88.0 }, "geometry": { "type": "Polygon", "coordinates": [ [ [ -105.482395976223145, 28.202975468310811 ], [ -105.477823502514866, 28.202975468310814 ], [ -105.477823502514866, 28.19856820844835 ], [ -105.482395976223145, 28.198568208448325 ], [ -105.482395976223145, 28.202975468310811 ] ] ] } },
{ "type": "Feature", "properties": { "difference_1990_2000": -534.0, "difference_1990_2010": -869.0, "difference_1990_2020": -1087.0 }, "geometry": { "type": "Polygon", "coordinates": [ [ [ -105.482395976223145, 28.194161128455587 ], [ -105.477823502514866, 28.194161128455587 ], [ -105.477823502514866, 28.189754228284574 ], [ -105.482395976223145, 28.189754228284627 ], [ -105.482395976223145, 28.194161128455587 ] ] ] } },
{ "type": "Feature", "properties": { "difference_1990_2000": 379.0, "difference_1990_2010": 514.0, "difference_1990_2020": 894.0 }, "geometry": { "type": "Polygon", "coordinates": [ [ [ -105.482395976223145, 28.167722423074366 ], [ -105.477823502514866, 28.167722423074363 ], [ -105.477823502514866, 28.163316600825265 ], [ -105.482395976223145, 28.163316600825265 ], [ -105.482395976223145, 28.167722423074366 ] ] ] } },
{ "type": "Feature", "properties": { "difference_1990_2000": 189.0, "difference_1990_2010": 575.0, "difference_1990_2020": 949.0 }, "geometry": { "type": "Polygon", "coordinates": [ [ [ -105.482395976223145, 28.158910958061966 ], [ -105.477823502514866, 28.15891095806197 ], [ -105.477823502514866, 28.154505494736473 ], [ -105.482395976223145, 28.154505494736469 ], [ -105.482395976223145, 28.158910958061966 ] ] ] } },
{ "type": "Feature", "properties": { "difference_1990_2000": 203.0, "difference_1990_2010": 263.0, "difference_1990_2020": 496.0 }, "geometry": { "type": "Polygon", "coordinates": [ [ [ -105.482395976223145, 28.172128424857149 ], [ -105.477823502514866, 28.172128424857146 ], [ -105.477823502514866, 28.167722423074363 ], [ -105.482395976223145, 28.167722423074366 ], [ -105.482395976223145, 28.172128424857149 ] ] ] } },
{ "type": "Feature", "properties": { "difference_1990_2000": 199.0, "difference_1990_2010": 217.0, "difference_1990_2020": 65.0 }, "geometry": { "type": "Polygon", "coordinates": [ [ [ -105.482395976223145, 28.207382908091141 ], [ -105.477823502514866, 28.207382908091095 ], [ -105.477823502514866, 28.202975468310814 ], [ -105.482395976223145, 28.202975468310811 ], [ -105.482395976223145, 28.207382908091141 ] ] ] } },
{ "type": "Feature", "properties": { "difference_1990_2000": 326.0, "difference_1990_2010": 550.0, "difference_1990_2020": 1023.0 }, "geometry": { "type": "Polygon", "coordinates": [ [ [ -105.482395976223145, 28.163316600825265 ], [ -105.477823502514866, 28.163316600825265 ], [ -105.477823502514866, 28.15891095806197 ], [ -105.482395976223145, 28.158910958061966 ], [ -105.482395976223145, 28.163316600825265 ] ] ] } },
{ "type": "Feature", "properties": { "difference_1990_2000": -148.0, "difference_1990_2010": -338.0, "difference_1990_2020": -500.0 }, "geometry": { "type": "Polygon", "coordinates": [ [ [ -105.482395976223145, 28.18534750788729 ], [ -105.477823502514866, 28.185347507887268 ], [ -105.477823502514866, 28.180940967215548 ], [ -105.482395976223145, 28.180940967215577 ], [ -105.482395976223145, 28.18534750788729 ] ] ] } },
{ "type": "Feature", "properties": { "difference_1990_2000": -4.0, "difference_1990_2010": 63.0, "difference_1990_2020": 162.0 }, "geometry": { "type": "Polygon", "coordinates": [ [ [ -105.482395976223145, 28.176534606221555 ], [ -105.477823502514866, 28.176534606221541 ], [ -105.477823502514866, 28.172128424857146 ], [ -105.482395976223145, 28.172128424857149 ], [ -105.482395976223145, 28.176534606221555 ] ] ] } },
{ "type": "Feature", "properties": { "difference_1990_2000": 54.0, "difference_1990_2010": 103.0, "difference_1990_2020": 90.0 }, "geometry": { "type": "Polygon", "coordinates": [ [ [ -105.482395976223145, 28.180940967215577 ], [ -105.477823502514866, 28.180940967215548 ], [ -105.477823502514866, 28.176534606221541 ], [ -105.482395976223145, 28.176534606221555 ], [ -105.482395976223145, 28.180940967215577 ] ] ] } },
{ "type": "Feature", "properties": { "difference_1990_2000": -109.0, "difference_1990_2010": -291.0, "difference_1990_2020": -520.0 }, "geometry": { "type": "Polygon", "coordinates": [ [ [ -105.482395976223145, 28.198568208448307 ], [ -105.477823502514866, 28.198568208448304 ], [ -105.477823502514866, 28.194161128455587 ], [ -105.482395976223145, 28.194161128455587 ], [ -105.482395976223145, 28.198568208448307 ] ] ] } },
{ "type": "Feature", "properties": { "difference_1990_2000": -476.0, "difference_1990_2010": -807.0, "difference_1990_2020": -958.0 }, "geometry": { "type": "Polygon", "coordinates": [ [ [ -105.482395976223145, 28.189754228284627 ], [ -105.477823502514866, 28.189754228284574 ], [ -105.477823502514866, 28.185347507887268 ], [ -105.482395976223145, 28.18534750788729 ], [ -105.482395976223145, 28.189754228284627 ] ] ] } },
{ "type": "Feature", "properties": { "difference_1990_2000": -130.0, "difference_1990_2010": -257.0, "difference_1990_2020": -363.0 }, "geometry": { "type": "Polygon", "coordinates": [ [ [ -105.482395976223145, 28.211790527837362 ], [ -105.477823502514866, 28.211790527837362 ], [ -105.477823502514866, 28.207382908091095 ], [ -105.482395976223145, 28.207382908091141 ], [ -105.482395976223145, 28.211790527837362 ] ] ] } },
{ "type": "Feature", "properties": { "difference_1990_2000": -216.0, "difference_1990_2010": -306.0, "difference_1990_2020": -449.0 }, "geometry": { "type": "Polygon", "coordinates": [ [ [ -105.473251028806601, 28.202975468310811 ], [ -105.468678555098322, 28.202975468310811 ], [ -105.468678555098322, 28.19856820844835 ], [ -105.473251028806601, 28.198568208448332 ], [ -105.473251028806601, 28.202975468310811 ] ] ] } },
{ "type": "Feature", "properties": { "difference_1990_2000": -236.0, "difference_1990_2010": -398.0, "difference_1990_2020": -510.0 }, "geometry": { "type": "Polygon", "coordinates": [ [ [ -105.473251028806601, 28.194161128455587 ], [ -105.468678555098322, 28.194161128455562 ], [ -105.468678555098322, 28.189754228284578 ], [ -105.473251028806601, 28.189754228284578 ], [ -105.473251028806601, 28.194161128455587 ] ] ] } },
{ "type": "Feature", "properties": { "difference_1990_2000": 600.0, "difference_1990_2010": 763.0, "difference_1990_2020": 792.0 }, "geometry": { "type": "Polygon", "coordinates": [ [ [ -105.473251028806601, 28.167722423074366 ], [ -105.468678555098322, 28.16772242307437 ], [ -105.468678555098322, 28.163316600825265 ], [ -105.473251028806601, 28.163316600825265 ], [ -105.473251028806601, 28.167722423074366 ] ] ] } },
{ "type": "Feature", "properties": { "difference_1990_2000": 772.0, "difference_1990_2010": 1921.0, "difference_1990_2020": 2006.0 }, "geometry": { "type": "Polygon", "coordinates": [ [ [ -105.473251028806601, 28.158910958061966 ], [ -105.468678555098322, 28.15891095806197 ], [ -105.468678555098322, 28.154505494736473 ], [ -105.473251028806601, 28.154505494736437 ], [ -105.473251028806601, 28.158910958061966 ] ] ] } },
{ "type": "Feature", "properties": { "difference_1990_2000": -59.0, "difference_1990_2010": 267.0, "difference_1990_2020": 355.0 }, "geometry": { "type": "Polygon", "coordinates": [ [ [ -105.473251028806601, 28.207382908091095 ], [ -105.468678555098322, 28.207382908091088 ], [ -105.468678555098322, 28.202975468310811 ], [ -105.473251028806601, 28.202975468310811 ], [ -105.473251028806601, 28.207382908091095 ] ] ] } },
{ "type": "Feature", "properties": { "difference_1990_2000": 625.0, "difference_1990_2010": 805.0, "difference_1990_2020": 789.0 }, "geometry": { "type": "Polygon", "coordinates": [ [ [ -105.473251028806601, 28.172128424857149 ], [ -105.468678555098322, 28.172128424857107 ], [ -105.468678555098322, 28.16772242307437 ], [ -105.473251028806601, 28.167722423074366 ], [ -105.473251028806601, 28.172128424857149 ] ] ] } },
{ "type": "Feature", "properties": { "difference_1990_2000": 514.0, "difference_1990_2010": 583.0, "difference_1990_2020": 891.0 }, "geometry": { "type": "Polygon", "coordinates": [ [ [ -105.473251028806601, 28.163316600825265 ], [ -105.468678555098322, 28.163316600825265 ], [ -105.468678555098322, 28.15891095806197 ], [ -105.473251028806601, 28.158910958061966 ], [ -105.473251028806601, 28.163316600825265 ] ] ] } },
{ "type": "Feature", "properties": { "difference_1990_2000": 40.0, "difference_1990_2010": 193.0, "difference_1990_2020": 336.0 }, "geometry": { "type": "Polygon", "coordinates": [ [ [ -105.473251028806601, 28.216198327597574 ], [ -105.468678555098322, 28.216198327597617 ], [ -105.468678555098322, 28.211790527837358 ], [ -105.473251028806601, 28.211790527837326 ], [ -105.473251028806601, 28.216198327597574 ] ] ] } },
{ "type": "Feature", "properties": { "difference_1990_2000": -58.0, "difference_1990_2010": -143.0, "difference_1990_2020": -261.0 }, "geometry": { "type": "Polygon", "coordinates": [ [ [ -105.473251028806601, 28.185347507887251 ], [ -105.468678555098322, 28.185347507887268 ], [ -105.468678555098322, 28.18094096721557 ], [ -105.473251028806601, 28.180940967215552 ], [ -105.473251028806601, 28.185347507887251 ] ] ] } },
{ "type": "Feature", "properties": { "difference_1990_2000": 232.0, "difference_1990_2010": 320.0, "difference_1990_2020": 282.0 }, "geometry": { "type": "Polygon", "coordinates": [ [ [ -105.473251028806601, 28.176534606221537 ], [ -105.468678555098322, 28.176534606221495 ], [ -105.468678555098322, 28.172128424857057 ], [ -105.473251028806601, 28.172128424857092 ], [ -105.473251028806601, 28.176534606221537 ] ] ] } },
{ "type": "Feature", "properties": { "difference_1990_2000": -128.0, "difference_1990_2010": -231.0, "difference_1990_2020": -297.0 }, "geometry": { "type": "Polygon", "coordinates": [ [ [ -105.473251028806601, 28.198568208448265 ], [ -105.468678555098322, 28.198568208448307 ], [ -105.468678555098322, 28.194161128455562 ], [ -105.473251028806601, 28.194161128455587 ], [ -105.473251028806601, 28.198568208448265 ] ] ] } },
{ "type": "Feature", "properties": { "difference_1990_2000": 99.0, "difference_1990_2010": 104.0, "difference_1990_2020": 11.0 }, "geometry": { "type": "Polygon", "coordinates": [ [ [ -105.473251028806601, 28.180940967215552 ], [ -105.468678555098322, 28.18094096721557 ], [ -105.468678555098322, 28.176534606221495 ], [ -105.473251028806601, 28.176534606221537 ], [ -105.473251028806601, 28.180940967215552 ] ] ] } },
{ "type": "Feature", "properties": { "difference_1990_2000": -424.0, "difference_1990_2010": -581.0, "difference_1990_2020": -684.0 }, "geometry": { "type": "Polygon", "coordinates": [ [ [ -105.473251028806601, 28.189754228284578 ], [ -105.468678555098322, 28.189754228284578 ], [ -105.468678555098322, 28.185347507887268 ], [ -105.473251028806601, 28.185347507887251 ], [ -105.473251028806601, 28.189754228284578 ] ] ] } },
{ "type": "Feature", "properties": { "difference_1990_2000": 13.0, "difference_1990_2010": 41.0, "difference_1990_2020": 84.0 }, "geometry": { "type": "Polygon", "coordinates": [ [ [ -105.473251028806601, 28.220606307419935 ], [ -105.468678555098322, 28.220606307419921 ], [ -105.468678555098322, 28.216198327597617 ], [ -105.473251028806601, 28.216198327597574 ], [ -105.473251028806601, 28.220606307419935 ] ] ] } },
{ "type": "Feature", "properties": { "difference_1990_2000": 19.0, "difference_1990_2010": 477.0, "difference_1990_2020": 435.0 }, "geometry": { "type": "Polygon", "coordinates": [ [ [ -105.473251028806601, 28.211790527837326 ], [ -105.468678555098322, 28.211790527837358 ], [ -105.468678555098322, 28.207382908091088 ], [ -105.473251028806601, 28.207382908091095 ], [ -105.473251028806601, 28.211790527837326 ] ] ] } },
{ "type": "Feature", "properties": { "difference_1990_2000": -123.0, "difference_1990_2010": -254.0, "difference_1990_2020": -438.0 }, "geometry": { "type": "Polygon", "coordinates": [ [ [ -105.464106081390042, 28.202975468310811 ], [ -105.459533607681763, 28.202975468310807 ], [ -105.459533607681763, 28.198568208448357 ], [ -105.464106081390042, 28.198568208448329 ], [ -105.464106081390042, 28.202975468310811 ] ] ] } },
{ "type": "Feature", "properties": { "difference_1990_2000": -1.0, "difference_1990_2010": -47.0, "difference_1990_2020": -102.0 }, "geometry": { "type": "Polygon", "coordinates": [ [ [ -105.464106081390042, 28.194161128455583 ], [ -105.459533607681763, 28.194161128455583 ], [ -105.459533607681763, 28.189754228284574 ], [ -105.464106081390042, 28.189754228284624 ], [ -105.464106081390042, 28.194161128455583 ] ] ] } },
{ "type": "Feature", "properties": { "difference_1990_2000": 468.0, "difference_1990_2010": 354.0, "difference_1990_2020": -61.0 }, "geometry": { "type": "Polygon", "coordinates": [ [ [ -105.464106081390042, 28.167722423074363 ], [ -105.459533607681763, 28.167722423074366 ], [ -105.459533607681763, 28.163316600825279 ], [ -105.464106081390042, 28.163316600825265 ], [ -105.464106081390042, 28.167722423074363 ] ] ] } },
{ "type": "Feature", "properties": { "difference_1990_2000": 463.0, "difference_1990_2010": 1555.0, "difference_1990_2020": 1555.0 }, "geometry": { "type": "Polygon", "coordinates": [ [ [ -105.464106081390042, 28.158910958061973 ], [ -105.459533607681763, 28.158910958061963 ], [ -105.459533607681763, 28.154505494736476 ], [ -105.464106081390042, 28.15450549473648 ], [ -105.464106081390042, 28.158910958061973 ] ] ] } },
{ "type": "Feature", "properties": { "difference_1990_2000": -119.0, "difference_1990_2010": -389.0, "difference_1990_2020": -661.0 }, "geometry": { "type": "Polygon", "coordinates": [ [ [ -105.464106081390042, 28.207382908091095 ], [ -105.459533607681763, 28.207382908091091 ], [ -105.459533607681763, 28.202975468310807 ], [ -105.464106081390042, 28.202975468310811 ], [ -105.464106081390042, 28.207382908091095 ] ] ] } },
{ "type": "Feature", "properties": { "difference_1990_2000": 173.0, "difference_1990_2010": -31.0, "difference_1990_2020": -453.0 }, "geometry": { "type": "Polygon", "coordinates": [ [ [ -105.464106081390042, 28.172128424857149 ], [ -105.459533607681763, 28.172128424857149 ], [ -105.459533607681763, 28.167722423074366 ], [ -105.464106081390042, 28.167722423074363 ], [ -105.464106081390042, 28.172128424857149 ] ] ] } },
{ "type": "Feature", "properties": { "difference_1990_2000": 889.0, "difference_1990_2010": 1244.0, "difference_1990_2020": 1061.0 }, "geometry": { "type": "Polygon", "coordinates": [ [ [ -105.464106081390042, 28.163316600825265 ], [ -105.459533607681763, 28.163316600825279 ], [ -105.459533607681763, 28.158910958061963 ], [ -105.464106081390042, 28.158910958061973 ], [ -105.464106081390042, 28.163316600825265 ] ] ] } },
{ "type": "Feature", "properties": { "difference_1990_2000": 31.0, "difference_1990_2010": 9.0, "difference_1990_2020": 188.0 }, "geometry": { "type": "Polygon", "coordinates": [ [ [ -105.464106081390042, 28.216198327597613 ], [ -105.459533607681763, 28.216198327597613 ], [ -105.459533607681763, 28.211790527837362 ], [ -105.464106081390042, 28.211790527837358 ], [ -105.464106081390042, 28.216198327597613 ] ] ] } },
{ "type": "Feature", "properties": { "difference_1990_2000": -280.0, "difference_1990_2010": -525.0, "difference_1990_2020": -687.0 }, "geometry": { "type": "Polygon", "coordinates": [ [ [ -105.464106081390042, 28.185347507887251 ], [ -105.459533607681763, 28.185347507887247 ], [ -105.459533607681763, 28.180940967215598 ], [ -105.464106081390042, 28.180940967215573 ], [ -105.464106081390042, 28.185347507887251 ] ] ] } },
{ "type": "Feature", "properties": { "difference_1990_2000": -240.0, "difference_1990_2010": -543.0, "difference_1990_2020": -860.0 }, "geometry": { "type": "Polygon", "coordinates": [ [ [ -105.464106081390042, 28.176534606221541 ], [ -105.459533607681763, 28.176534606221544 ], [ -105.459533607681763, 28.172128424857092 ], [ -105.464106081390042, 28.172128424857057 ], [ -105.464106081390042, 28.176534606221541 ] ] ] } },
{ "type": "Feature", "properties": { "difference_1990_2000": -9.0, "difference_1990_2010": -31.0, "difference_1990_2020": -55.0 }, "geometry": { "type": "Polygon", "coordinates": [ [ [ -105.464106081390042, 28.198568208448268 ], [ -105.459533607681763, 28.198568208448304 ], [ -105.459533607681763, 28.194161128455583 ], [ -105.464106081390042, 28.194161128455583 ], [ -105.464106081390042, 28.198568208448268 ] ] ] } },
{ "type": "Feature", "properties": { "difference_1990_2000": -302.0, "difference_1990_2010": -599.0, "difference_1990_2020": -840.0 }, "geometry": { "type": "Polygon", "coordinates": [ [ [ -105.464106081390042, 28.180940967215573 ], [ -105.459533607681763, 28.180940967215598 ], [ -105.459533607681763, 28.176534606221544 ], [ -105.464106081390042, 28.176534606221541 ], [ -105.464106081390042, 28.180940967215573 ] ] ] } },
{ "type": "Feature", "properties": { "difference_1990_2000": -131.0, "difference_1990_2010": -271.0, "difference_1990_2020": -350.0 }, "geometry": { "type": "Polygon", "coordinates": [ [ [ -105.464106081390042, 28.189754228284624 ], [ -105.459533607681763, 28.189754228284574 ], [ -105.459533607681763, 28.185347507887247 ], [ -105.464106081390042, 28.185347507887251 ], [ -105.464106081390042, 28.189754228284624 ] ] ] } },
{ "type": "Feature", "properties": { "difference_1990_2000": 0.0, "difference_1990_2010": 1.0, "difference_1990_2020": 34.0 }, "geometry": { "type": "Polygon", "coordinates": [ [ [ -105.464106081390042, 28.220606307419938 ], [ -105.459533607681763, 28.220606307419938 ], [ -105.459533607681763, 28.216198327597613 ], [ -105.464106081390042, 28.216198327597613 ], [ -105.464106081390042, 28.220606307419938 ] ] ] } },
{ "type": "Feature", "properties": { "difference_1990_2000": 92.0, "difference_1990_2010": 332.0, "difference_1990_2020": 240.0 }, "geometry": { "type": "Polygon", "coordinates": [ [ [ -105.464106081390042, 28.211790527837358 ], [ -105.459533607681763, 28.211790527837362 ], [ -105.459533607681763, 28.207382908091091 ], [ -105.464106081390042, 28.207382908091095 ], [ -105.464106081390042, 28.211790527837358 ] ] ] } },
{ "type": "Feature", "properties": { "difference_1990_2000": 0.0, "difference_1990_2010": 8.0, "difference_1990_2020": 331.0 }, "geometry": { "type": "Polygon", "coordinates": [ [ [ -105.454961133973484, 28.211790527837369 ], [ -105.450388660265205, 28.211790527837362 ], [ -105.450388660265205, 28.207382908091137 ], [ -105.454961133973484, 28.207382908091095 ], [ -105.454961133973484, 28.211790527837369 ] ] ] } },
{ "type": "Feature", "properties": { "difference_1990_2000": -5.0, "difference_1990_2010": -9.0, "difference_1990_2020": 75.0 }, "geometry": { "type": "Polygon", "coordinates": [ [ [ -105.454961133973484, 28.202975468310811 ], [ -105.450388660265205, 28.202975468310811 ], [ -105.450388660265205, 28.198568208448354 ], [ -105.454961133973484, 28.198568208448378 ], [ -105.454961133973484, 28.202975468310811 ] ] ] } },
{ "type": "Feature", "properties": { "difference_1990_2000": -47.0, "difference_1990_2010": -105.0, "difference_1990_2020": -163.0 }, "geometry": { "type": "Polygon", "coordinates": [ [ [ -105.454961133973484, 28.194161128455583 ], [ -105.450388660265205, 28.194161128455583 ], [ -105.450388660265205, 28.189754228284574 ], [ -105.454961133973484, 28.189754228284581 ], [ -105.454961133973484, 28.194161128455583 ] ] ] } },
{ "type": "Feature", "properties": { "difference_1990_2000": 1576.0, "difference_1990_2010": 1402.0, "difference_1990_2020": 1268.0 }, "geometry": { "type": "Polygon", "coordinates": [ [ [ -105.454961133973484, 28.167722423074363 ], [ -105.450388660265205, 28.167722423074366 ], [ -105.450388660265205, 28.163316600825286 ], [ -105.454961133973484, 28.16331660082529 ], [ -105.454961133973484, 28.167722423074363 ] ] ] } },
{ "type": "Feature", "properties": { "difference_1990_2000": 370.0, "difference_1990_2010": 512.0, "difference_1990_2020": 511.0 }, "geometry": { "type": "Polygon", "coordinates": [ [ [ -105.454961133973484, 28.15891095806197 ], [ -105.450388660265205, 28.158910958062002 ], [ -105.450388660265205, 28.154505494736455 ], [ -105.454961133973484, 28.154505494736473 ], [ -105.454961133973484, 28.15891095806197 ] ] ] } },
{ "type": "Feature", "properties": { "difference_1990_2000": -28.0, "difference_1990_2010": 389.0, "difference_1990_2020": 461.0 }, "geometry": { "type": "Polygon", "coordinates": [ [ [ -105.454961133973484, 28.207382908091095 ], [ -105.450388660265205, 28.207382908091137 ], [ -105.450388660265205, 28.202975468310811 ], [ -105.454961133973484, 28.202975468310811 ], [ -105.454961133973484, 28.207382908091095 ] ] ] } },
{ "type": "Feature", "properties": { "difference_1990_2000": 1300.0, "difference_1990_2010": 1055.0, "difference_1990_2020": 856.0 }, "geometry": { "type": "Polygon", "coordinates": [ [ [ -105.454961133973484, 28.172128424857149 ], [ -105.450388660265205, 28.172128424857149 ], [ -105.450388660265205, 28.167722423074366 ], [ -105.454961133973484, 28.167722423074363 ], [ -105.454961133973484, 28.172128424857149 ] ] ] } },
{ "type": "Feature", "properties": { "difference_1990_2000": 300.0, "difference_1990_2010": 438.0, "difference_1990_2020": 402.0 }, "geometry": { "type": "Polygon", "coordinates": [ [ [ -105.454961133973484, 28.16331660082529 ], [ -105.450388660265205, 28.163316600825286 ], [ -105.450388660265205, 28.158910958062002 ], [ -105.454961133973484, 28.15891095806197 ], [ -105.454961133973484, 28.16331660082529 ] ] ] } },
{ "type": "Feature", "properties": { "difference_1990_2000": 0.0, "difference_1990_2010": 0.0, "difference_1990_2020": 21.0 }, "geometry": { "type": "Polygon", "coordinates": [ [ [ -105.454961133973484, 28.216198327597581 ], [ -105.450388660265205, 28.216198327597606 ], [ -105.450388660265205, 28.211790527837362 ], [ -105.454961133973484, 28.211790527837369 ], [ -105.454961133973484, 28.216198327597581 ] ] ] } },
{ "type": "Feature", "properties": { "difference_1990_2000": -43.0, "difference_1990_2010": 47.0, "difference_1990_2020": -69.0 }, "geometry": { "type": "Polygon", "coordinates": [ [ [ -105.454961133973484, 28.185347507887251 ], [ -105.450388660265205, 28.185347507887247 ], [ -105.450388660265205, 28.180940967215601 ], [ -105.454961133973484, 28.180940967215605 ], [ -105.454961133973484, 28.185347507887251 ] ] ] } },
{ "type": "Feature", "properties": { "difference_1990_2000": 444.0, "difference_1990_2010": 283.0, "difference_1990_2020": 79.0 }, "geometry": { "type": "Polygon", "coordinates": [ [ [ -105.454961133973484, 28.176534606221537 ], [ -105.450388660265205, 28.176534606221541 ], [ -105.450388660265205, 28.172128424857089 ], [ -105.454961133973484, 28.172128424857089 ], [ -105.454961133973484, 28.176534606221537 ] ] ] } },
{ "type": "Feature", "properties": { "difference_1990_2000": -40.0, "difference_1990_2010": -60.0, "difference_1990_2020": -120.0 }, "geometry": { "type": "Polygon", "coordinates": [ [ [ -105.454961133973484, 28.189754228284581 ], [ -105.450388660265205, 28.189754228284574 ], [ -105.450388660265205, 28.185347507887247 ], [ -105.454961133973484, 28.185347507887251 ], [ -105.454961133973484, 28.189754228284581 ] ] ] } },
{ "type": "Feature", "properties": { "difference_1990_2000": -10.0, "difference_1990_2010": -19.0, "difference_1990_2020": 37.0 }, "geometry": { "type": "Polygon", "coordinates": [ [ [ -105.454961133973484, 28.198568208448325 ], [ -105.450388660265205, 28.198568208448304 ], [ -105.450388660265205, 28.194161128455583 ], [ -105.454961133973484, 28.194161128455583 ], [ -105.454961133973484, 28.198568208448325 ] ] ] } },
{ "type": "Feature", "properties": { "difference_1990_2000": 23.0, "difference_1990_2010": -31.0, "difference_1990_2020": -170.0 }, "geometry": { "type": "Polygon", "coordinates": [ [ [ -105.454961133973484, 28.180940967215605 ], [ -105.450388660265205, 28.180940967215601 ], [ -105.450388660265205, 28.176534606221541 ], [ -105.454961133973484, 28.176534606221537 ], [ -105.454961133973484, 28.180940967215605 ] ] ] } },
{ "type": "Feature", "properties": { "difference_1990_2000": 0.0, "difference_1990_2010": 0.0, "difference_1990_2020": 3.0 }, "geometry": { "type": "Polygon", "coordinates": [ [ [ -105.454961133973484, 28.220606307419974 ], [ -105.450388660265205, 28.220606307419935 ], [ -105.450388660265205, 28.216198327597606 ], [ -105.454961133973484, 28.216198327597581 ], [ -105.454961133973484, 28.220606307419974 ] ] ] } },
{ "type": "Feature", "properties": { "difference_1990_2000": -36.0, "difference_1990_2010": 223.0, "difference_1990_2020": 253.0 }, "geometry": { "type": "Polygon", "coordinates": [ [ [ -105.445816186556939, 28.202975468310811 ], [ -105.44124371284866, 28.202975468310811 ], [ -105.44124371284866, 28.198568208448322 ], [ -105.445816186556939, 28.198568208448329 ], [ -105.445816186556939, 28.202975468310811 ] ] ] } },
{ "type": "Feature", "properties": { "difference_1990_2000": 229.0, "difference_1990_2010": 413.0, "difference_1990_2020": 385.0 }, "geometry": { "type": "Polygon", "coordinates": [ [ [ -105.445816186556939, 28.194161128455587 ], [ -105.44124371284866, 28.194161128455583 ], [ -105.44124371284866, 28.189754228284563 ], [ -105.445816186556939, 28.189754228284574 ], [ -105.445816186556939, 28.194161128455587 ] ] ] } },
{ "type": "Feature", "properties": { "difference_1990_2000": -1.0, "difference_1990_2010": -1.0, "difference_1990_2020": -1.0 }, "geometry": { "type": "Polygon", "coordinates": [ [ [ -105.445816186556939, 28.167722423074366 ], [ -105.44124371284866, 28.167722423074348 ], [ -105.44124371284866, 28.163316600825286 ], [ -105.445816186556939, 28.163316600825286 ], [ -105.445816186556939, 28.167722423074366 ] ] ] } },
{ "type": "Feature", "properties": { "difference_1990_2000": -1.0, "difference_1990_2010": -1.0, "difference_1990_2020": 0.0 }, "geometry": { "type": "Polygon", "coordinates": [ [ [ -105.445816186556939, 28.17212842485711 ], [ -105.44124371284866, 28.172128424857149 ], [ -105.44124371284866, 28.167722423074348 ], [ -105.445816186556939, 28.167722423074366 ], [ -105.445816186556939, 28.17212842485711 ] ] ] } },
{ "type": "Feature", "properties": { "difference_1990_2000": -53.0, "difference_1990_2010": 757.0, "difference_1990_2020": 874.0 }, "geometry": { "type": "Polygon", "coordinates": [ [ [ -105.445816186556939, 28.207382908091098 ], [ -105.44124371284866, 28.207382908091091 ], [ -105.44124371284866, 28.202975468310811 ], [ -105.445816186556939, 28.202975468310811 ], [ -105.445816186556939, 28.207382908091098 ] ] ] } },
{ "type": "Feature", "properties": { "difference_1990_2000": 26.0, "difference_1990_2010": 283.0, "difference_1990_2020": 397.0 }, "geometry": { "type": "Polygon", "coordinates": [ [ [ -105.445816186556939, 28.185347507887244 ], [ -105.44124371284866, 28.185347507887247 ], [ -105.44124371284866, 28.180940967215573 ], [ -105.445816186556939, 28.18094096721557 ], [ -105.445816186556939, 28.185347507887244 ] ] ] } },
{ "type": "Feature", "properties": { "difference_1990_2000": 10.0, "difference_1990_2010": 43.0, "difference_1990_2020": 41.0 }, "geometry": { "type": "Polygon", "coordinates": [ [ [ -105.445816186556939, 28.176534606221541 ], [ -105.44124371284866, 28.176534606221541 ], [ -105.44124371284866, 28.172128424857089 ], [ -105.445816186556939, 28.172128424857057 ], [ -105.445816186556939, 28.176534606221541 ] ] ] } },
{ "type": "Feature", "properties": { "difference_1990_2000": 2.0, "difference_1990_2010": 182.0, "difference_1990_2020": 274.0 }, "geometry": { "type": "Polygon", "coordinates": [ [ [ -105.445816186556939, 28.18094096721557 ], [ -105.44124371284866, 28.180940967215573 ], [ -105.44124371284866, 28.176534606221541 ], [ -105.445816186556939, 28.176534606221541 ], [ -105.445816186556939, 28.18094096721557 ] ] ] } },
{ "type": "Feature", "properties": { "difference_1990_2000": 1083.0, "difference_1990_2010": 2110.0, "difference_1990_2020": 2100.0 }, "geometry": { "type": "Polygon", "coordinates": [ [ [ -105.445816186556939, 28.189754228284574 ], [ -105.44124371284866, 28.189754228284563 ], [ -105.44124371284866, 28.185347507887247 ], [ -105.445816186556939, 28.185347507887244 ], [ -105.445816186556939, 28.189754228284574 ] ] ] } },
{ "type": "Feature", "properties": { "difference_1990_2000": -29.0, "difference_1990_2010": 706.0, "difference_1990_2020": 810.0 }, "geometry": { "type": "Polygon", "coordinates": [ [ [ -105.445816186556939, 28.198568208448304 ], [ -105.44124371284866, 28.198568208448304 ], [ -105.44124371284866, 28.194161128455583 ], [ -105.445816186556939, 28.194161128455587 ], [ -105.445816186556939, 28.198568208448304 ] ] ] } },
{ "type": "Feature", "properties": { "difference_1990_2000": -1.0, "difference_1990_2010": 854.0, "difference_1990_2020": 999.0 }, "geometry": { "type": "Polygon", "coordinates": [ [ [ -105.445816186556939, 28.211790527837362 ], [ -105.44124371284866, 28.211790527837362 ], [ -105.44124371284866, 28.207382908091091 ], [ -105.445816186556939, 28.207382908091098 ], [ -105.445816186556939, 28.211790527837362 ] ] ] } },
{ "type": "Feature", "properties": { "difference_1990_2000": -253.0, "difference_1990_2010": -384.0, "difference_1990_2020": -578.0 }, "geometry": { "type": "Polygon", "coordinates": [ [ [ -105.477823502514894, 28.202975468310814 ], [ -105.473251028806601, 28.202975468310811 ], [ -105.473251028806601, 28.198568208448332 ], [ -105.477823502514894, 28.19856820844835 ], [ -105.477823502514894, 28.202975468310814 ] ] ] } },
{ "type": "Feature", "properties": { "difference_1990_2000": -356.0, "difference_1990_2010": -566.0, "difference_1990_2020": -775.0 }, "geometry": { "type": "Polygon", "coordinates": [ [ [ -105.477823502514894, 28.194161128455587 ], [ -105.473251028806601, 28.194161128455587 ], [ -105.473251028806601, 28.189754228284578 ], [ -105.477823502514894, 28.189754228284574 ], [ -105.477823502514894, 28.194161128455587 ] ] ] } },
{ "type": "Feature", "properties": { "difference_1990_2000": 558.0, "difference_1990_2010": 694.0, "difference_1990_2020": 799.0 }, "geometry": { "type": "Polygon", "coordinates": [ [ [ -105.477823502514894, 28.167722423074363 ], [ -105.473251028806601, 28.167722423074366 ], [ -105.473251028806601, 28.163316600825265 ], [ -105.477823502514894, 28.163316600825265 ], [ -105.477823502514894, 28.167722423074363 ] ] ] } },
{ "type": "Feature", "properties": { "difference_1990_2000": 456.0, "difference_1990_2010": 547.0, "difference_1990_2020": 846.0 }, "geometry": { "type": "Polygon", "coordinates": [ [ [ -105.477823502514894, 28.15891095806197 ], [ -105.473251028806601, 28.158910958061966 ], [ -105.473251028806601, 28.154505494736437 ], [ -105.477823502514894, 28.154505494736473 ], [ -105.477823502514894, 28.15891095806197 ] ] ] } },
{ "type": "Feature", "properties": { "difference_1990_2000": -201.0, "difference_1990_2010": -347.0, "difference_1990_2020": -464.0 }, "geometry": { "type": "Polygon", "coordinates": [ [ [ -105.477823502514894, 28.207382908091095 ], [ -105.473251028806601, 28.207382908091095 ], [ -105.473251028806601, 28.202975468310811 ], [ -105.477823502514894, 28.202975468310814 ], [ -105.477823502514894, 28.207382908091095 ] ] ] } },
{ "type": "Feature", "properties": { "difference_1990_2000": 410.0, "difference_1990_2010": 479.0, "difference_1990_2020": 750.0 }, "geometry": { "type": "Polygon", "coordinates": [ [ [ -105.477823502514894, 28.172128424857146 ], [ -105.473251028806601, 28.172128424857149 ], [ -105.473251028806601, 28.167722423074366 ], [ -105.477823502514894, 28.167722423074363 ], [ -105.477823502514894, 28.172128424857146 ] ] ] } },
{ "type": "Feature", "properties": { "difference_1990_2000": 438.0, "difference_1990_2010": 495.0, "difference_1990_2020": 816.0 }, "geometry": { "type": "Polygon", "coordinates": [ [ [ -105.477823502514894, 28.163316600825265 ], [ -105.473251028806601, 28.163316600825265 ], [ -105.473251028806601, 28.158910958061966 ], [ -105.477823502514894, 28.15891095806197 ], [ -105.477823502514894, 28.163316600825265 ] ] ] } },
{ "type": "Feature", "properties": { "difference_1990_2000": -408.0, "difference_1990_2010": -636.0, "difference_1990_2020": -827.0 }, "geometry": { "type": "Polygon", "coordinates": [ [ [ -105.477823502514894, 28.185347507887219 ], [ -105.473251028806601, 28.185347507887251 ], [ -105.473251028806601, 28.180940967215552 ], [ -105.477823502514894, 28.180940967215548 ], [ -105.477823502514894, 28.185347507887219 ] ] ] } },
{ "type": "Feature", "properties": { "difference_1990_2000": 57.0, "difference_1990_2010": 124.0, "difference_1990_2020": 131.0 }, "geometry": { "type": "Polygon", "coordinates": [ [ [ -105.477823502514894, 28.176534606221541 ], [ -105.473251028806601, 28.176534606221537 ], [ -105.473251028806601, 28.172128424857092 ], [ -105.477823502514894, 28.172128424857089 ], [ -105.477823502514894, 28.176534606221541 ] ] ] } },
{ "type": "Feature", "properties": { "difference_1990_2000": 71.0, "difference_1990_2010": 119.0, "difference_1990_2020": 73.0 }, "geometry": { "type": "Polygon", "coordinates": [ [ [ -105.477823502514894, 28.180940967215548 ], [ -105.473251028806601, 28.180940967215552 ], [ -105.473251028806601, 28.176534606221537 ], [ -105.477823502514894, 28.176534606221541 ], [ -105.477823502514894, 28.180940967215548 ] ] ] } },
{ "type": "Feature", "properties": { "difference_1990_2000": -483.0, "difference_1990_2010": -760.0, "difference_1990_2020": -929.0 }, "geometry": { "type": "Polygon", "coordinates": [ [ [ -105.477823502514894, 28.189754228284574 ], [ -105.473251028806601, 28.189754228284578 ], [ -105.473251028806601, 28.185347507887251 ], [ -105.477823502514894, 28.185347507887219 ], [ -105.477823502514894, 28.189754228284574 ] ] ] } },
{ "type": "Feature", "properties": { "difference_1990_2000": -172.0, "difference_1990_2010": -249.0, "difference_1990_2020": -403.0 }, "geometry": { "type": "Polygon", "coordinates": [ [ [ -105.477823502514894, 28.198568208448304 ], [ -105.473251028806601, 28.198568208448265 ], [ -105.473251028806601, 28.194161128455587 ], [ -105.477823502514894, 28.194161128455587 ], [ -105.477823502514894, 28.198568208448304 ] ] ] } },
{ "type": "Feature", "properties": { "difference_1990_2000": -57.0, "difference_1990_2010": -112.0, "difference_1990_2020": -135.0 }, "geometry": { "type": "Polygon", "coordinates": [ [ [ -105.477823502514894, 28.211790527837362 ], [ -105.473251028806601, 28.211790527837326 ], [ -105.473251028806601, 28.207382908091095 ], [ -105.477823502514894, 28.207382908091095 ], [ -105.477823502514894, 28.211790527837362 ] ] ] } },
{ "type": "Feature", "properties": { "difference_1990_2000": -98.0, "difference_1990_2010": -196.0, "difference_1990_2020": -272.0 }, "geometry": { "type": "Polygon", "coordinates": [ [ [ -105.468678555098322, 28.194161128455562 ], [ -105.464106081390042, 28.194161128455583 ], [ -105.464106081390042, 28.189754228284624 ], [ -105.468678555098322, 28.189754228284578 ], [ -105.468678555098322, 28.194161128455562 ] ] ] } },
{ "type": "Feature", "properties": { "difference_1990_2000": -18.0, "difference_1990_2010": -24.0, "difference_1990_2020": -61.0 }, "geometry": { "type": "Polygon", "coordinates": [ [ [ -105.468678555098322, 28.202975468310811 ], [ -105.464106081390042, 28.202975468310811 ], [ -105.464106081390042, 28.198568208448329 ], [ -105.468678555098322, 28.19856820844835 ], [ -105.468678555098322, 28.202975468310811 ] ] ] } },
{ "type": "Feature", "properties": { "difference_1990_2000": 334.0, "difference_1990_2010": 252.0, "difference_1990_2020": 121.0 }, "geometry": { "type": "Polygon", "coordinates": [ [ [ -105.468678555098322, 28.16772242307437 ], [ -105.464106081390042, 28.167722423074363 ], [ -105.464106081390042, 28.163316600825265 ], [ -105.468678555098322, 28.163316600825265 ], [ -105.468678555098322, 28.16772242307437 ] ] ] } },
{ "type": "Feature", "properties": { "difference_1990_2000": 12.0, "difference_1990_2010": 522.0, "difference_1990_2020": 912.0 }, "geometry": { "type": "Polygon", "coordinates": [ [ [ -105.468678555098322, 28.207382908091088 ], [ -105.464106081390042, 28.207382908091095 ], [ -105.464106081390042, 28.202975468310811 ], [ -105.468678555098322, 28.202975468310811 ], [ -105.468678555098322, 28.207382908091088 ] ] ] } },
{ "type": "Feature", "properties": { "difference_1990_2000": -62.0, "difference_1990_2010": -223.0, "difference_1990_2020": -440.0 }, "geometry": { "type": "Polygon", "coordinates": [ [ [ -105.468678555098322, 28.172128424857107 ], [ -105.464106081390042, 28.172128424857149 ], [ -105.464106081390042, 28.167722423074363 ], [ -105.468678555098322, 28.16772242307437 ], [ -105.468678555098322, 28.172128424857107 ] ] ] } },
{ "type": "Feature", "properties": { "difference_1990_2000": 0.0, "difference_1990_2010": 1965.0, "difference_1990_2020": 2126.0 }, "geometry": { "type": "Polygon", "coordinates": [ [ [ -105.468678555098322, 28.15891095806197 ], [ -105.464106081390042, 28.158910958061973 ], [ -105.464106081390042, 28.15450549473648 ], [ -105.468678555098322, 28.154505494736473 ], [ -105.468678555098322, 28.15891095806197 ] ] ] } },
{ "type": "Feature", "properties": { "difference_1990_2000": 287.0, "difference_1990_2010": 1051.0, "difference_1990_2020": 1287.0 }, "geometry": { "type": "Polygon", "coordinates": [ [ [ -105.468678555098322, 28.163316600825265 ], [ -105.464106081390042, 28.163316600825265 ], [ -105.464106081390042, 28.158910958061973 ], [ -105.468678555098322, 28.15891095806197 ], [ -105.468678555098322, 28.163316600825265 ] ] ] } },
{ "type": "Feature", "properties": { "difference_1990_2000": 122.0, "difference_1990_2010": 561.0, "difference_1990_2020": 501.0 }, "geometry": { "type": "Polygon", "coordinates": [ [ [ -105.468678555098322, 28.216198327597617 ], [ -105.464106081390042, 28.216198327597613 ], [ -105.464106081390042, 28.211790527837358 ], [ -105.468678555098322, 28.211790527837358 ], [ -105.468678555098322, 28.216198327597617 ] ] ] } },
{ "type": "Feature", "properties": { "difference_1990_2000": -112.0, "difference_1990_2010": -255.0, "difference_1990_2020": -403.0 }, "geometry": { "type": "Polygon", "coordinates": [ [ [ -105.468678555098322, 28.185347507887268 ], [ -105.464106081390042, 28.185347507887251 ], [ -105.464106081390042, 28.180940967215573 ], [ -105.468678555098322, 28.18094096721557 ], [ -105.468678555098322, 28.185347507887268 ] ] ] } },
{ "type": "Feature", "properties": { "difference_1990_2000": -371.0, "difference_1990_2010": -649.0, "difference_1990_2020": -869.0 }, "geometry": { "type": "Polygon", "coordinates": [ [ [ -105.468678555098322, 28.176534606221495 ], [ -105.464106081390042, 28.176534606221541 ], [ -105.464106081390042, 28.172128424857057 ], [ -105.468678555098322, 28.172128424857057 ], [ -105.468678555098322, 28.176534606221495 ] ] ] } },
{ "type": "Feature", "properties": { "difference_1990_2000": -218.0, "difference_1990_2010": -390.0, "difference_1990_2020": -569.0 }, "geometry": { "type": "Polygon", "coordinates": [ [ [ -105.468678555098322, 28.18094096721557 ], [ -105.464106081390042, 28.180940967215573 ], [ -105.464106081390042, 28.176534606221541 ], [ -105.468678555098322, 28.176534606221495 ], [ -105.468678555098322, 28.18094096721557 ] ] ] } },
{ "type": "Feature", "properties": { "difference_1990_2000": -248.0, "difference_1990_2010": -416.0, "difference_1990_2020": -543.0 }, "geometry": { "type": "Polygon", "coordinates": [ [ [ -105.468678555098322, 28.189754228284578 ], [ -105.464106081390042, 28.189754228284624 ], [ -105.464106081390042, 28.185347507887251 ], [ -105.468678555098322, 28.185347507887268 ], [ -105.468678555098322, 28.189754228284578 ] ] ] } },
{ "type": "Feature", "properties": { "difference_1990_2000": -74.0, "difference_1990_2010": -84.0, "difference_1990_2020": -132.0 }, "geometry": { "type": "Polygon", "coordinates": [ [ [ -105.468678555098322, 28.198568208448307 ], [ -105.464106081390042, 28.198568208448268 ], [ -105.464106081390042, 28.194161128455583 ], [ -105.468678555098322, 28.194161128455562 ], [ -105.468678555098322, 28.198568208448307 ] ] ] } },
{ "type": "Feature", "properties": { "difference_1990_2000": 19.0, "difference_1990_2010": 30.0, "difference_1990_2020": 78.0 }, "geometry": { "type": "Polygon", "coordinates": [ [ [ -105.468678555098322, 28.220606307419921 ], [ -105.464106081390042, 28.220606307419938 ], [ -105.464106081390042, 28.216198327597613 ], [ -105.468678555098322, 28.216198327597617 ], [ -105.468678555098322, 28.220606307419921 ] ] ] } },
{ "type": "Feature", "properties": { "difference_1990_2000": 103.0, "difference_1990_2010": 1155.0, "difference_1990_2020": 964.0 }, "geometry": { "type": "Polygon", "coordinates": [ [ [ -105.468678555098322, 28.211790527837358 ], [ -105.464106081390042, 28.211790527837358 ], [ -105.464106081390042, 28.207382908091095 ], [ -105.468678555098322, 28.207382908091088 ], [ -105.468678555098322, 28.211790527837358 ] ] ] } },
{ "type": "Feature", "properties": { "difference_1990_2000": -3.0, "difference_1990_2010": -12.0, "difference_1990_2020": -19.0 }, "geometry": { "type": "Polygon", "coordinates": [ [ [ -105.459533607681763, 28.202975468310807 ], [ -105.454961133973484, 28.202975468310811 ], [ -105.454961133973484, 28.198568208448378 ], [ -105.459533607681763, 28.198568208448357 ], [ -105.459533607681763, 28.202975468310807 ] ] ] } },
{ "type": "Feature", "properties": { "difference_1990_2000": -10.0, "difference_1990_2010": -25.0, "difference_1990_2020": -33.0 }, "geometry": { "type": "Polygon", "coordinates": [ [ [ -105.459533607681763, 28.194161128455583 ], [ -105.454961133973484, 28.194161128455583 ], [ -105.454961133973484, 28.189754228284581 ], [ -105.459533607681763, 28.189754228284574 ], [ -105.459533607681763, 28.194161128455583 ] ] ] } },
{ "type": "Feature", "properties": { "difference_1990_2000": 688.0, "difference_1990_2010": 889.0, "difference_1990_2020": 803.0 }, "geometry": { "type": "Polygon", "coordinates": [ [ [ -105.459533607681763, 28.167722423074366 ], [ -105.454961133973484, 28.167722423074363 ], [ -105.454961133973484, 28.16331660082529 ], [ -105.459533607681763, 28.163316600825279 ], [ -105.459533607681763, 28.167722423074366 ] ] ] } },
{ "type": "Feature", "properties": { "difference_1990_2000": 1092.0, "difference_1990_2010": 1473.0, "difference_1990_2020": 1451.0 }, "geometry": { "type": "Polygon", "coordinates": [ [ [ -105.459533607681763, 28.158910958061963 ], [ -105.454961133973484, 28.15891095806197 ], [ -105.454961133973484, 28.154505494736473 ], [ -105.459533607681763, 28.154505494736476 ], [ -105.459533607681763, 28.158910958061963 ] ] ] } },
{ "type": "Feature", "properties": { "difference_1990_2000": -24.0, "difference_1990_2010": -51.0, "difference_1990_2020": -45.0 }, "geometry": { "type": "Polygon", "coordinates": [ [ [ -105.459533607681763, 28.207382908091091 ], [ -105.454961133973484, 28.207382908091095 ], [ -105.454961133973484, 28.202975468310811 ], [ -105.459533607681763, 28.202975468310807 ], [ -105.459533607681763, 28.207382908091091 ] ] ] } },
{ "type": "Feature", "properties": { "difference_1990_2000": 899.0, "difference_1990_2010": 945.0, "difference_1990_2020": 765.0 }, "geometry": { "type": "Polygon", "coordinates": [ [ [ -105.459533607681763, 28.172128424857149 ], [ -105.454961133973484, 28.172128424857149 ], [ -105.454961133973484, 28.167722423074363 ], [ -105.459533607681763, 28.167722423074366 ], [ -105.459533607681763, 28.172128424857149 ] ] ] } },
{ "type": "Feature", "properties": { "difference_1990_2000": 901.0, "difference_1990_2010": 1247.0, "difference_1990_2020": 1201.0 }, "geometry": { "type": "Polygon", "coordinates": [ [ [ -105.459533607681763, 28.163316600825279 ], [ -105.454961133973484, 28.16331660082529 ], [ -105.454961133973484, 28.15891095806197 ], [ -105.459533607681763, 28.158910958061963 ], [ -105.459533607681763, 28.163316600825279 ] ] ] } },
{ "type": "Feature", "properties": { "difference_1990_2000": 1.0, "difference_1990_2010": 35.0, "difference_1990_2020": 1491.0 }, "geometry": { "type": "Polygon", "coordinates": [ [ [ -105.459533607681763, 28.216198327597613 ], [ -105.454961133973484, 28.216198327597581 ], [ -105.454961133973484, 28.211790527837369 ], [ -105.459533607681763, 28.211790527837362 ], [ -105.459533607681763, 28.216198327597613 ] ] ] } },
{ "type": "Feature", "properties": { "difference_1990_2000": -149.0, "difference_1990_2010": -300.0, "difference_1990_2020": -383.0 }, "geometry": { "type": "Polygon", "coordinates": [ [ [ -105.459533607681763, 28.185347507887247 ], [ -105.454961133973484, 28.185347507887251 ], [ -105.454961133973484, 28.180940967215605 ], [ -105.459533607681763, 28.180940967215598 ], [ -105.459533607681763, 28.185347507887247 ] ] ] } },
{ "type": "Feature", "properties": { "difference_1990_2000": 248.0, "difference_1990_2010": 71.0, "difference_1990_2020": -212.0 }, "geometry": { "type": "Polygon", "coordinates": [ [ [ -105.459533607681763, 28.176534606221544 ], [ -105.454961133973484, 28.176534606221537 ], [ -105.454961133973484, 28.172128424857089 ], [ -105.459533607681763, 28.172128424857092 ], [ -105.459533607681763, 28.176534606221544 ] ] ] } },
{ "type": "Feature", "properties": { "difference_1990_2000": -116.0, "difference_1990_2010": -238.0, "difference_1990_2020": -302.0 }, "geometry": { "type": "Polygon", "coordinates": [ [ [ -105.459533607681763, 28.189754228284574 ], [ -105.454961133973484, 28.189754228284581 ], [ -105.454961133973484, 28.185347507887251 ], [ -105.459533607681763, 28.185347507887247 ], [ -105.459533607681763, 28.189754228284574 ] ] ] } },
{ "type": "Feature", "properties": { "difference_1990_2000": -2.0, "difference_1990_2010": -11.0, "difference_1990_2020": -16.0 }, "geometry": { "type": "Polygon", "coordinates": [ [ [ -105.459533607681763, 28.198568208448304 ], [ -105.454961133973484, 28.198568208448325 ], [ -105.454961133973484, 28.194161128455583 ], [ -105.459533607681763, 28.194161128455583 ], [ -105.459533607681763, 28.198568208448304 ] ] ] } },
{ "type": "Feature", "properties": { "difference_1990_2000": -73.0, "difference_1990_2010": -334.0, "difference_1990_2020": -630.0 }, "geometry": { "type": "Polygon", "coordinates": [ [ [ -105.459533607681763, 28.180940967215598 ], [ -105.454961133973484, 28.180940967215605 ], [ -105.454961133973484, 28.176534606221537 ], [ -105.459533607681763, 28.176534606221544 ], [ -105.459533607681763, 28.180940967215598 ] ] ] } },
{ "type": "Feature", "properties": { "difference_1990_2000": 0.0, "difference_1990_2010": 12.0, "difference_1990_2020": 497.0 }, "geometry": { "type": "Polygon", "coordinates": [ [ [ -105.459533607681763, 28.220606307419938 ], [ -105.454961133973484, 28.220606307419974 ], [ -105.454961133973484, 28.216198327597581 ], [ -105.459533607681763, 28.216198327597613 ], [ -105.459533607681763, 28.220606307419938 ] ] ] } },
{ "type": "Feature", "properties": { "difference_1990_2000": 4.0, "difference_1990_2010": 111.0, "difference_1990_2020": 1521.0 }, "geometry": { "type": "Polygon", "coordinates": [ [ [ -105.459533607681763, 28.211790527837362 ], [ -105.454961133973484, 28.211790527837369 ], [ -105.454961133973484, 28.207382908091095 ], [ -105.459533607681763, 28.207382908091091 ], [ -105.459533607681763, 28.211790527837362 ] ] ] } }
]
}
