{
"type": "FeatureCollection",
"name": "M12.01",
"crs": { "type": "name", "properties": { "name": "urn:ogc:def:crs:OGC:1.3:CRS84" } },
"features": [
{ "type": "Feature", "properties": { "difference_1990_2000": 0.0, "difference_1990_2010": 0.0, "difference_1990_2020": 1.0 }, "geometry": { "type": "Polygon", "coordinates": [ [ [ -99.533607681755839, 17.542438760612665 ], [ -99.52903520804756, 17.542438760612672 ], [ -99.52903520804756, 17.53836164618177 ], [ -99.533607681755839, 17.53836164618177 ], [ -99.533607681755839, 17.542438760612665 ] ] ] } },
{ "type": "Feature", "properties": { "difference_1990_2000": 0.0, "difference_1990_2010": 0.0, "difference_1990_2020": 37.0 }, "geometry": { "type": "Polygon", "coordinates": [ [ [ -99.533607681755839, 17.570981099889892 ], [ -99.52903520804756, 17.570981099889906 ], [ -99.52903520804756, 17.566903350708071 ], [ -99.533607681755839, 17.566903350708078 ], [ -99.533607681755839, 17.570981099889892 ] ] ] } },
{ "type": "Feature", "properties": { "difference_1990_2000": 0.0, "difference_1990_2010": 0.0, "difference_1990_2020": 305.0 }, "geometry": { "type": "Polygon", "coordinates": [ [ [ -99.533607681755839, 17.530207689011487 ], [ -99.52903520804756, 17.530207689011483 ], [ -99.52903520804756, 17.526130846219029 ], [ -99.533607681755839, 17.526130846219029 ], [ -99.533607681755839, 17.530207689011487 ] ] ] } },
{ "type": "Feature", "properties": { "difference_1990_2000": 10.0, "difference_1990_2010": 0.0, "difference_1990_2020": 28.0 }, "geometry": { "type": "Polygon", "coordinates": [ [ [ -99.533607681755839, 17.53836164618177 ], [ -99.52903520804756, 17.53836164618177 ], [ -99.52903520804756, 17.53428462232359 ], [ -99.533607681755839, 17.53428462232359 ], [ -99.533607681755839, 17.53836164618177 ] ] ] } },
{ "type": "Feature", "properties": { "difference_1990_2000": 13.0, "difference_1990_2010": 0.0, "difference_1990_2020": 129.0 }, "geometry": { "type": "Polygon", "coordinates": [ [ [ -99.533607681755839, 17.56690335070806 ], [ -99.52903520804756, 17.566903350708071 ], [ -99.52903520804756, 17.562825692284552 ], [ -99.533607681755839, 17.562825692284552 ], [ -99.533607681755839, 17.56690335070806 ] ] ] } },
{ "type": "Feature", "properties": { "difference_1990_2000": 33.0, "difference_1990_2010": 0.0, "difference_1990_2020": 496.0 }, "geometry": { "type": "Polygon", "coordinates": [ [ [ -99.533607681755839, 17.53428462232359 ], [ -99.52903520804756, 17.53428462232359 ], [ -99.52903520804756, 17.530207689011483 ], [ -99.533607681755839, 17.530207689011487 ], [ -99.533607681755839, 17.53428462232359 ] ] ] } },
{ "type": "Feature", "properties": { "difference_1990_2000": 0.0, "difference_1990_2010": 0.0, "difference_1990_2020": 246.0 }, "geometry": { "type": "Polygon", "coordinates": [ [ [ -99.533607681755839, 17.558748124592753 ], [ -99.52903520804756, 17.558748124592753 ], [ -99.52903520804756, 17.554670647606244 ], [ -99.533607681755839, 17.554670647606244 ], [ -99.533607681755839, 17.558748124592753 ] ] ] } },
{ "type": "Feature", "properties": { "difference_1990_2000": 0.0, "difference_1990_2010": 0.0, "difference_1990_2020": 1.0 }, "geometry": { "type": "Polygon", "coordinates": [ [ [ -99.533607681755839, 17.575058939856568 ], [ -99.52903520804756, 17.575058939856532 ], [ -99.52903520804756, 17.570981099889906 ], [ -99.533607681755839, 17.570981099889892 ], [ -99.533607681755839, 17.575058939856568 ] ] ] } },
{ "type": "Feature", "properties": { "difference_1990_2000": 89.0, "difference_1990_2010": 0.0, "difference_1990_2020": 578.0 }, "geometry": { "type": "Polygon", "coordinates": [ [ [ -99.533607681755839, 17.562825692284552 ], [ -99.52903520804756, 17.562825692284552 ], [ -99.52903520804756, 17.558748124592753 ], [ -99.533607681755839, 17.558748124592753 ], [ -99.533607681755839, 17.562825692284552 ] ] ] } },
{ "type": "Feature", "properties": { "difference_1990_2000": 379.0, "difference_1990_2010": 0.0, "difference_1990_2020": 805.0 }, "geometry": { "type": "Polygon", "coordinates": [ [ [ -99.524462734339281, 17.542438760612661 ], [ -99.519890260631001, 17.542438760612644 ], [ -99.519890260631001, 17.53836164618177 ], [ -99.524462734339281, 17.538361646181766 ], [ -99.524462734339281, 17.542438760612661 ] ] ] } },
{ "type": "Feature", "properties": { "difference_1990_2000": 723.0, "difference_1990_2010": 0.0, "difference_1990_2020": 1023.0 }, "geometry": { "type": "Polygon", "coordinates": [ [ [ -99.524462734339281, 17.554670647606226 ], [ -99.519890260631001, 17.554670647606176 ], [ -99.519890260631001, 17.550593261298356 ], [ -99.524462734339281, 17.550593261298353 ], [ -99.524462734339281, 17.554670647606226 ] ] ] } },
{ "type": "Feature", "properties": { "difference_1990_2000": -52.0, "difference_1990_2010": 0.0, "difference_1990_2020": 395.0 }, "geometry": { "type": "Polygon", "coordinates": [ [ [ -99.524462734339281, 17.587293004730984 ], [ -99.519890260631001, 17.587293004731027 ], [ -99.519890260631001, 17.58321489225056 ], [ -99.524462734339281, 17.583214892250563 ], [ -99.524462734339281, 17.587293004730984 ] ] ] } },
{ "type": "Feature", "properties": { "difference_1990_2000": 1073.0, "difference_1990_2010": 0.0, "difference_1990_2020": 1955.0 }, "geometry": { "type": "Polygon", "coordinates": [ [ [ -99.524462734339281, 17.570981099889899 ], [ -99.519890260631001, 17.570981099889931 ], [ -99.519890260631001, 17.566903350708078 ], [ -99.524462734339281, 17.566903350708031 ], [ -99.524462734339281, 17.570981099889899 ] ] ] } },
{ "type": "Feature", "properties": { "difference_1990_2000": 119.0, "difference_1990_2010": 0.0, "difference_1990_2020": 584.0 }, "geometry": { "type": "Polygon", "coordinates": [ [ [ -99.524462734339281, 17.546515965642666 ], [ -99.519890260631001, 17.546515965642666 ], [ -99.519890260631001, 17.542438760612644 ], [ -99.524462734339281, 17.542438760612661 ], [ -99.524462734339281, 17.546515965642666 ] ] ] } },
{ "type": "Feature", "properties": { "difference_1990_2000": 0.0, "difference_1990_2010": 0.0, "difference_1990_2020": 24.0 }, "geometry": { "type": "Polygon", "coordinates": [ [ [ -99.524462734339281, 17.53020768901148 ], [ -99.519890260631001, 17.530207689011487 ], [ -99.519890260631001, 17.526130846219029 ], [ -99.524462734339281, 17.526130846219029 ], [ -99.524462734339281, 17.53020768901148 ] ] ] } },
{ "type": "Feature", "properties": { "difference_1990_2000": 269.0, "difference_1990_2010": 0.0, "difference_1990_2020": 1126.0 }, "geometry": { "type": "Polygon", "coordinates": [ [ [ -99.524462734339281, 17.538361646181766 ], [ -99.519890260631001, 17.53836164618177 ], [ -99.519890260631001, 17.534284622323561 ], [ -99.524462734339281, 17.534284622323565 ], [ -99.524462734339281, 17.538361646181766 ] ] ] } },
{ "type": "Feature", "properties": { "difference_1990_2000": 407.0, "difference_1990_2010": 0.0, "difference_1990_2020": 2707.0 }, "geometry": { "type": "Polygon", "coordinates": [ [ [ -99.524462734339281, 17.57913687063461 ], [ -99.519890260631001, 17.579136870634656 ], [ -99.519890260631001, 17.575058939856532 ], [ -99.524462734339281, 17.575058939856529 ], [ -99.524462734339281, 17.57913687063461 ] ] ] } },
{ "type": "Feature", "properties": { "difference_1990_2000": 5.0, "difference_1990_2010": 0.0, "difference_1990_2020": 1200.0 }, "geometry": { "type": "Polygon", "coordinates": [ [ [ -99.524462734339281, 17.583214892250563 ], [ -99.519890260631001, 17.58321489225056 ], [ -99.519890260631001, 17.579136870634656 ], [ -99.524462734339281, 17.57913687063461 ], [ -99.524462734339281, 17.583214892250563 ] ] ] } },
{ "type": "Feature", "properties": { "difference_1990_2000": 35.0, "difference_1990_2010": 0.0, "difference_1990_2020": 132.0 }, "geometry": { "type": "Polygon", "coordinates": [ [ [ -99.524462734339281, 17.591371208102505 ], [ -99.519890260631001, 17.591371208102505 ], [ -99.519890260631001, 17.587293004731027 ], [ -99.524462734339281, 17.587293004730984 ], [ -99.524462734339281, 17.591371208102505 ] ] ] } },
{ "type": "Feature", "properties": { "difference_1990_2000": 0.0, "difference_1990_2010": 0.0, "difference_1990_2020": 142.0 }, "geometry": { "type": "Polygon", "coordinates": [ [ [ -99.524462734339281, 17.550593261298353 ], [ -99.519890260631001, 17.550593261298356 ], [ -99.519890260631001, 17.546515965642666 ], [ -99.524462734339281, 17.546515965642666 ], [ -99.524462734339281, 17.550593261298353 ] ] ] } },
{ "type": "Feature", "properties": { "difference_1990_2000": 292.0, "difference_1990_2010": 0.0, "difference_1990_2020": 1543.0 }, "geometry": { "type": "Polygon", "coordinates": [ [ [ -99.524462734339281, 17.566903350708031 ], [ -99.519890260631001, 17.566903350708078 ], [ -99.519890260631001, 17.562825692284548 ], [ -99.524462734339281, 17.562825692284548 ], [ -99.524462734339281, 17.566903350708031 ] ] ] } },
{ "type": "Feature", "properties": { "difference_1990_2000": 82.0, "difference_1990_2010": 0.0, "difference_1990_2020": 281.0 }, "geometry": { "type": "Polygon", "coordinates": [ [ [ -99.524462734339281, 17.534284622323565 ], [ -99.519890260631001, 17.534284622323561 ], [ -99.519890260631001, 17.530207689011487 ], [ -99.524462734339281, 17.53020768901148 ], [ -99.524462734339281, 17.534284622323565 ] ] ] } },
{ "type": "Feature", "properties": { "difference_1990_2000": 1029.0, "difference_1990_2010": 0.0, "difference_1990_2020": 2671.0 }, "geometry": { "type": "Polygon", "coordinates": [ [ [ -99.524462734339281, 17.558748124592714 ], [ -99.519890260631001, 17.558748124592753 ], [ -99.519890260631001, 17.554670647606176 ], [ -99.524462734339281, 17.554670647606226 ], [ -99.524462734339281, 17.558748124592714 ] ] ] } },
{ "type": "Feature", "properties": { "difference_1990_2000": 1383.0, "difference_1990_2010": 0.0, "difference_1990_2020": 2356.0 }, "geometry": { "type": "Polygon", "coordinates": [ [ [ -99.524462734339281, 17.575058939856529 ], [ -99.519890260631001, 17.575058939856532 ], [ -99.519890260631001, 17.570981099889931 ], [ -99.524462734339281, 17.570981099889899 ], [ -99.524462734339281, 17.575058939856529 ] ] ] } },
{ "type": "Feature", "properties": { "difference_1990_2000": 448.0, "difference_1990_2010": 0.0, "difference_1990_2020": 1480.0 }, "geometry": { "type": "Polygon", "coordinates": [ [ [ -99.524462734339281, 17.562825692284548 ], [ -99.519890260631001, 17.562825692284548 ], [ -99.519890260631001, 17.558748124592753 ], [ -99.524462734339281, 17.558748124592714 ], [ -99.524462734339281, 17.562825692284548 ] ] ] } },
{ "type": "Feature", "properties": { "difference_1990_2000": 15.0, "difference_1990_2010": 0.0, "difference_1990_2020": 57.0 }, "geometry": { "type": "Polygon", "coordinates": [ [ [ -99.524462734339281, 17.595449502391592 ], [ -99.519890260631001, 17.595449502391599 ], [ -99.519890260631001, 17.591371208102505 ], [ -99.524462734339281, 17.591371208102505 ], [ -99.524462734339281, 17.595449502391592 ] ] ] } },
{ "type": "Feature", "properties": { "difference_1990_2000": 136.0, "difference_1990_2010": 0.0, "difference_1990_2020": 458.0 }, "geometry": { "type": "Polygon", "coordinates": [ [ [ -99.515317786922736, 17.542438760612661 ], [ -99.510745313214457, 17.542438760612669 ], [ -99.510745313214457, 17.53836164618177 ], [ -99.515317786922736, 17.538361646181766 ], [ -99.515317786922736, 17.542438760612661 ] ] ] } },
{ "type": "Feature", "properties": { "difference_1990_2000": 315.0, "difference_1990_2010": 0.0, "difference_1990_2020": 539.0 }, "geometry": { "type": "Polygon", "coordinates": [ [ [ -99.515317786922736, 17.554670647606244 ], [ -99.510745313214457, 17.554670647606194 ], [ -99.510745313214457, 17.550593261298356 ], [ -99.515317786922736, 17.550593261298356 ], [ -99.515317786922736, 17.554670647606244 ] ] ] } },
{ "type": "Feature", "properties": { "difference_1990_2000": 38.0, "difference_1990_2010": 0.0, "difference_1990_2020": 198.0 }, "geometry": { "type": "Polygon", "coordinates": [ [ [ -99.515317786922736, 17.587293004731045 ], [ -99.510745313214457, 17.587293004731034 ], [ -99.510745313214457, 17.583214892250563 ], [ -99.515317786922736, 17.583214892250563 ], [ -99.515317786922736, 17.587293004731045 ] ] ] } },
{ "type": "Feature", "properties": { "difference_1990_2000": 721.0, "difference_1990_2010": 0.0, "difference_1990_2020": 781.0 }, "geometry": { "type": "Polygon", "coordinates": [ [ [ -99.515317786922736, 17.570981099889941 ], [ -99.510745313214457, 17.570981099889899 ], [ -99.510745313214457, 17.566903350708067 ], [ -99.515317786922736, 17.566903350708085 ], [ -99.515317786922736, 17.570981099889941 ] ] ] } },
{ "type": "Feature", "properties": { "difference_1990_2000": -37.0, "difference_1990_2010": 0.0, "difference_1990_2020": 111.0 }, "geometry": { "type": "Polygon", "coordinates": [ [ [ -99.515317786922736, 17.546515965642669 ], [ -99.510745313214457, 17.546515965642666 ], [ -99.510745313214457, 17.542438760612669 ], [ -99.515317786922736, 17.542438760612661 ], [ -99.515317786922736, 17.546515965642669 ] ] ] } },
{ "type": "Feature", "properties": { "difference_1990_2000": 3.0, "difference_1990_2010": 0.0, "difference_1990_2020": 638.0 }, "geometry": { "type": "Polygon", "coordinates": [ [ [ -99.515317786922736, 17.53020768901148 ], [ -99.510745313214457, 17.530207689011476 ], [ -99.510745313214457, 17.526130846219029 ], [ -99.515317786922736, 17.526130846219029 ], [ -99.515317786922736, 17.53020768901148 ] ] ] } },
{ "type": "Feature", "properties": { "difference_1990_2000": 0.0, "difference_1990_2010": 0.0, "difference_1990_2020": 3.0 }, "geometry": { "type": "Polygon", "coordinates": [ [ [ -99.515317786922736, 17.517977432087143 ], [ -99.510745313214457, 17.517977432087147 ], [ -99.510745313214457, 17.513900860694708 ], [ -99.515317786922736, 17.513900860694736 ], [ -99.515317786922736, 17.517977432087143 ] ] ] } },
{ "type": "Feature", "properties": { "difference_1990_2000": 0.0, "difference_1990_2010": 0.0, "difference_1990_2020": 816.0 }, "geometry": { "type": "Polygon", "coordinates": [ [ [ -99.515317786922736, 17.526130846219029 ], [ -99.510745313214457, 17.526130846219029 ], [ -99.510745313214457, 17.522054093919731 ], [ -99.515317786922736, 17.522054093919731 ], [ -99.515317786922736, 17.526130846219029 ] ] ] } },
{ "type": "Feature", "properties": { "difference_1990_2000": 951.0, "difference_1990_2010": 0.0, "difference_1990_2020": 1842.0 }, "geometry": { "type": "Polygon", "coordinates": [ [ [ -99.515317786922736, 17.538361646181766 ], [ -99.510745313214457, 17.53836164618177 ], [ -99.510745313214457, 17.534284622323561 ], [ -99.515317786922736, 17.534284622323561 ], [ -99.515317786922736, 17.538361646181766 ] ] ] } },
{ "type": "Feature", "properties": { "difference_1990_2000": 0.0, "difference_1990_2010": 0.0, "difference_1990_2020": 29.0 }, "geometry": { "type": "Polygon", "coordinates": [ [ [ -99.515317786922736, 17.599527887624841 ], [ -99.510745313214457, 17.599527887624848 ], [ -99.510745313214457, 17.595449502391595 ], [ -99.515317786922736, 17.595449502391592 ], [ -99.515317786922736, 17.599527887624841 ] ] ] } },
{ "type": "Feature", "properties": { "difference_1990_2000": 437.0, "difference_1990_2010": 0.0, "difference_1990_2020": 718.0 }, "geometry": { "type": "Polygon", "coordinates": [ [ [ -99.515317786922736, 17.579136870634656 ], [ -99.510745313214457, 17.579136870634656 ], [ -99.510745313214457, 17.57505893985654 ], [ -99.515317786922736, 17.575058939856568 ], [ -99.515317786922736, 17.579136870634656 ] ] ] } },
{ "type": "Feature", "properties": { "difference_1990_2000": 56.0, "difference_1990_2010": 0.0, "difference_1990_2020": 270.0 }, "geometry": { "type": "Polygon", "coordinates": [ [ [ -99.515317786922736, 17.583214892250563 ], [ -99.510745313214457, 17.583214892250563 ], [ -99.510745313214457, 17.579136870634656 ], [ -99.515317786922736, 17.579136870634656 ], [ -99.515317786922736, 17.583214892250563 ] ] ] } },
{ "type": "Feature", "properties": { "difference_1990_2000": 63.0, "difference_1990_2010": 0.0, "difference_1990_2020": 228.0 }, "geometry": { "type": "Polygon", "coordinates": [ [ [ -99.515317786922736, 17.591371208102505 ], [ -99.510745313214457, 17.591371208102501 ], [ -99.510745313214457, 17.587293004731034 ], [ -99.515317786922736, 17.587293004731045 ], [ -99.515317786922736, 17.591371208102505 ] ] ] } },
{ "type": "Feature", "properties": { "difference_1990_2000": 190.0, "difference_1990_2010": 0.0, "difference_1990_2020": 337.0 }, "geometry": { "type": "Polygon", "coordinates": [ [ [ -99.515317786922736, 17.550593261298356 ], [ -99.510745313214457, 17.550593261298356 ], [ -99.510745313214457, 17.546515965642666 ], [ -99.515317786922736, 17.546515965642669 ], [ -99.515317786922736, 17.550593261298356 ] ] ] } },
{ "type": "Feature", "properties": { "difference_1990_2000": 27.0, "difference_1990_2010": 0.0, "difference_1990_2020": 1030.0 }, "geometry": { "type": "Polygon", "coordinates": [ [ [ -99.515317786922736, 17.534284622323561 ], [ -99.510745313214457, 17.534284622323561 ], [ -99.510745313214457, 17.530207689011476 ], [ -99.515317786922736, 17.53020768901148 ], [ -99.515317786922736, 17.534284622323561 ] ] ] } },
{ "type": "Feature", "properties": { "difference_1990_2000": 879.0, "difference_1990_2010": 0.0, "difference_1990_2020": 1130.0 }, "geometry": { "type": "Polygon", "coordinates": [ [ [ -99.515317786922736, 17.566903350708085 ], [ -99.510745313214457, 17.566903350708067 ], [ -99.510745313214457, 17.562825692284555 ], [ -99.515317786922736, 17.562825692284552 ], [ -99.515317786922736, 17.566903350708085 ] ] ] } },
{ "type": "Feature", "properties": { "difference_1990_2000": -659.0, "difference_1990_2010": 0.0, "difference_1990_2020": 94.0 }, "geometry": { "type": "Polygon", "coordinates": [ [ [ -99.515317786922736, 17.558748124592764 ], [ -99.510745313214457, 17.558748124592753 ], [ -99.510745313214457, 17.554670647606194 ], [ -99.515317786922736, 17.554670647606244 ], [ -99.515317786922736, 17.558748124592764 ] ] ] } },
{ "type": "Feature", "properties": { "difference_1990_2000": 0.0, "difference_1990_2010": 0.0, "difference_1990_2020": 182.0 }, "geometry": { "type": "Polygon", "coordinates": [ [ [ -99.515317786922736, 17.522054093919731 ], [ -99.510745313214457, 17.522054093919731 ], [ -99.510745313214457, 17.517977432087147 ], [ -99.515317786922736, 17.517977432087143 ], [ -99.515317786922736, 17.522054093919731 ] ] ] } },
{ "type": "Feature", "properties": { "difference_1990_2000": 236.0, "difference_1990_2010": 0.0, "difference_1990_2020": 486.0 }, "geometry": { "type": "Polygon", "coordinates": [ [ [ -99.515317786922736, 17.575058939856568 ], [ -99.510745313214457, 17.57505893985654 ], [ -99.510745313214457, 17.570981099889899 ], [ -99.515317786922736, 17.570981099889941 ], [ -99.515317786922736, 17.575058939856568 ] ] ] } },
{ "type": "Feature", "properties": { "difference_1990_2000": 1320.0, "difference_1990_2010": 0.0, "difference_1990_2020": 1667.0 }, "geometry": { "type": "Polygon", "coordinates": [ [ [ -99.515317786922736, 17.562825692284552 ], [ -99.510745313214457, 17.562825692284555 ], [ -99.510745313214457, 17.558748124592753 ], [ -99.515317786922736, 17.558748124592764 ], [ -99.515317786922736, 17.562825692284552 ] ] ] } },
{ "type": "Feature", "properties": { "difference_1990_2000": 153.0, "difference_1990_2010": 0.0, "difference_1990_2020": 321.0 }, "geometry": { "type": "Polygon", "coordinates": [ [ [ -99.515317786922736, 17.595449502391592 ], [ -99.510745313214457, 17.595449502391595 ], [ -99.510745313214457, 17.591371208102501 ], [ -99.515317786922736, 17.591371208102505 ], [ -99.515317786922736, 17.595449502391592 ] ] ] } },
{ "type": "Feature", "properties": { "difference_1990_2000": -102.0, "difference_1990_2010": 0.0, "difference_1990_2020": 55.0 }, "geometry": { "type": "Polygon", "coordinates": [ [ [ -99.506172839506206, 17.542438760612665 ], [ -99.501600365797927, 17.542438760612665 ], [ -99.501600365797927, 17.53836164618177 ], [ -99.506172839506206, 17.538361646181773 ], [ -99.506172839506206, 17.542438760612665 ] ] ] } },
{ "type": "Feature", "properties": { "difference_1990_2000": 61.0, "difference_1990_2010": 0.0, "difference_1990_2020": -336.0 }, "geometry": { "type": "Polygon", "coordinates": [ [ [ -99.506172839506206, 17.554670647606191 ], [ -99.501600365797927, 17.554670647606198 ], [ -99.501600365797927, 17.550593261298356 ], [ -99.506172839506206, 17.550593261298356 ], [ -99.506172839506206, 17.554670647606191 ] ] ] } },
{ "type": "Feature", "properties": { "difference_1990_2000": 0.0, "difference_1990_2010": 0.0, "difference_1990_2020": 5.0 }, "geometry": { "type": "Polygon", "coordinates": [ [ [ -99.506172839506206, 17.587293004731034 ], [ -99.501600365797927, 17.587293004731034 ], [ -99.501600365797927, 17.583214892250595 ], [ -99.506172839506206, 17.583214892250563 ], [ -99.506172839506206, 17.587293004731034 ] ] ] } },
{ "type": "Feature", "properties": { "difference_1990_2000": 143.0, "difference_1990_2010": 0.0, "difference_1990_2020": 905.0 }, "geometry": { "type": "Polygon", "coordinates": [ [ [ -99.506172839506206, 17.570981099889941 ], [ -99.501600365797927, 17.570981099889941 ], [ -99.501600365797927, 17.56690335070806 ], [ -99.506172839506206, 17.566903350708035 ], [ -99.506172839506206, 17.570981099889941 ] ] ] } },
{ "type": "Feature", "properties": { "difference_1990_2000": 179.0, "difference_1990_2010": 0.0, "difference_1990_2020": 271.0 }, "geometry": { "type": "Polygon", "coordinates": [ [ [ -99.506172839506206, 17.546515965642666 ], [ -99.501600365797927, 17.546515965642666 ], [ -99.501600365797927, 17.542438760612665 ], [ -99.506172839506206, 17.542438760612665 ], [ -99.506172839506206, 17.546515965642666 ] ] ] } },
{ "type": "Feature", "properties": { "difference_1990_2000": 164.0, "difference_1990_2010": 0.0, "difference_1990_2020": 1235.0 }, "geometry": { "type": "Polygon", "coordinates": [ [ [ -99.506172839506206, 17.53020768901148 ], [ -99.501600365797927, 17.530207689011476 ], [ -99.501600365797927, 17.526130846219029 ], [ -99.506172839506206, 17.526130846219029 ], [ -99.506172839506206, 17.53020768901148 ] ] ] } },
{ "type": "Feature", "properties": { "difference_1990_2000": 0.0, "difference_1990_2010": 0.0, "difference_1990_2020": 239.0 }, "geometry": { "type": "Polygon", "coordinates": [ [ [ -99.506172839506206, 17.517977432087147 ], [ -99.501600365797927, 17.517977432087143 ], [ -99.501600365797927, 17.513900860694701 ], [ -99.506172839506206, 17.513900860694704 ], [ -99.506172839506206, 17.517977432087147 ] ] ] } },
{ "type": "Feature", "properties": { "difference_1990_2000": 8.0, "difference_1990_2010": 0.0, "difference_1990_2020": 462.0 }, "geometry": { "type": "Polygon", "coordinates": [ [ [ -99.506172839506206, 17.526130846219029 ], [ -99.501600365797927, 17.526130846219029 ], [ -99.501600365797927, 17.522054093919731 ], [ -99.506172839506206, 17.522054093919763 ], [ -99.506172839506206, 17.526130846219029 ] ] ] } },
{ "type": "Feature", "properties": { "difference_1990_2000": 89.0, "difference_1990_2010": 0.0, "difference_1990_2020": 314.0 }, "geometry": { "type": "Polygon", "coordinates": [ [ [ -99.506172839506206, 17.538361646181773 ], [ -99.501600365797927, 17.53836164618177 ], [ -99.501600365797927, 17.534284622323561 ], [ -99.506172839506206, 17.534284622323561 ], [ -99.506172839506206, 17.538361646181773 ] ] ] } },
{ "type": "Feature", "properties": { "difference_1990_2000": 285.0, "difference_1990_2010": 0.0, "difference_1990_2020": 884.0 }, "geometry": { "type": "Polygon", "coordinates": [ [ [ -99.506172839506206, 17.579136870634613 ], [ -99.501600365797927, 17.579136870634613 ], [ -99.501600365797927, 17.575058939856532 ], [ -99.506172839506206, 17.575058939856536 ], [ -99.506172839506206, 17.579136870634613 ] ] ] } },
{ "type": "Feature", "properties": { "difference_1990_2000": 0.0, "difference_1990_2010": 0.0, "difference_1990_2020": 428.0 }, "geometry": { "type": "Polygon", "coordinates": [ [ [ -99.506172839506206, 17.583214892250563 ], [ -99.501600365797927, 17.583214892250595 ], [ -99.501600365797927, 17.579136870634613 ], [ -99.506172839506206, 17.579136870634613 ], [ -99.506172839506206, 17.583214892250563 ] ] ] } },
{ "type": "Feature", "properties": { "difference_1990_2000": 64.0, "difference_1990_2010": 0.0, "difference_1990_2020": -175.0 }, "geometry": { "type": "Polygon", "coordinates": [ [ [ -99.506172839506206, 17.550593261298356 ], [ -99.501600365797927, 17.550593261298356 ], [ -99.501600365797927, 17.546515965642666 ], [ -99.506172839506206, 17.546515965642666 ], [ -99.506172839506206, 17.550593261298356 ] ] ] } },
{ "type": "Feature", "properties": { "difference_1990_2000": 680.0, "difference_1990_2010": 0.0, "difference_1990_2020": 1307.0 }, "geometry": { "type": "Polygon", "coordinates": [ [ [ -99.506172839506206, 17.566903350708035 ], [ -99.501600365797927, 17.56690335070806 ], [ -99.501600365797927, 17.562825692284548 ], [ -99.506172839506206, 17.562825692284555 ], [ -99.506172839506206, 17.566903350708035 ] ] ] } },
{ "type": "Feature", "properties": { "difference_1990_2000": 446.0, "difference_1990_2010": 0.0, "difference_1990_2020": 955.0 }, "geometry": { "type": "Polygon", "coordinates": [ [ [ -99.506172839506206, 17.534284622323561 ], [ -99.501600365797927, 17.534284622323561 ], [ -99.501600365797927, 17.530207689011476 ], [ -99.506172839506206, 17.53020768901148 ], [ -99.506172839506206, 17.534284622323561 ] ] ] } },
{ "type": "Feature", "properties": { "difference_1990_2000": 206.0, "difference_1990_2010": 0.0, "difference_1990_2020": -215.0 }, "geometry": { "type": "Polygon", "coordinates": [ [ [ -99.506172839506206, 17.558748124592753 ], [ -99.501600365797927, 17.558748124592757 ], [ -99.501600365797927, 17.554670647606198 ], [ -99.506172839506206, 17.554670647606191 ], [ -99.506172839506206, 17.558748124592753 ] ] ] } },
{ "type": "Feature", "properties": { "difference_1990_2000": 374.0, "difference_1990_2010": 0.0, "difference_1990_2020": 857.0 }, "geometry": { "type": "Polygon", "coordinates": [ [ [ -99.506172839506206, 17.575058939856536 ], [ -99.501600365797927, 17.575058939856532 ], [ -99.501600365797927, 17.570981099889941 ], [ -99.506172839506206, 17.570981099889941 ], [ -99.506172839506206, 17.575058939856536 ] ] ] } },
{ "type": "Feature", "properties": { "difference_1990_2000": 0.0, "difference_1990_2010": 0.0, "difference_1990_2020": 316.0 }, "geometry": { "type": "Polygon", "coordinates": [ [ [ -99.506172839506206, 17.522054093919763 ], [ -99.501600365797927, 17.522054093919731 ], [ -99.501600365797927, 17.517977432087143 ], [ -99.506172839506206, 17.517977432087147 ], [ -99.506172839506206, 17.522054093919763 ] ] ] } },
{ "type": "Feature", "properties": { "difference_1990_2000": 0.0, "difference_1990_2010": 0.0, "difference_1990_2020": 1092.0 }, "geometry": { "type": "Polygon", "coordinates": [ [ [ -99.506172839506206, 17.513900860694704 ], [ -99.501600365797927, 17.513900860694701 ], [ -99.501600365797927, 17.509824379715969 ], [ -99.506172839506206, 17.509824379715997 ], [ -99.506172839506206, 17.513900860694704 ] ] ] } },
{ "type": "Feature", "properties": { "difference_1990_2000": 416.0, "difference_1990_2010": 0.0, "difference_1990_2020": 360.0 }, "geometry": { "type": "Polygon", "coordinates": [ [ [ -99.506172839506206, 17.562825692284555 ], [ -99.501600365797927, 17.562825692284548 ], [ -99.501600365797927, 17.558748124592757 ], [ -99.506172839506206, 17.558748124592753 ], [ -99.506172839506206, 17.562825692284555 ] ] ] } },
{ "type": "Feature", "properties": { "difference_1990_2000": 0.0, "difference_1990_2010": 0.0, "difference_1990_2020": 35.0 }, "geometry": { "type": "Polygon", "coordinates": [ [ [ -99.538180155464104, 17.530207689011437 ], [ -99.533607681755839, 17.530207689011487 ], [ -99.533607681755839, 17.526130846219029 ], [ -99.538180155464104, 17.526130846219029 ], [ -99.538180155464104, 17.530207689011437 ] ] ] } },
{ "type": "Feature", "properties": { "difference_1990_2000": 0.0, "difference_1990_2010": 0.0, "difference_1990_2020": 4.0 }, "geometry": { "type": "Polygon", "coordinates": [ [ [ -99.538180155464104, 17.566903350708031 ], [ -99.533607681755839, 17.56690335070806 ], [ -99.533607681755839, 17.562825692284552 ], [ -99.538180155464104, 17.562825692284548 ], [ -99.538180155464104, 17.566903350708031 ] ] ] } },
{ "type": "Feature", "properties": { "difference_1990_2000": 0.0, "difference_1990_2010": 0.0, "difference_1990_2020": 73.0 }, "geometry": { "type": "Polygon", "coordinates": [ [ [ -99.538180155464104, 17.534284622323586 ], [ -99.533607681755839, 17.53428462232359 ], [ -99.533607681755839, 17.530207689011487 ], [ -99.538180155464104, 17.530207689011437 ], [ -99.538180155464104, 17.534284622323586 ] ] ] } },
{ "type": "Feature", "properties": { "difference_1990_2000": 0.0, "difference_1990_2010": 0.0, "difference_1990_2020": 85.0 }, "geometry": { "type": "Polygon", "coordinates": [ [ [ -99.538180155464104, 17.558748124592718 ], [ -99.533607681755839, 17.558748124592753 ], [ -99.533607681755839, 17.554670647606244 ], [ -99.538180155464104, 17.554670647606201 ], [ -99.538180155464104, 17.558748124592718 ] ] ] } },
{ "type": "Feature", "properties": { "difference_1990_2000": 0.0, "difference_1990_2010": 0.0, "difference_1990_2020": 296.0 }, "geometry": { "type": "Polygon", "coordinates": [ [ [ -99.538180155464104, 17.562825692284548 ], [ -99.533607681755839, 17.562825692284552 ], [ -99.533607681755839, 17.558748124592753 ], [ -99.538180155464104, 17.558748124592718 ], [ -99.538180155464104, 17.562825692284548 ] ] ] } },
{ "type": "Feature", "properties": { "difference_1990_2000": 85.0, "difference_1990_2010": 0.0, "difference_1990_2020": 717.0 }, "geometry": { "type": "Polygon", "coordinates": [ [ [ -99.529035208047574, 17.542438760612669 ], [ -99.524462734339295, 17.542438760612661 ], [ -99.524462734339295, 17.538361646181766 ], [ -99.529035208047574, 17.53836164618177 ], [ -99.529035208047574, 17.542438760612669 ] ] ] } },
{ "type": "Feature", "properties": { "difference_1990_2000": 15.0, "difference_1990_2010": 0.0, "difference_1990_2020": 21.0 }, "geometry": { "type": "Polygon", "coordinates": [ [ [ -99.529035208047574, 17.554670647606244 ], [ -99.524462734339295, 17.554670647606226 ], [ -99.524462734339295, 17.550593261298353 ], [ -99.529035208047574, 17.550593261298356 ], [ -99.529035208047574, 17.554670647606244 ] ] ] } },
{ "type": "Feature", "properties": { "difference_1990_2000": 0.0, "difference_1990_2010": 0.0, "difference_1990_2020": 356.0 }, "geometry": { "type": "Polygon", "coordinates": [ [ [ -99.529035208047574, 17.587293004731034 ], [ -99.524462734339295, 17.587293004730984 ], [ -99.524462734339295, 17.583214892250563 ], [ -99.529035208047574, 17.583214892250563 ], [ -99.529035208047574, 17.587293004731034 ] ] ] } },
{ "type": "Feature", "properties": { "difference_1990_2000": 13.0, "difference_1990_2010": 0.0, "difference_1990_2020": 234.0 }, "geometry": { "type": "Polygon", "coordinates": [ [ [ -99.529035208047574, 17.570981099889906 ], [ -99.524462734339295, 17.570981099889899 ], [ -99.524462734339295, 17.566903350708031 ], [ -99.529035208047574, 17.566903350708071 ], [ -99.529035208047574, 17.570981099889906 ] ] ] } },
{ "type": "Feature", "properties": { "difference_1990_2000": 0.0, "difference_1990_2010": 0.0, "difference_1990_2020": 347.0 }, "geometry": { "type": "Polygon", "coordinates": [ [ [ -99.529035208047574, 17.546515965642669 ], [ -99.524462734339295, 17.546515965642666 ], [ -99.524462734339295, 17.542438760612661 ], [ -99.529035208047574, 17.542438760612669 ], [ -99.529035208047574, 17.546515965642669 ] ] ] } },
{ "type": "Feature", "properties": { "difference_1990_2000": 0.0, "difference_1990_2010": 0.0, "difference_1990_2020": 195.0 }, "geometry": { "type": "Polygon", "coordinates": [ [ [ -99.529035208047574, 17.530207689011483 ], [ -99.524462734339295, 17.53020768901148 ], [ -99.524462734339295, 17.526130846219029 ], [ -99.529035208047574, 17.526130846219029 ], [ -99.529035208047574, 17.530207689011483 ] ] ] } },
{ "type": "Feature", "properties": { "difference_1990_2000": 528.0, "difference_1990_2010": 0.0, "difference_1990_2020": 945.0 }, "geometry": { "type": "Polygon", "coordinates": [ [ [ -99.529035208047574, 17.53836164618177 ], [ -99.524462734339295, 17.538361646181766 ], [ -99.524462734339295, 17.534284622323565 ], [ -99.529035208047574, 17.53428462232359 ], [ -99.529035208047574, 17.53836164618177 ] ] ] } },
{ "type": "Feature", "properties": { "difference_1990_2000": 54.0, "difference_1990_2010": 0.0, "difference_1990_2020": 1213.0 }, "geometry": { "type": "Polygon", "coordinates": [ [ [ -99.529035208047574, 17.57913687063461 ], [ -99.524462734339295, 17.57913687063461 ], [ -99.524462734339295, 17.575058939856529 ], [ -99.529035208047574, 17.575058939856532 ], [ -99.529035208047574, 17.57913687063461 ] ] ] } },
{ "type": "Feature", "properties": { "difference_1990_2000": 0.0, "difference_1990_2010": 0.0, "difference_1990_2020": 708.0 }, "geometry": { "type": "Polygon", "coordinates": [ [ [ -99.529035208047574, 17.583214892250563 ], [ -99.524462734339295, 17.583214892250563 ], [ -99.524462734339295, 17.57913687063461 ], [ -99.529035208047574, 17.57913687063461 ], [ -99.529035208047574, 17.583214892250563 ] ] ] } },
{ "type": "Feature", "properties": { "difference_1990_2000": 5.0, "difference_1990_2010": 0.0, "difference_1990_2020": 226.0 }, "geometry": { "type": "Polygon", "coordinates": [ [ [ -99.529035208047574, 17.566903350708071 ], [ -99.524462734339295, 17.566903350708031 ], [ -99.524462734339295, 17.562825692284548 ], [ -99.529035208047574, 17.562825692284552 ], [ -99.529035208047574, 17.566903350708071 ] ] ] } },
{ "type": "Feature", "properties": { "difference_1990_2000": 133.0, "difference_1990_2010": 0.0, "difference_1990_2020": 544.0 }, "geometry": { "type": "Polygon", "coordinates": [ [ [ -99.529035208047574, 17.53428462232359 ], [ -99.524462734339295, 17.534284622323565 ], [ -99.524462734339295, 17.53020768901148 ], [ -99.529035208047574, 17.530207689011483 ], [ -99.529035208047574, 17.53428462232359 ] ] ] } },
{ "type": "Feature", "properties": { "difference_1990_2000": 586.0, "difference_1990_2010": 0.0, "difference_1990_2020": 1148.0 }, "geometry": { "type": "Polygon", "coordinates": [ [ [ -99.529035208047574, 17.558748124592753 ], [ -99.524462734339295, 17.558748124592714 ], [ -99.524462734339295, 17.554670647606226 ], [ -99.529035208047574, 17.554670647606244 ], [ -99.529035208047574, 17.558748124592753 ] ] ] } },
{ "type": "Feature", "properties": { "difference_1990_2000": 188.0, "difference_1990_2010": 0.0, "difference_1990_2020": 432.0 }, "geometry": { "type": "Polygon", "coordinates": [ [ [ -99.529035208047574, 17.575058939856532 ], [ -99.524462734339295, 17.575058939856529 ], [ -99.524462734339295, 17.570981099889899 ], [ -99.529035208047574, 17.570981099889906 ], [ -99.529035208047574, 17.575058939856532 ] ] ] } },
{ "type": "Feature", "properties": { "difference_1990_2000": 241.0, "difference_1990_2010": 0.0, "difference_1990_2020": 597.0 }, "geometry": { "type": "Polygon", "coordinates": [ [ [ -99.529035208047574, 17.562825692284552 ], [ -99.524462734339295, 17.562825692284548 ], [ -99.524462734339295, 17.558748124592714 ], [ -99.529035208047574, 17.558748124592753 ], [ -99.529035208047574, 17.562825692284552 ] ] ] } },
{ "type": "Feature", "properties": { "difference_1990_2000": 234.0, "difference_1990_2010": 0.0, "difference_1990_2020": 839.0 }, "geometry": { "type": "Polygon", "coordinates": [ [ [ -99.519890260631016, 17.542438760612644 ], [ -99.515317786922736, 17.542438760612661 ], [ -99.515317786922736, 17.538361646181766 ], [ -99.519890260631016, 17.53836164618177 ], [ -99.519890260631016, 17.542438760612644 ] ] ] } },
{ "type": "Feature", "properties": { "difference_1990_2000": 1441.0, "difference_1990_2010": 0.0, "difference_1990_2020": 1684.0 }, "geometry": { "type": "Polygon", "coordinates": [ [ [ -99.519890260631016, 17.554670647606176 ], [ -99.515317786922736, 17.554670647606244 ], [ -99.515317786922736, 17.550593261298356 ], [ -99.519890260631016, 17.550593261298356 ], [ -99.519890260631016, 17.554670647606176 ] ] ] } },
{ "type": "Feature", "properties": { "difference_1990_2000": 130.0, "difference_1990_2010": 0.0, "difference_1990_2020": 632.0 }, "geometry": { "type": "Polygon", "coordinates": [ [ [ -99.519890260631016, 17.587293004731027 ], [ -99.515317786922736, 17.587293004731045 ], [ -99.515317786922736, 17.583214892250563 ], [ -99.519890260631016, 17.58321489225056 ], [ -99.519890260631016, 17.587293004731027 ] ] ] } },
{ "type": "Feature", "properties": { "difference_1990_2000": 1805.0, "difference_1990_2010": 0.0, "difference_1990_2020": 2318.0 }, "geometry": { "type": "Polygon", "coordinates": [ [ [ -99.519890260631016, 17.570981099889931 ], [ -99.515317786922736, 17.570981099889941 ], [ -99.515317786922736, 17.566903350708085 ], [ -99.519890260631016, 17.566903350708078 ], [ -99.519890260631016, 17.570981099889931 ] ] ] } },
{ "type": "Feature", "properties": { "difference_1990_2000": 251.0, "difference_1990_2010": 0.0, "difference_1990_2020": 581.0 }, "geometry": { "type": "Polygon", "coordinates": [ [ [ -99.519890260631016, 17.546515965642666 ], [ -99.515317786922736, 17.546515965642669 ], [ -99.515317786922736, 17.542438760612661 ], [ -99.519890260631016, 17.542438760612644 ], [ -99.519890260631016, 17.546515965642666 ] ] ] } },
{ "type": "Feature", "properties": { "difference_1990_2000": 0.0, "difference_1990_2010": 0.0, "difference_1990_2020": 26.0 }, "geometry": { "type": "Polygon", "coordinates": [ [ [ -99.519890260631016, 17.530207689011487 ], [ -99.515317786922736, 17.53020768901148 ], [ -99.515317786922736, 17.526130846219029 ], [ -99.519890260631016, 17.526130846219029 ], [ -99.519890260631016, 17.530207689011487 ] ] ] } },
{ "type": "Feature", "properties": { "difference_1990_2000": 485.0, "difference_1990_2010": 0.0, "difference_1990_2020": 1196.0 }, "geometry": { "type": "Polygon", "coordinates": [ [ [ -99.519890260631016, 17.53836164618177 ], [ -99.515317786922736, 17.538361646181766 ], [ -99.515317786922736, 17.534284622323561 ], [ -99.519890260631016, 17.534284622323561 ], [ -99.519890260631016, 17.53836164618177 ] ] ] } },
{ "type": "Feature", "properties": { "difference_1990_2000": 0.0, "difference_1990_2010": 0.0, "difference_1990_2020": 11.0 }, "geometry": { "type": "Polygon", "coordinates": [ [ [ -99.519890260631016, 17.599527887624877 ], [ -99.515317786922736, 17.599527887624841 ], [ -99.515317786922736, 17.595449502391592 ], [ -99.519890260631016, 17.595449502391599 ], [ -99.519890260631016, 17.599527887624877 ] ] ] } },
{ "type": "Feature", "properties": { "difference_1990_2000": 560.0, "difference_1990_2010": 0.0, "difference_1990_2020": 1307.0 }, "geometry": { "type": "Polygon", "coordinates": [ [ [ -99.519890260631016, 17.579136870634656 ], [ -99.515317786922736, 17.579136870634656 ], [ -99.515317786922736, 17.575058939856568 ], [ -99.519890260631016, 17.575058939856532 ], [ -99.519890260631016, 17.579136870634656 ] ] ] } },
{ "type": "Feature", "properties": { "difference_1990_2000": -21.0, "difference_1990_2010": 0.0, "difference_1990_2020": 461.0 }, "geometry": { "type": "Polygon", "coordinates": [ [ [ -99.519890260631016, 17.58321489225056 ], [ -99.515317786922736, 17.583214892250563 ], [ -99.515317786922736, 17.579136870634656 ], [ -99.519890260631016, 17.579136870634656 ], [ -99.519890260631016, 17.58321489225056 ] ] ] } },
{ "type": "Feature", "properties": { "difference_1990_2000": 220.0, "difference_1990_2010": 0.0, "difference_1990_2020": 796.0 }, "geometry": { "type": "Polygon", "coordinates": [ [ [ -99.519890260631016, 17.591371208102505 ], [ -99.515317786922736, 17.591371208102505 ], [ -99.515317786922736, 17.587293004731045 ], [ -99.519890260631016, 17.587293004731027 ], [ -99.519890260631016, 17.591371208102505 ] ] ] } },
{ "type": "Feature", "properties": { "difference_1990_2000": 314.0, "difference_1990_2010": 0.0, "difference_1990_2020": 885.0 }, "geometry": { "type": "Polygon", "coordinates": [ [ [ -99.519890260631016, 17.550593261298356 ], [ -99.515317786922736, 17.550593261298356 ], [ -99.515317786922736, 17.546515965642669 ], [ -99.519890260631016, 17.546515965642666 ], [ -99.519890260631016, 17.550593261298356 ] ] ] } },
{ "type": "Feature", "properties": { "difference_1990_2000": 168.0, "difference_1990_2010": 0.0, "difference_1990_2020": 863.0 }, "geometry": { "type": "Polygon", "coordinates": [ [ [ -99.519890260631016, 17.534284622323561 ], [ -99.515317786922736, 17.534284622323561 ], [ -99.515317786922736, 17.53020768901148 ], [ -99.519890260631016, 17.530207689011487 ], [ -99.519890260631016, 17.534284622323561 ] ] ] } },
{ "type": "Feature", "properties": { "difference_1990_2000": 507.0, "difference_1990_2010": 0.0, "difference_1990_2020": 1293.0 }, "geometry": { "type": "Polygon", "coordinates": [ [ [ -99.519890260631016, 17.566903350708078 ], [ -99.515317786922736, 17.566903350708085 ], [ -99.515317786922736, 17.562825692284552 ], [ -99.519890260631016, 17.562825692284548 ], [ -99.519890260631016, 17.566903350708078 ] ] ] } },
{ "type": "Feature", "properties": { "difference_1990_2000": 891.0, "difference_1990_2010": 0.0, "difference_1990_2020": 1842.0 }, "geometry": { "type": "Polygon", "coordinates": [ [ [ -99.519890260631016, 17.558748124592753 ], [ -99.515317786922736, 17.558748124592764 ], [ -99.515317786922736, 17.554670647606244 ], [ -99.519890260631016, 17.554670647606176 ], [ -99.519890260631016, 17.558748124592753 ] ] ] } },
{ "type": "Feature", "properties": { "difference_1990_2000": 1908.0, "difference_1990_2010": 0.0, "difference_1990_2020": 2176.0 }, "geometry": { "type": "Polygon", "coordinates": [ [ [ -99.519890260631016, 17.575058939856532 ], [ -99.515317786922736, 17.575058939856568 ], [ -99.515317786922736, 17.570981099889941 ], [ -99.519890260631016, 17.570981099889931 ], [ -99.519890260631016, 17.575058939856532 ] ] ] } },
{ "type": "Feature", "properties": { "difference_1990_2000": 1153.0, "difference_1990_2010": 0.0, "difference_1990_2020": 2104.0 }, "geometry": { "type": "Polygon", "coordinates": [ [ [ -99.519890260631016, 17.562825692284548 ], [ -99.515317786922736, 17.562825692284552 ], [ -99.515317786922736, 17.558748124592764 ], [ -99.519890260631016, 17.558748124592753 ], [ -99.519890260631016, 17.562825692284548 ] ] ] } },
{ "type": "Feature", "properties": { "difference_1990_2000": 425.0, "difference_1990_2010": 0.0, "difference_1990_2020": 933.0 }, "geometry": { "type": "Polygon", "coordinates": [ [ [ -99.519890260631016, 17.595449502391599 ], [ -99.515317786922736, 17.595449502391592 ], [ -99.515317786922736, 17.591371208102505 ], [ -99.519890260631016, 17.591371208102505 ], [ -99.519890260631016, 17.595449502391599 ] ] ] } },
{ "type": "Feature", "properties": { "difference_1990_2000": 658.0, "difference_1990_2010": 0.0, "difference_1990_2020": 975.0 }, "geometry": { "type": "Polygon", "coordinates": [ [ [ -99.510745313214457, 17.542438760612669 ], [ -99.506172839506178, 17.542438760612665 ], [ -99.506172839506178, 17.538361646181773 ], [ -99.510745313214457, 17.53836164618177 ], [ -99.510745313214457, 17.542438760612669 ] ] ] } },
{ "type": "Feature", "properties": { "difference_1990_2000": 29.0, "difference_1990_2010": 0.0, "difference_1990_2020": -256.0 }, "geometry": { "type": "Polygon", "coordinates": [ [ [ -99.510745313214457, 17.554670647606194 ], [ -99.506172839506178, 17.55467064760623 ], [ -99.506172839506178, 17.550593261298356 ], [ -99.510745313214457, 17.550593261298356 ], [ -99.510745313214457, 17.554670647606194 ] ] ] } },
{ "type": "Feature", "properties": { "difference_1990_2000": 0.0, "difference_1990_2010": 0.0, "difference_1990_2020": 167.0 }, "geometry": { "type": "Polygon", "coordinates": [ [ [ -99.510745313214457, 17.587293004731034 ], [ -99.506172839506178, 17.587293004731034 ], [ -99.506172839506178, 17.583214892250563 ], [ -99.510745313214457, 17.583214892250563 ], [ -99.510745313214457, 17.587293004731034 ] ] ] } },
{ "type": "Feature", "properties": { "difference_1990_2000": -156.0, "difference_1990_2010": 0.0, "difference_1990_2020": 220.0 }, "geometry": { "type": "Polygon", "coordinates": [ [ [ -99.510745313214457, 17.570981099889899 ], [ -99.506172839506178, 17.570981099889941 ], [ -99.506172839506178, 17.566903350708035 ], [ -99.510745313214457, 17.566903350708067 ], [ -99.510745313214457, 17.570981099889899 ] ] ] } },
{ "type": "Feature", "properties": { "difference_1990_2000": -97.0, "difference_1990_2010": 0.0, "difference_1990_2020": 11.0 }, "geometry": { "type": "Polygon", "coordinates": [ [ [ -99.510745313214457, 17.546515965642666 ], [ -99.506172839506178, 17.546515965642666 ], [ -99.506172839506178, 17.542438760612665 ], [ -99.510745313214457, 17.542438760612669 ], [ -99.510745313214457, 17.546515965642666 ] ] ] } },
{ "type": "Feature", "properties": { "difference_1990_2000": 0.0, "difference_1990_2010": 0.0, "difference_1990_2020": 1164.0 }, "geometry": { "type": "Polygon", "coordinates": [ [ [ -99.510745313214457, 17.530207689011476 ], [ -99.506172839506178, 17.53020768901148 ], [ -99.506172839506178, 17.526130846219029 ], [ -99.510745313214457, 17.526130846219029 ], [ -99.510745313214457, 17.530207689011476 ] ] ] } },
{ "type": "Feature", "properties": { "difference_1990_2000": 0.0, "difference_1990_2010": 0.0, "difference_1990_2020": 274.0 }, "geometry": { "type": "Polygon", "coordinates": [ [ [ -99.510745313214457, 17.517977432087147 ], [ -99.506172839506178, 17.517977432087147 ], [ -99.506172839506178, 17.513900860694704 ], [ -99.510745313214457, 17.513900860694708 ], [ -99.510745313214457, 17.517977432087147 ] ] ] } },
{ "type": "Feature", "properties": { "difference_1990_2000": 0.0, "difference_1990_2010": 0.0, "difference_1990_2020": 1024.0 }, "geometry": { "type": "Polygon", "coordinates": [ [ [ -99.510745313214457, 17.526130846219029 ], [ -99.506172839506178, 17.526130846219029 ], [ -99.506172839506178, 17.522054093919763 ], [ -99.510745313214457, 17.522054093919731 ], [ -99.510745313214457, 17.526130846219029 ] ] ] } },
{ "type": "Feature", "properties": { "difference_1990_2000": 882.0, "difference_1990_2010": 0.0, "difference_1990_2020": 1412.0 }, "geometry": { "type": "Polygon", "coordinates": [ [ [ -99.510745313214457, 17.53836164618177 ], [ -99.506172839506178, 17.538361646181773 ], [ -99.506172839506178, 17.534284622323561 ], [ -99.510745313214457, 17.534284622323561 ], [ -99.510745313214457, 17.53836164618177 ] ] ] } },
{ "type": "Feature", "properties": { "difference_1990_2000": 754.0, "difference_1990_2010": 0.0, "difference_1990_2020": 955.0 }, "geometry": { "type": "Polygon", "coordinates": [ [ [ -99.510745313214457, 17.579136870634656 ], [ -99.506172839506178, 17.579136870634613 ], [ -99.506172839506178, 17.575058939856536 ], [ -99.510745313214457, 17.57505893985654 ], [ -99.510745313214457, 17.579136870634656 ] ] ] } },
{ "type": "Feature", "properties": { "difference_1990_2000": 0.0, "difference_1990_2010": 0.0, "difference_1990_2020": 274.0 }, "geometry": { "type": "Polygon", "coordinates": [ [ [ -99.510745313214457, 17.583214892250563 ], [ -99.506172839506178, 17.583214892250563 ], [ -99.506172839506178, 17.579136870634613 ], [ -99.510745313214457, 17.579136870634656 ], [ -99.510745313214457, 17.583214892250563 ] ] ] } },
{ "type": "Feature", "properties": { "difference_1990_2000": 203.0, "difference_1990_2010": 0.0, "difference_1990_2020": 160.0 }, "geometry": { "type": "Polygon", "coordinates": [ [ [ -99.510745313214457, 17.550593261298356 ], [ -99.506172839506178, 17.550593261298356 ], [ -99.506172839506178, 17.546515965642666 ], [ -99.510745313214457, 17.546515965642666 ], [ -99.510745313214457, 17.550593261298356 ] ] ] } },
{ "type": "Feature", "properties": { "difference_1990_2000": 162.0, "difference_1990_2010": 0.0, "difference_1990_2020": 1213.0 }, "geometry": { "type": "Polygon", "coordinates": [ [ [ -99.510745313214457, 17.534284622323561 ], [ -99.506172839506178, 17.534284622323561 ], [ -99.506172839506178, 17.53020768901148 ], [ -99.510745313214457, 17.530207689011476 ], [ -99.510745313214457, 17.534284622323561 ] ] ] } },
{ "type": "Feature", "properties": { "difference_1990_2000": -192.0, "difference_1990_2010": 0.0, "difference_1990_2020": 372.0 }, "geometry": { "type": "Polygon", "coordinates": [ [ [ -99.510745313214457, 17.566903350708067 ], [ -99.506172839506178, 17.566903350708035 ], [ -99.506172839506178, 17.562825692284555 ], [ -99.510745313214457, 17.562825692284555 ], [ -99.510745313214457, 17.566903350708067 ] ] ] } },
{ "type": "Feature", "properties": { "difference_1990_2000": -361.0, "difference_1990_2010": 0.0, "difference_1990_2020": -372.0 }, "geometry": { "type": "Polygon", "coordinates": [ [ [ -99.510745313214457, 17.558748124592753 ], [ -99.506172839506178, 17.558748124592753 ], [ -99.506172839506178, 17.55467064760623 ], [ -99.510745313214457, 17.554670647606194 ], [ -99.510745313214457, 17.558748124592753 ] ] ] } },
{ "type": "Feature", "properties": { "difference_1990_2000": 557.0, "difference_1990_2010": 0.0, "difference_1990_2020": 964.0 }, "geometry": { "type": "Polygon", "coordinates": [ [ [ -99.510745313214457, 17.57505893985654 ], [ -99.506172839506178, 17.575058939856536 ], [ -99.506172839506178, 17.570981099889941 ], [ -99.510745313214457, 17.570981099889899 ], [ -99.510745313214457, 17.57505893985654 ] ] ] } },
{ "type": "Feature", "properties": { "difference_1990_2000": 0.0, "difference_1990_2010": 0.0, "difference_1990_2020": 1074.0 }, "geometry": { "type": "Polygon", "coordinates": [ [ [ -99.510745313214457, 17.522054093919731 ], [ -99.506172839506178, 17.522054093919763 ], [ -99.506172839506178, 17.517977432087147 ], [ -99.510745313214457, 17.517977432087147 ], [ -99.510745313214457, 17.522054093919731 ] ] ] } },
{ "type": "Feature", "properties": { "difference_1990_2000": 0.0, "difference_1990_2010": 0.0, "difference_1990_2020": 73.0 }, "geometry": { "type": "Polygon", "coordinates": [ [ [ -99.510745313214457, 17.513900860694708 ], [ -99.506172839506178, 17.513900860694704 ], [ -99.506172839506178, 17.509824379715997 ], [ -99.510745313214457, 17.509824379715965 ], [ -99.510745313214457, 17.513900860694708 ] ] ] } },
{ "type": "Feature", "properties": { "difference_1990_2000": -651.0, "difference_1990_2010": 0.0, "difference_1990_2020": -546.0 }, "geometry": { "type": "Polygon", "coordinates": [ [ [ -99.510745313214457, 17.562825692284555 ], [ -99.506172839506178, 17.562825692284555 ], [ -99.506172839506178, 17.558748124592753 ], [ -99.510745313214457, 17.558748124592753 ], [ -99.510745313214457, 17.562825692284555 ] ] ] } }
]
}
