{
"type": "FeatureCollection",
"name": "M16.03",
"crs": { "type": "name", "properties": { "name": "urn:ogc:def:crs:OGC:1.3:CRS84" } },
"features": [
{ "type": "Feature", "properties": { "difference_1990_2000": 599.0, "difference_1990_2010": 0.0, "difference_1990_2020": 653.0 }, "geometry": { "type": "Polygon", "coordinates": [ [ [ -102.309099222679478, 19.993615124633067 ], [ -102.304526748971199, 19.993615124633067 ], [ -102.304526748971199, 19.989479025381058 ], [ -102.309099222679478, 19.989479025381094 ], [ -102.309099222679478, 19.993615124633067 ] ] ] } },
{ "type": "Feature", "properties": { "difference_1990_2000": 263.0, "difference_1990_2010": 0.0, "difference_1990_2020": 1260.0 }, "geometry": { "type": "Polygon", "coordinates": [ [ [ -102.309099222679478, 20.001887645235296 ], [ -102.304526748971199, 20.001887645235296 ], [ -102.304526748971199, 19.997751331241233 ], [ -102.309099222679478, 19.997751331241229 ], [ -102.309099222679478, 20.001887645235296 ] ] ] } },
{ "type": "Feature", "properties": { "difference_1990_2000": 844.0, "difference_1990_2010": 0.0, "difference_1990_2020": 1372.0 }, "geometry": { "type": "Polygon", "coordinates": [ [ [ -102.309099222679478, 19.997751331241229 ], [ -102.304526748971199, 19.997751331241233 ], [ -102.304526748971199, 19.993615124633067 ], [ -102.309099222679478, 19.993615124633067 ], [ -102.309099222679478, 19.997751331241229 ] ] ] } },
{ "type": "Feature", "properties": { "difference_1990_2000": 39.0, "difference_1990_2010": 0.0, "difference_1990_2020": 1678.0 }, "geometry": { "type": "Polygon", "coordinates": [ [ [ -102.309099222679478, 20.0060240666451 ], [ -102.304526748971199, 20.0060240666451 ], [ -102.304526748971199, 20.001887645235296 ], [ -102.309099222679478, 20.001887645235296 ], [ -102.309099222679478, 20.0060240666451 ] ] ] } },
{ "type": "Feature", "properties": { "difference_1990_2000": 23.0, "difference_1990_2010": 0.0, "difference_1990_2020": 88.0 }, "geometry": { "type": "Polygon", "coordinates": [ [ [ -102.29995427526292, 20.014297231830891 ], [ -102.29538180155464, 20.014297231830891 ], [ -102.29538180155464, 20.010160595500366 ], [ -102.29995427526292, 20.010160595500363 ], [ -102.29995427526292, 20.014297231830891 ] ] ] } },
{ "type": "Feature", "properties": { "difference_1990_2000": -411.0, "difference_1990_2010": 0.0, "difference_1990_2020": -467.0 }, "geometry": { "type": "Polygon", "coordinates": [ [ [ -102.29995427526292, 19.993615124633063 ], [ -102.29538180155464, 19.993615124633035 ], [ -102.29538180155464, 19.989479025381041 ], [ -102.29995427526292, 19.989479025381058 ], [ -102.29995427526292, 19.993615124633063 ] ] ] } },
{ "type": "Feature", "properties": { "difference_1990_2000": 510.0, "difference_1990_2010": 0.0, "difference_1990_2020": 349.0 }, "geometry": { "type": "Polygon", "coordinates": [ [ [ -102.29995427526292, 20.001887645235296 ], [ -102.29538180155464, 20.001887645235296 ], [ -102.29538180155464, 19.997751331241208 ], [ -102.29995427526292, 19.997751331241229 ], [ -102.29995427526292, 20.001887645235296 ] ] ] } },
{ "type": "Feature", "properties": { "difference_1990_2000": -101.0, "difference_1990_2010": -590.0, "difference_1990_2020": -117.0 }, "geometry": { "type": "Polygon", "coordinates": [ [ [ -102.29995427526292, 19.977071371464604 ], [ -102.29538180155464, 19.977071371464604 ], [ -102.29538180155464, 19.9729357013398 ], [ -102.29995427526292, 19.972935701339811 ], [ -102.29995427526292, 19.977071371464604 ] ] ] } },
{ "type": "Feature", "properties": { "difference_1990_2000": 0.0, "difference_1990_2010": 0.0, "difference_1990_2020": -1.0 }, "geometry": { "type": "Polygon", "coordinates": [ [ [ -102.29995427526292, 19.985343033455511 ], [ -102.29538180155464, 19.985343033455511 ], [ -102.29538180155464, 19.981207148826577 ], [ -102.29995427526292, 19.981207148826584 ], [ -102.29995427526292, 19.985343033455511 ] ] ] } },
{ "type": "Feature", "properties": { "difference_1990_2000": 297.0, "difference_1990_2010": 310.0, "difference_1990_2020": 291.0 }, "geometry": { "type": "Polygon", "coordinates": [ [ [ -102.29995427526292, 19.968800138422456 ], [ -102.29538180155464, 19.968800138422406 ], [ -102.29538180155464, 19.964664682682823 ], [ -102.29995427526292, 19.96466468268282 ], [ -102.29995427526292, 19.968800138422456 ] ] ] } },
{ "type": "Feature", "properties": { "difference_1990_2000": 119.0, "difference_1990_2010": 94.0, "difference_1990_2020": 108.0 }, "geometry": { "type": "Polygon", "coordinates": [ [ [ -102.29995427526292, 19.972935701339811 ], [ -102.29538180155464, 19.9729357013398 ], [ -102.29538180155464, 19.968800138422413 ], [ -102.29995427526292, 19.968800138422456 ], [ -102.29995427526292, 19.972935701339811 ] ] ] } },
{ "type": "Feature", "properties": { "difference_1990_2000": 142.0, "difference_1990_2010": 0.0, "difference_1990_2020": -446.0 }, "geometry": { "type": "Polygon", "coordinates": [ [ [ -102.29995427526292, 19.997751331241229 ], [ -102.29538180155464, 19.997751331241208 ], [ -102.29538180155464, 19.993615124633035 ], [ -102.29995427526292, 19.993615124633063 ], [ -102.29995427526292, 19.997751331241229 ] ] ] } },
{ "type": "Feature", "properties": { "difference_1990_2000": -58.0, "difference_1990_2010": 0.0, "difference_1990_2020": -67.0 }, "geometry": { "type": "Polygon", "coordinates": [ [ [ -102.29995427526292, 19.981207148826584 ], [ -102.29538180155464, 19.981207148826577 ], [ -102.29538180155464, 19.977071371464604 ], [ -102.29995427526292, 19.977071371464604 ], [ -102.29995427526292, 19.981207148826584 ] ] ] } },
{ "type": "Feature", "properties": { "difference_1990_2000": 19.0, "difference_1990_2010": 0.0, "difference_1990_2020": 374.0 }, "geometry": { "type": "Polygon", "coordinates": [ [ [ -102.29995427526292, 20.010160595500363 ], [ -102.29538180155464, 20.010160595500366 ], [ -102.29538180155464, 20.006024066645104 ], [ -102.29995427526292, 20.0060240666451 ], [ -102.29995427526292, 20.010160595500363 ] ] ] } },
{ "type": "Feature", "properties": { "difference_1990_2000": 53.0, "difference_1990_2010": 0.0, "difference_1990_2020": 913.0 }, "geometry": { "type": "Polygon", "coordinates": [ [ [ -102.29995427526292, 20.0060240666451 ], [ -102.29538180155464, 20.006024066645104 ], [ -102.29538180155464, 20.001887645235296 ], [ -102.29995427526292, 20.001887645235296 ], [ -102.29995427526292, 20.0060240666451 ] ] ] } },
{ "type": "Feature", "properties": { "difference_1990_2000": 0.0, "difference_1990_2010": 0.0, "difference_1990_2020": 18.0 }, "geometry": { "type": "Polygon", "coordinates": [ [ [ -102.29995427526292, 19.989479025381058 ], [ -102.29538180155464, 19.989479025381041 ], [ -102.29538180155464, 19.985343033455511 ], [ -102.29995427526292, 19.985343033455511 ], [ -102.29995427526292, 19.989479025381058 ] ] ] } },
{ "type": "Feature", "properties": { "difference_1990_2000": 178.0, "difference_1990_2010": 0.0, "difference_1990_2020": 632.0 }, "geometry": { "type": "Polygon", "coordinates": [ [ [ -102.290809327846375, 20.014297231830888 ], [ -102.286236854138096, 20.014297231830927 ], [ -102.286236854138096, 20.01016059550037 ], [ -102.290809327846375, 20.010160595500381 ], [ -102.290809327846375, 20.014297231830888 ] ] ] } },
{ "type": "Feature", "properties": { "difference_1990_2000": -612.0, "difference_1990_2010": 0.0, "difference_1990_2020": -1767.0 }, "geometry": { "type": "Polygon", "coordinates": [ [ [ -102.290809327846375, 19.993615124633067 ], [ -102.286236854138096, 19.993615124633035 ], [ -102.286236854138096, 19.989479025381065 ], [ -102.290809327846375, 19.989479025381044 ], [ -102.290809327846375, 19.993615124633067 ] ] ] } },
{ "type": "Feature", "properties": { "difference_1990_2000": 422.0, "difference_1990_2010": 0.0, "difference_1990_2020": 729.0 }, "geometry": { "type": "Polygon", "coordinates": [ [ [ -102.290809327846375, 20.0018876452353 ], [ -102.286236854138096, 20.001887645235296 ], [ -102.286236854138096, 19.997751331241211 ], [ -102.290809327846375, 19.997751331241211 ], [ -102.290809327846375, 20.0018876452353 ] ] ] } },
{ "type": "Feature", "properties": { "difference_1990_2000": -13.0, "difference_1990_2010": 0.0, "difference_1990_2020": -383.0 }, "geometry": { "type": "Polygon", "coordinates": [ [ [ -102.290809327846375, 19.977071371464618 ], [ -102.286236854138096, 19.977071371464618 ], [ -102.286236854138096, 19.972935701339807 ], [ -102.290809327846375, 19.972935701339807 ], [ -102.290809327846375, 19.977071371464618 ] ] ] } },
{ "type": "Feature", "properties": { "difference_1990_2000": 74.0, "difference_1990_2010": 0.0, "difference_1990_2020": -723.0 }, "geometry": { "type": "Polygon", "coordinates": [ [ [ -102.290809327846375, 19.985343033455528 ], [ -102.286236854138096, 19.985343033455511 ], [ -102.286236854138096, 19.981207148826584 ], [ -102.290809327846375, 19.981207148826616 ], [ -102.290809327846375, 19.985343033455528 ] ] ] } },
{ "type": "Feature", "properties": { "difference_1990_2000": 1.0, "difference_1990_2010": 0.0, "difference_1990_2020": 3.0 }, "geometry": { "type": "Polygon", "coordinates": [ [ [ -102.290809327846375, 20.018433975666486 ], [ -102.286236854138096, 20.018433975666518 ], [ -102.286236854138096, 20.014297231830927 ], [ -102.290809327846375, 20.014297231830888 ], [ -102.290809327846375, 20.018433975666486 ] ] ] } },
{ "type": "Feature", "properties": { "difference_1990_2000": 73.0, "difference_1990_2010": 0.0, "difference_1990_2020": 110.0 }, "geometry": { "type": "Polygon", "coordinates": [ [ [ -102.290809327846375, 19.968800138422456 ], [ -102.286236854138096, 19.96880013842242 ], [ -102.286236854138096, 19.96466468268282 ], [ -102.290809327846375, 19.964664682682816 ], [ -102.290809327846375, 19.968800138422456 ] ] ] } },
{ "type": "Feature", "properties": { "difference_1990_2000": 213.0, "difference_1990_2010": 0.0, "difference_1990_2020": 69.0 }, "geometry": { "type": "Polygon", "coordinates": [ [ [ -102.290809327846375, 19.972935701339807 ], [ -102.286236854138096, 19.972935701339807 ], [ -102.286236854138096, 19.96880013842242 ], [ -102.290809327846375, 19.968800138422456 ], [ -102.290809327846375, 19.972935701339807 ] ] ] } },
{ "type": "Feature", "properties": { "difference_1990_2000": 535.0, "difference_1990_2010": 0.0, "difference_1990_2020": -43.0 }, "geometry": { "type": "Polygon", "coordinates": [ [ [ -102.290809327846375, 19.997751331241211 ], [ -102.286236854138096, 19.997751331241211 ], [ -102.286236854138096, 19.993615124633035 ], [ -102.290809327846375, 19.993615124633067 ], [ -102.290809327846375, 19.997751331241211 ] ] ] } },
{ "type": "Feature", "properties": { "difference_1990_2000": 886.0, "difference_1990_2010": 0.0, "difference_1990_2020": 679.0 }, "geometry": { "type": "Polygon", "coordinates": [ [ [ -102.290809327846375, 20.006024066645107 ], [ -102.286236854138096, 20.006024066645107 ], [ -102.286236854138096, 20.001887645235296 ], [ -102.290809327846375, 20.0018876452353 ], [ -102.290809327846375, 20.006024066645107 ] ] ] } },
{ "type": "Feature", "properties": { "difference_1990_2000": 190.0, "difference_1990_2010": 0.0, "difference_1990_2020": 196.0 }, "geometry": { "type": "Polygon", "coordinates": [ [ [ -102.290809327846375, 20.010160595500381 ], [ -102.286236854138096, 20.01016059550037 ], [ -102.286236854138096, 20.006024066645107 ], [ -102.290809327846375, 20.006024066645107 ], [ -102.290809327846375, 20.010160595500381 ] ] ] } },
{ "type": "Feature", "properties": { "difference_1990_2000": -68.0, "difference_1990_2010": 0.0, "difference_1990_2020": -458.0 }, "geometry": { "type": "Polygon", "coordinates": [ [ [ -102.290809327846375, 19.981207148826616 ], [ -102.286236854138096, 19.981207148826584 ], [ -102.286236854138096, 19.977071371464618 ], [ -102.290809327846375, 19.977071371464618 ], [ -102.290809327846375, 19.981207148826616 ] ] ] } },
{ "type": "Feature", "properties": { "difference_1990_2000": -324.0, "difference_1990_2010": 0.0, "difference_1990_2020": -1158.0 }, "geometry": { "type": "Polygon", "coordinates": [ [ [ -102.290809327846375, 19.989479025381044 ], [ -102.286236854138096, 19.989479025381065 ], [ -102.286236854138096, 19.985343033455511 ], [ -102.290809327846375, 19.985343033455528 ], [ -102.290809327846375, 19.989479025381044 ] ] ] } },
{ "type": "Feature", "properties": { "difference_1990_2000": 3.0, "difference_1990_2010": 0.0, "difference_1990_2020": 11.0 }, "geometry": { "type": "Polygon", "coordinates": [ [ [ -102.281664380429817, 20.014297231830927 ], [ -102.277091906721537, 20.014297231830891 ], [ -102.277091906721537, 20.010160595500381 ], [ -102.281664380429817, 20.010160595500366 ], [ -102.281664380429817, 20.014297231830927 ] ] ] } },
{ "type": "Feature", "properties": { "difference_1990_2000": 223.0, "difference_1990_2010": 0.0, "difference_1990_2020": 562.0 }, "geometry": { "type": "Polygon", "coordinates": [ [ [ -102.281664380429817, 19.993615124633081 ], [ -102.277091906721537, 19.993615124633081 ], [ -102.277091906721537, 19.989479025381041 ], [ -102.281664380429817, 19.989479025381058 ], [ -102.281664380429817, 19.993615124633081 ] ] ] } },
{ "type": "Feature", "properties": { "difference_1990_2000": 233.0, "difference_1990_2010": 0.0, "difference_1990_2020": 569.0 }, "geometry": { "type": "Polygon", "coordinates": [ [ [ -102.281664380429817, 20.001887645235296 ], [ -102.277091906721537, 20.001887645235293 ], [ -102.277091906721537, 19.997751331241219 ], [ -102.281664380429817, 19.997751331241211 ], [ -102.281664380429817, 20.001887645235296 ] ] ] } },
{ "type": "Feature", "properties": { "difference_1990_2000": -5.0, "difference_1990_2010": 0.0, "difference_1990_2020": -369.0 }, "geometry": { "type": "Polygon", "coordinates": [ [ [ -102.281664380429817, 19.977071371464621 ], [ -102.277091906721537, 19.977071371464604 ], [ -102.277091906721537, 19.972935701339843 ], [ -102.281664380429817, 19.972935701339804 ], [ -102.281664380429817, 19.977071371464621 ] ] ] } },
{ "type": "Feature", "properties": { "difference_1990_2000": -357.0, "difference_1990_2010": 0.0, "difference_1990_2020": -853.0 }, "geometry": { "type": "Polygon", "coordinates": [ [ [ -102.281664380429817, 19.985343033455507 ], [ -102.277091906721537, 19.985343033455511 ], [ -102.277091906721537, 19.981207148826577 ], [ -102.281664380429817, 19.981207148826577 ], [ -102.281664380429817, 19.985343033455507 ] ] ] } },
{ "type": "Feature", "properties": { "difference_1990_2000": 139.0, "difference_1990_2010": 0.0, "difference_1990_2020": -433.0 }, "geometry": { "type": "Polygon", "coordinates": [ [ [ -102.281664380429817, 19.968800138422448 ], [ -102.277091906721537, 19.968800138422413 ], [ -102.277091906721537, 19.964664682682816 ], [ -102.281664380429817, 19.964664682682816 ], [ -102.281664380429817, 19.968800138422448 ] ] ] } },
{ "type": "Feature", "properties": { "difference_1990_2000": 1.0, "difference_1990_2010": 0.0, "difference_1990_2020": 4.0 }, "geometry": { "type": "Polygon", "coordinates": [ [ [ -102.281664380429817, 20.018433975666539 ], [ -102.277091906721537, 20.018433975666515 ], [ -102.277091906721537, 20.014297231830891 ], [ -102.281664380429817, 20.014297231830927 ], [ -102.281664380429817, 20.018433975666539 ] ] ] } },
{ "type": "Feature", "properties": { "difference_1990_2000": -92.0, "difference_1990_2010": 0.0, "difference_1990_2020": -1354.0 }, "geometry": { "type": "Polygon", "coordinates": [ [ [ -102.281664380429817, 19.972935701339804 ], [ -102.277091906721537, 19.972935701339843 ], [ -102.277091906721537, 19.968800138422452 ], [ -102.281664380429817, 19.968800138422448 ], [ -102.281664380429817, 19.972935701339804 ] ] ] } },
{ "type": "Feature", "properties": { "difference_1990_2000": 300.0, "difference_1990_2010": 0.0, "difference_1990_2020": 705.0 }, "geometry": { "type": "Polygon", "coordinates": [ [ [ -102.281664380429817, 19.997751331241211 ], [ -102.277091906721537, 19.997751331241219 ], [ -102.277091906721537, 19.993615124633081 ], [ -102.281664380429817, 19.993615124633081 ], [ -102.281664380429817, 19.997751331241211 ] ] ] } },
{ "type": "Feature", "properties": { "difference_1990_2000": 67.0, "difference_1990_2010": 0.0, "difference_1990_2020": -698.0 }, "geometry": { "type": "Polygon", "coordinates": [ [ [ -102.281664380429817, 19.981207148826577 ], [ -102.277091906721537, 19.981207148826577 ], [ -102.277091906721537, 19.977071371464604 ], [ -102.281664380429817, 19.977071371464621 ], [ -102.281664380429817, 19.981207148826577 ] ] ] } },
{ "type": "Feature", "properties": { "difference_1990_2000": -71.0, "difference_1990_2010": 0.0, "difference_1990_2020": 415.0 }, "geometry": { "type": "Polygon", "coordinates": [ [ [ -102.281664380429817, 20.010160595500366 ], [ -102.277091906721537, 20.010160595500381 ], [ -102.277091906721537, 20.006024066645104 ], [ -102.281664380429817, 20.006024066645104 ], [ -102.281664380429817, 20.010160595500366 ] ] ] } },
{ "type": "Feature", "properties": { "difference_1990_2000": 18.0, "difference_1990_2010": 0.0, "difference_1990_2020": 263.0 }, "geometry": { "type": "Polygon", "coordinates": [ [ [ -102.281664380429817, 20.006024066645104 ], [ -102.277091906721537, 20.006024066645104 ], [ -102.277091906721537, 20.001887645235293 ], [ -102.281664380429817, 20.001887645235296 ], [ -102.281664380429817, 20.006024066645104 ] ] ] } },
{ "type": "Feature", "properties": { "difference_1990_2000": -7.0, "difference_1990_2010": 0.0, "difference_1990_2020": -48.0 }, "geometry": { "type": "Polygon", "coordinates": [ [ [ -102.281664380429817, 19.989479025381058 ], [ -102.277091906721537, 19.989479025381041 ], [ -102.277091906721537, 19.985343033455511 ], [ -102.281664380429817, 19.985343033455507 ], [ -102.281664380429817, 19.989479025381058 ] ] ] } },
{ "type": "Feature", "properties": { "difference_1990_2000": 28.0, "difference_1990_2010": 0.0, "difference_1990_2020": 1149.0 }, "geometry": { "type": "Polygon", "coordinates": [ [ [ -102.272519433013287, 19.993615124633035 ], [ -102.267946959304993, 19.993615124633035 ], [ -102.267946959304993, 19.989479025381062 ], [ -102.272519433013287, 19.989479025381044 ], [ -102.272519433013287, 19.993615124633035 ] ] ] } },
{ "type": "Feature", "properties": { "difference_1990_2000": 390.0, "difference_1990_2010": 0.0, "difference_1990_2020": 699.0 }, "geometry": { "type": "Polygon", "coordinates": [ [ [ -102.272519433013287, 20.001887645235296 ], [ -102.267946959304993, 20.001887645235296 ], [ -102.267946959304993, 19.997751331241215 ], [ -102.272519433013287, 19.997751331241215 ], [ -102.272519433013287, 20.001887645235296 ] ] ] } },
{ "type": "Feature", "properties": { "difference_1990_2000": 236.0, "difference_1990_2010": 0.0, "difference_1990_2020": 373.0 }, "geometry": { "type": "Polygon", "coordinates": [ [ [ -102.272519433013287, 19.977071371464604 ], [ -102.267946959304993, 19.977071371464621 ], [ -102.267946959304993, 19.972935701339811 ], [ -102.272519433013287, 19.972935701339811 ], [ -102.272519433013287, 19.977071371464604 ] ] ] } },
{ "type": "Feature", "properties": { "difference_1990_2000": 68.0, "difference_1990_2010": 0.0, "difference_1990_2020": 411.0 }, "geometry": { "type": "Polygon", "coordinates": [ [ [ -102.272519433013287, 19.985343033455511 ], [ -102.267946959304993, 19.985343033455479 ], [ -102.267946959304993, 19.981207148826581 ], [ -102.272519433013287, 19.981207148826584 ], [ -102.272519433013287, 19.985343033455511 ] ] ] } },
{ "type": "Feature", "properties": { "difference_1990_2000": 48.0, "difference_1990_2010": 0.0, "difference_1990_2020": 76.0 }, "geometry": { "type": "Polygon", "coordinates": [ [ [ -102.272519433013287, 19.972935701339811 ], [ -102.267946959304993, 19.972935701339811 ], [ -102.267946959304993, 19.968800138422456 ], [ -102.272519433013287, 19.968800138422417 ], [ -102.272519433013287, 19.972935701339811 ] ] ] } },
{ "type": "Feature", "properties": { "difference_1990_2000": -6.0, "difference_1990_2010": 0.0, "difference_1990_2020": 177.0 }, "geometry": { "type": "Polygon", "coordinates": [ [ [ -102.272519433013287, 19.997751331241215 ], [ -102.267946959304993, 19.997751331241215 ], [ -102.267946959304993, 19.993615124633035 ], [ -102.272519433013287, 19.993615124633035 ], [ -102.272519433013287, 19.997751331241215 ] ] ] } },
{ "type": "Feature", "properties": { "difference_1990_2000": -2.0, "difference_1990_2010": 0.0, "difference_1990_2020": 16.0 }, "geometry": { "type": "Polygon", "coordinates": [ [ [ -102.272519433013287, 20.010160595500338 ], [ -102.267946959304993, 20.010160595500366 ], [ -102.267946959304993, 20.006024066645107 ], [ -102.272519433013287, 20.006024066645082 ], [ -102.272519433013287, 20.010160595500338 ] ] ] } },
{ "type": "Feature", "properties": { "difference_1990_2000": 111.0, "difference_1990_2010": 0.0, "difference_1990_2020": 230.0 }, "geometry": { "type": "Polygon", "coordinates": [ [ [ -102.272519433013287, 19.981207148826584 ], [ -102.267946959304993, 19.981207148826581 ], [ -102.267946959304993, 19.977071371464621 ], [ -102.272519433013287, 19.977071371464604 ], [ -102.272519433013287, 19.981207148826584 ] ] ] } },
{ "type": "Feature", "properties": { "difference_1990_2000": 209.0, "difference_1990_2010": 0.0, "difference_1990_2020": 453.0 }, "geometry": { "type": "Polygon", "coordinates": [ [ [ -102.272519433013287, 20.006024066645082 ], [ -102.267946959304993, 20.006024066645107 ], [ -102.267946959304993, 20.001887645235296 ], [ -102.272519433013287, 20.001887645235296 ], [ -102.272519433013287, 20.006024066645082 ] ] ] } },
{ "type": "Feature", "properties": { "difference_1990_2000": 113.0, "difference_1990_2010": 0.0, "difference_1990_2020": 1265.0 }, "geometry": { "type": "Polygon", "coordinates": [ [ [ -102.272519433013287, 19.989479025381044 ], [ -102.267946959304993, 19.989479025381062 ], [ -102.267946959304993, 19.985343033455479 ], [ -102.272519433013287, 19.985343033455511 ], [ -102.272519433013287, 19.989479025381044 ] ] ] } },
{ "type": "Feature", "properties": { "difference_1990_2000": 40.0, "difference_1990_2010": 0.0, "difference_1990_2020": 1475.0 }, "geometry": { "type": "Polygon", "coordinates": [ [ [ -102.263374485596714, 19.993615124633063 ], [ -102.258802011888434, 19.993615124633063 ], [ -102.258802011888434, 19.989479025381009 ], [ -102.263374485596714, 19.989479025381058 ], [ -102.263374485596714, 19.993615124633063 ] ] ] } },
{ "type": "Feature", "properties": { "difference_1990_2000": -4.0, "difference_1990_2010": 0.0, "difference_1990_2020": 568.0 }, "geometry": { "type": "Polygon", "coordinates": [ [ [ -102.263374485596714, 20.001887645235339 ], [ -102.258802011888434, 20.001887645235296 ], [ -102.258802011888434, 19.997751331241219 ], [ -102.263374485596714, 19.997751331241208 ], [ -102.263374485596714, 20.001887645235339 ] ] ] } },
{ "type": "Feature", "properties": { "difference_1990_2000": 0.0, "difference_1990_2010": 0.0, "difference_1990_2020": 572.0 }, "geometry": { "type": "Polygon", "coordinates": [ [ [ -102.263374485596714, 19.985343033455511 ], [ -102.258802011888434, 19.985343033455507 ], [ -102.258802011888434, 19.981207148826584 ], [ -102.263374485596714, 19.981207148826581 ], [ -102.263374485596714, 19.985343033455511 ] ] ] } },
{ "type": "Feature", "properties": { "difference_1990_2000": -289.0, "difference_1990_2010": 0.0, "difference_1990_2020": 1814.0 }, "geometry": { "type": "Polygon", "coordinates": [ [ [ -102.263374485596714, 19.997751331241208 ], [ -102.258802011888434, 19.997751331241219 ], [ -102.258802011888434, 19.993615124633063 ], [ -102.263374485596714, 19.993615124633063 ], [ -102.263374485596714, 19.997751331241208 ] ] ] } },
{ "type": "Feature", "properties": { "difference_1990_2000": 0.0, "difference_1990_2010": 0.0, "difference_1990_2020": 1724.0 }, "geometry": { "type": "Polygon", "coordinates": [ [ [ -102.263374485596714, 19.989479025381058 ], [ -102.258802011888434, 19.989479025381009 ], [ -102.258802011888434, 19.985343033455507 ], [ -102.263374485596714, 19.985343033455511 ], [ -102.263374485596714, 19.989479025381058 ] ] ] } },
{ "type": "Feature", "properties": { "difference_1990_2000": 0.0, "difference_1990_2010": 0.0, "difference_1990_2020": 1842.0 }, "geometry": { "type": "Polygon", "coordinates": [ [ [ -102.254229538180155, 19.993615124633031 ], [ -102.249657064471876, 19.993615124633067 ], [ -102.249657064471876, 19.989479025381062 ], [ -102.254229538180155, 19.989479025381012 ], [ -102.254229538180155, 19.993615124633031 ] ] ] } },
{ "type": "Feature", "properties": { "difference_1990_2000": 0.0, "difference_1990_2010": 0.0, "difference_1990_2020": 899.0 }, "geometry": { "type": "Polygon", "coordinates": [ [ [ -102.254229538180155, 19.985343033455511 ], [ -102.249657064471876, 19.985343033455511 ], [ -102.249657064471876, 19.981207148826581 ], [ -102.254229538180155, 19.981207148826581 ], [ -102.254229538180155, 19.985343033455511 ] ] ] } },
{ "type": "Feature", "properties": { "difference_1990_2000": 0.0, "difference_1990_2010": 0.0, "difference_1990_2020": 1413.0 }, "geometry": { "type": "Polygon", "coordinates": [ [ [ -102.254229538180155, 19.989479025381012 ], [ -102.249657064471876, 19.989479025381062 ], [ -102.249657064471876, 19.985343033455511 ], [ -102.254229538180155, 19.985343033455511 ], [ -102.254229538180155, 19.989479025381012 ] ] ] } },
{ "type": "Feature", "properties": { "difference_1990_2000": 35.0, "difference_1990_2010": 0.0, "difference_1990_2020": 171.0 }, "geometry": { "type": "Polygon", "coordinates": [ [ [ -102.313671696387757, 20.001887645235296 ], [ -102.309099222679478, 20.001887645235296 ], [ -102.309099222679478, 19.997751331241229 ], [ -102.313671696387757, 19.997751331241219 ], [ -102.313671696387757, 20.001887645235296 ] ] ] } },
{ "type": "Feature", "properties": { "difference_1990_2000": 59.0, "difference_1990_2010": 0.0, "difference_1990_2020": 1589.0 }, "geometry": { "type": "Polygon", "coordinates": [ [ [ -102.313671696387757, 20.006024066645086 ], [ -102.309099222679478, 20.0060240666451 ], [ -102.309099222679478, 20.001887645235296 ], [ -102.313671696387757, 20.001887645235296 ], [ -102.313671696387757, 20.006024066645086 ] ] ] } },
{ "type": "Feature", "properties": { "difference_1990_2000": -131.0, "difference_1990_2010": 0.0, "difference_1990_2020": -102.0 }, "geometry": { "type": "Polygon", "coordinates": [ [ [ -102.304526748971199, 19.993615124633067 ], [ -102.29995427526292, 19.993615124633063 ], [ -102.29995427526292, 19.989479025381058 ], [ -102.304526748971199, 19.989479025381058 ], [ -102.304526748971199, 19.993615124633067 ] ] ] } },
{ "type": "Feature", "properties": { "difference_1990_2000": 254.0, "difference_1990_2010": 0.0, "difference_1990_2020": 1092.0 }, "geometry": { "type": "Polygon", "coordinates": [ [ [ -102.304526748971199, 20.001887645235296 ], [ -102.29995427526292, 20.001887645235296 ], [ -102.29995427526292, 19.997751331241229 ], [ -102.304526748971199, 19.997751331241233 ], [ -102.304526748971199, 20.001887645235296 ] ] ] } },
{ "type": "Feature", "properties": { "difference_1990_2000": 44.0, "difference_1990_2010": 36.0, "difference_1990_2020": 38.0 }, "geometry": { "type": "Polygon", "coordinates": [ [ [ -102.304526748971199, 19.977071371464621 ], [ -102.29995427526292, 19.977071371464604 ], [ -102.29995427526292, 19.972935701339811 ], [ -102.304526748971199, 19.972935701339804 ], [ -102.304526748971199, 19.977071371464621 ] ] ] } },
{ "type": "Feature", "properties": { "difference_1990_2000": 127.0, "difference_1990_2010": 108.0, "difference_1990_2020": 111.0 }, "geometry": { "type": "Polygon", "coordinates": [ [ [ -102.304526748971199, 19.972935701339804 ], [ -102.29995427526292, 19.972935701339811 ], [ -102.29995427526292, 19.968800138422456 ], [ -102.304526748971199, 19.968800138422459 ], [ -102.304526748971199, 19.972935701339804 ] ] ] } },
{ "type": "Feature", "properties": { "difference_1990_2000": 448.0, "difference_1990_2010": 0.0, "difference_1990_2020": 1528.0 }, "geometry": { "type": "Polygon", "coordinates": [ [ [ -102.304526748971199, 19.997751331241233 ], [ -102.29995427526292, 19.997751331241229 ], [ -102.29995427526292, 19.993615124633063 ], [ -102.304526748971199, 19.993615124633067 ], [ -102.304526748971199, 19.997751331241233 ] ] ] } },
{ "type": "Feature", "properties": { "difference_1990_2000": 37.0, "difference_1990_2010": 0.0, "difference_1990_2020": 985.0 }, "geometry": { "type": "Polygon", "coordinates": [ [ [ -102.304526748971199, 20.0060240666451 ], [ -102.29995427526292, 20.0060240666451 ], [ -102.29995427526292, 20.001887645235296 ], [ -102.304526748971199, 20.001887645235296 ], [ -102.304526748971199, 20.0060240666451 ] ] ] } },
{ "type": "Feature", "properties": { "difference_1990_2000": 390.0, "difference_1990_2010": 0.0, "difference_1990_2020": 1517.0 }, "geometry": { "type": "Polygon", "coordinates": [ [ [ -102.295381801554655, 20.014297231830891 ], [ -102.290809327846375, 20.014297231830888 ], [ -102.290809327846375, 20.010160595500381 ], [ -102.295381801554655, 20.010160595500366 ], [ -102.295381801554655, 20.014297231830891 ] ] ] } },
{ "type": "Feature", "properties": { "difference_1990_2000": -466.0, "difference_1990_2010": 0.0, "difference_1990_2020": -1530.0 }, "geometry": { "type": "Polygon", "coordinates": [ [ [ -102.295381801554655, 19.993615124633035 ], [ -102.290809327846375, 19.993615124633067 ], [ -102.290809327846375, 19.989479025381044 ], [ -102.295381801554655, 19.989479025381041 ], [ -102.295381801554655, 19.993615124633035 ] ] ] } },
{ "type": "Feature", "properties": { "difference_1990_2000": 1217.0, "difference_1990_2010": 0.0, "difference_1990_2020": 1150.0 }, "geometry": { "type": "Polygon", "coordinates": [ [ [ -102.295381801554655, 20.001887645235296 ], [ -102.290809327846375, 20.0018876452353 ], [ -102.290809327846375, 19.997751331241211 ], [ -102.295381801554655, 19.997751331241208 ], [ -102.295381801554655, 20.001887645235296 ] ] ] } },
{ "type": "Feature", "properties": { "difference_1990_2000": 105.0, "difference_1990_2010": 0.0, "difference_1990_2020": -2.0 }, "geometry": { "type": "Polygon", "coordinates": [ [ [ -102.295381801554655, 19.977071371464604 ], [ -102.290809327846375, 19.977071371464618 ], [ -102.290809327846375, 19.972935701339807 ], [ -102.295381801554655, 19.9729357013398 ], [ -102.295381801554655, 19.977071371464604 ] ] ] } },
{ "type": "Feature", "properties": { "difference_1990_2000": -164.0, "difference_1990_2010": 0.0, "difference_1990_2020": -235.0 }, "geometry": { "type": "Polygon", "coordinates": [ [ [ -102.295381801554655, 19.985343033455511 ], [ -102.290809327846375, 19.985343033455528 ], [ -102.290809327846375, 19.981207148826616 ], [ -102.295381801554655, 19.981207148826577 ], [ -102.295381801554655, 19.985343033455511 ] ] ] } },
{ "type": "Feature", "properties": { "difference_1990_2000": 0.0, "difference_1990_2010": 0.0, "difference_1990_2020": 1.0 }, "geometry": { "type": "Polygon", "coordinates": [ [ [ -102.295381801554655, 19.968800138422413 ], [ -102.290809327846375, 19.968800138422456 ], [ -102.290809327846375, 19.964664682682816 ], [ -102.295381801554655, 19.964664682682823 ], [ -102.295381801554655, 19.968800138422413 ] ] ] } },
{ "type": "Feature", "properties": { "difference_1990_2000": 186.0, "difference_1990_2010": 0.0, "difference_1990_2020": 148.0 }, "geometry": { "type": "Polygon", "coordinates": [ [ [ -102.295381801554655, 19.9729357013398 ], [ -102.290809327846375, 19.972935701339807 ], [ -102.290809327846375, 19.968800138422456 ], [ -102.295381801554655, 19.968800138422413 ], [ -102.295381801554655, 19.9729357013398 ] ] ] } },
{ "type": "Feature", "properties": { "difference_1990_2000": 155.0, "difference_1990_2010": 0.0, "difference_1990_2020": -1346.0 }, "geometry": { "type": "Polygon", "coordinates": [ [ [ -102.295381801554655, 19.997751331241208 ], [ -102.290809327846375, 19.997751331241211 ], [ -102.290809327846375, 19.993615124633067 ], [ -102.295381801554655, 19.993615124633035 ], [ -102.295381801554655, 19.997751331241208 ] ] ] } },
{ "type": "Feature", "properties": { "difference_1990_2000": -198.0, "difference_1990_2010": 0.0, "difference_1990_2020": -243.0 }, "geometry": { "type": "Polygon", "coordinates": [ [ [ -102.295381801554655, 19.981207148826577 ], [ -102.290809327846375, 19.981207148826616 ], [ -102.290809327846375, 19.977071371464618 ], [ -102.295381801554655, 19.977071371464604 ], [ -102.295381801554655, 19.981207148826577 ] ] ] } },
{ "type": "Feature", "properties": { "difference_1990_2000": 361.0, "difference_1990_2010": 0.0, "difference_1990_2020": 1364.0 }, "geometry": { "type": "Polygon", "coordinates": [ [ [ -102.295381801554655, 20.010160595500366 ], [ -102.290809327846375, 20.010160595500381 ], [ -102.290809327846375, 20.006024066645107 ], [ -102.295381801554655, 20.006024066645104 ], [ -102.295381801554655, 20.010160595500366 ] ] ] } },
{ "type": "Feature", "properties": { "difference_1990_2000": 647.0, "difference_1990_2010": 0.0, "difference_1990_2020": 1033.0 }, "geometry": { "type": "Polygon", "coordinates": [ [ [ -102.295381801554655, 20.006024066645104 ], [ -102.290809327846375, 20.006024066645107 ], [ -102.290809327846375, 20.0018876452353 ], [ -102.295381801554655, 20.001887645235296 ], [ -102.295381801554655, 20.006024066645104 ] ] ] } },
{ "type": "Feature", "properties": { "difference_1990_2000": -39.0, "difference_1990_2010": 0.0, "difference_1990_2020": -57.0 }, "geometry": { "type": "Polygon", "coordinates": [ [ [ -102.295381801554655, 19.989479025381041 ], [ -102.290809327846375, 19.989479025381044 ], [ -102.290809327846375, 19.985343033455528 ], [ -102.295381801554655, 19.985343033455511 ], [ -102.295381801554655, 19.989479025381041 ] ] ] } },
{ "type": "Feature", "properties": { "difference_1990_2000": 412.0, "difference_1990_2010": 0.0, "difference_1990_2020": 605.0 }, "geometry": { "type": "Polygon", "coordinates": [ [ [ -102.286236854138096, 20.014297231830927 ], [ -102.281664380429817, 20.014297231830927 ], [ -102.281664380429817, 20.010160595500366 ], [ -102.286236854138096, 20.01016059550037 ], [ -102.286236854138096, 20.014297231830927 ] ] ] } },
{ "type": "Feature", "properties": { "difference_1990_2000": -273.0, "difference_1990_2010": 0.0, "difference_1990_2020": -534.0 }, "geometry": { "type": "Polygon", "coordinates": [ [ [ -102.286236854138096, 19.993615124633035 ], [ -102.281664380429817, 19.993615124633081 ], [ -102.281664380429817, 19.989479025381058 ], [ -102.286236854138096, 19.989479025381065 ], [ -102.286236854138096, 19.993615124633035 ] ] ] } },
{ "type": "Feature", "properties": { "difference_1990_2000": 257.0, "difference_1990_2010": 0.0, "difference_1990_2020": 395.0 }, "geometry": { "type": "Polygon", "coordinates": [ [ [ -102.286236854138096, 20.001887645235296 ], [ -102.281664380429817, 20.001887645235296 ], [ -102.281664380429817, 19.997751331241211 ], [ -102.286236854138096, 19.997751331241211 ], [ -102.286236854138096, 20.001887645235296 ] ] ] } },
{ "type": "Feature", "properties": { "difference_1990_2000": -270.0, "difference_1990_2010": 0.0, "difference_1990_2020": -936.0 }, "geometry": { "type": "Polygon", "coordinates": [ [ [ -102.286236854138096, 19.977071371464618 ], [ -102.281664380429817, 19.977071371464621 ], [ -102.281664380429817, 19.972935701339804 ], [ -102.286236854138096, 19.972935701339807 ], [ -102.286236854138096, 19.977071371464618 ] ] ] } },
{ "type": "Feature", "properties": { "difference_1990_2000": 258.0, "difference_1990_2010": 0.0, "difference_1990_2020": -979.0 }, "geometry": { "type": "Polygon", "coordinates": [ [ [ -102.286236854138096, 19.985343033455511 ], [ -102.281664380429817, 19.985343033455507 ], [ -102.281664380429817, 19.981207148826577 ], [ -102.286236854138096, 19.981207148826584 ], [ -102.286236854138096, 19.985343033455511 ] ] ] } },
{ "type": "Feature", "properties": { "difference_1990_2000": 260.0, "difference_1990_2010": 0.0, "difference_1990_2020": 421.0 }, "geometry": { "type": "Polygon", "coordinates": [ [ [ -102.286236854138096, 19.96880013842242 ], [ -102.281664380429817, 19.968800138422448 ], [ -102.281664380429817, 19.964664682682816 ], [ -102.286236854138096, 19.96466468268282 ], [ -102.286236854138096, 19.96880013842242 ] ] ] } },
{ "type": "Feature", "properties": { "difference_1990_2000": 4.0, "difference_1990_2010": 0.0, "difference_1990_2020": 12.0 }, "geometry": { "type": "Polygon", "coordinates": [ [ [ -102.286236854138096, 20.018433975666518 ], [ -102.281664380429817, 20.018433975666539 ], [ -102.281664380429817, 20.014297231830927 ], [ -102.286236854138096, 20.014297231830927 ], [ -102.286236854138096, 20.018433975666518 ] ] ] } },
{ "type": "Feature", "properties": { "difference_1990_2000": 83.0, "difference_1990_2010": 0.0, "difference_1990_2020": 53.0 }, "geometry": { "type": "Polygon", "coordinates": [ [ [ -102.286236854138096, 19.972935701339807 ], [ -102.281664380429817, 19.972935701339804 ], [ -102.281664380429817, 19.968800138422448 ], [ -102.286236854138096, 19.96880013842242 ], [ -102.286236854138096, 19.972935701339807 ] ] ] } },
{ "type": "Feature", "properties": { "difference_1990_2000": 345.0, "difference_1990_2010": 0.0, "difference_1990_2020": 561.0 }, "geometry": { "type": "Polygon", "coordinates": [ [ [ -102.286236854138096, 19.997751331241211 ], [ -102.281664380429817, 19.997751331241211 ], [ -102.281664380429817, 19.993615124633081 ], [ -102.286236854138096, 19.993615124633035 ], [ -102.286236854138096, 19.997751331241211 ] ] ] } },
{ "type": "Feature", "properties": { "difference_1990_2000": -271.0, "difference_1990_2010": 0.0, "difference_1990_2020": -1278.0 }, "geometry": { "type": "Polygon", "coordinates": [ [ [ -102.286236854138096, 19.981207148826584 ], [ -102.281664380429817, 19.981207148826577 ], [ -102.281664380429817, 19.977071371464621 ], [ -102.286236854138096, 19.977071371464618 ], [ -102.286236854138096, 19.981207148826584 ] ] ] } },
{ "type": "Feature", "properties": { "difference_1990_2000": 13.0, "difference_1990_2010": 0.0, "difference_1990_2020": 46.0 }, "geometry": { "type": "Polygon", "coordinates": [ [ [ -102.286236854138096, 20.01016059550037 ], [ -102.281664380429817, 20.010160595500366 ], [ -102.281664380429817, 20.006024066645104 ], [ -102.286236854138096, 20.006024066645107 ], [ -102.286236854138096, 20.01016059550037 ] ] ] } },
{ "type": "Feature", "properties": { "difference_1990_2000": 250.0, "difference_1990_2010": 0.0, "difference_1990_2020": 191.0 }, "geometry": { "type": "Polygon", "coordinates": [ [ [ -102.286236854138096, 20.006024066645107 ], [ -102.281664380429817, 20.006024066645104 ], [ -102.281664380429817, 20.001887645235296 ], [ -102.286236854138096, 20.001887645235296 ], [ -102.286236854138096, 20.006024066645107 ] ] ] } },
{ "type": "Feature", "properties": { "difference_1990_2000": -163.0, "difference_1990_2010": 0.0, "difference_1990_2020": -847.0 }, "geometry": { "type": "Polygon", "coordinates": [ [ [ -102.286236854138096, 19.989479025381065 ], [ -102.281664380429817, 19.989479025381058 ], [ -102.281664380429817, 19.985343033455507 ], [ -102.286236854138096, 19.985343033455511 ], [ -102.286236854138096, 19.989479025381065 ] ] ] } },
{ "type": "Feature", "properties": { "difference_1990_2000": -3.0, "difference_1990_2010": 0.0, "difference_1990_2020": 697.0 }, "geometry": { "type": "Polygon", "coordinates": [ [ [ -102.277091906721537, 19.993615124633081 ], [ -102.272519433013258, 19.993615124633035 ], [ -102.272519433013258, 19.989479025381062 ], [ -102.277091906721537, 19.989479025381041 ], [ -102.277091906721537, 19.993615124633081 ] ] ] } },
{ "type": "Feature", "properties": { "difference_1990_2000": 900.0, "difference_1990_2010": 0.0, "difference_1990_2020": 1338.0 }, "geometry": { "type": "Polygon", "coordinates": [ [ [ -102.277091906721537, 20.001887645235293 ], [ -102.272519433013258, 20.001887645235296 ], [ -102.272519433013258, 19.997751331241233 ], [ -102.277091906721537, 19.997751331241219 ], [ -102.277091906721537, 20.001887645235293 ] ] ] } },
{ "type": "Feature", "properties": { "difference_1990_2000": 73.0, "difference_1990_2010": 0.0, "difference_1990_2020": -198.0 }, "geometry": { "type": "Polygon", "coordinates": [ [ [ -102.277091906721537, 19.977071371464604 ], [ -102.272519433013258, 19.977071371464604 ], [ -102.272519433013258, 19.972935701339811 ], [ -102.277091906721537, 19.972935701339843 ], [ -102.277091906721537, 19.977071371464604 ] ] ] } },
{ "type": "Feature", "properties": { "difference_1990_2000": 71.0, "difference_1990_2010": 0.0, "difference_1990_2020": 121.0 }, "geometry": { "type": "Polygon", "coordinates": [ [ [ -102.277091906721537, 19.985343033455511 ], [ -102.272519433013258, 19.985343033455511 ], [ -102.272519433013258, 19.981207148826584 ], [ -102.277091906721537, 19.981207148826577 ], [ -102.277091906721537, 19.985343033455511 ] ] ] } },
{ "type": "Feature", "properties": { "difference_1990_2000": 188.0, "difference_1990_2010": 0.0, "difference_1990_2020": 241.0 }, "geometry": { "type": "Polygon", "coordinates": [ [ [ -102.277091906721537, 19.972935701339843 ], [ -102.272519433013258, 19.972935701339811 ], [ -102.272519433013258, 19.968800138422417 ], [ -102.277091906721537, 19.968800138422452 ], [ -102.277091906721537, 19.972935701339843 ] ] ] } },
{ "type": "Feature", "properties": { "difference_1990_2000": 57.0, "difference_1990_2010": 0.0, "difference_1990_2020": 463.0 }, "geometry": { "type": "Polygon", "coordinates": [ [ [ -102.277091906721537, 19.997751331241219 ], [ -102.272519433013258, 19.997751331241233 ], [ -102.272519433013258, 19.993615124633035 ], [ -102.277091906721537, 19.993615124633081 ], [ -102.277091906721537, 19.997751331241219 ] ] ] } },
{ "type": "Feature", "properties": { "difference_1990_2000": 584.0, "difference_1990_2010": 0.0, "difference_1990_2020": 464.0 }, "geometry": { "type": "Polygon", "coordinates": [ [ [ -102.277091906721537, 19.981207148826577 ], [ -102.272519433013258, 19.981207148826584 ], [ -102.272519433013258, 19.977071371464604 ], [ -102.277091906721537, 19.977071371464604 ], [ -102.277091906721537, 19.981207148826577 ] ] ] } },
{ "type": "Feature", "properties": { "difference_1990_2000": 214.0, "difference_1990_2010": 0.0, "difference_1990_2020": 760.0 }, "geometry": { "type": "Polygon", "coordinates": [ [ [ -102.277091906721537, 20.006024066645104 ], [ -102.272519433013258, 20.006024066645082 ], [ -102.272519433013258, 20.001887645235296 ], [ -102.277091906721537, 20.001887645235293 ], [ -102.277091906721537, 20.006024066645104 ] ] ] } },
{ "type": "Feature", "properties": { "difference_1990_2000": -55.0, "difference_1990_2010": 0.0, "difference_1990_2020": 360.0 }, "geometry": { "type": "Polygon", "coordinates": [ [ [ -102.277091906721537, 20.010160595500381 ], [ -102.272519433013258, 20.010160595500338 ], [ -102.272519433013258, 20.006024066645082 ], [ -102.277091906721537, 20.006024066645104 ], [ -102.277091906721537, 20.010160595500381 ] ] ] } },
{ "type": "Feature", "properties": { "difference_1990_2000": 50.0, "difference_1990_2010": 0.0, "difference_1990_2020": 307.0 }, "geometry": { "type": "Polygon", "coordinates": [ [ [ -102.277091906721537, 19.989479025381041 ], [ -102.272519433013258, 19.989479025381062 ], [ -102.272519433013258, 19.985343033455511 ], [ -102.277091906721537, 19.985343033455511 ], [ -102.277091906721537, 19.989479025381041 ] ] ] } },
{ "type": "Feature", "properties": { "difference_1990_2000": 24.0, "difference_1990_2010": 0.0, "difference_1990_2020": 1984.0 }, "geometry": { "type": "Polygon", "coordinates": [ [ [ -102.267946959304993, 19.993615124633035 ], [ -102.263374485596714, 19.993615124633063 ], [ -102.263374485596714, 19.989479025381058 ], [ -102.267946959304993, 19.989479025381062 ], [ -102.267946959304993, 19.993615124633035 ] ] ] } },
{ "type": "Feature", "properties": { "difference_1990_2000": 0.0, "difference_1990_2010": 0.0, "difference_1990_2020": 16.0 }, "geometry": { "type": "Polygon", "coordinates": [ [ [ -102.267946959304993, 20.001887645235296 ], [ -102.263374485596714, 20.001887645235339 ], [ -102.263374485596714, 19.997751331241208 ], [ -102.267946959304993, 19.997751331241215 ], [ -102.267946959304993, 20.001887645235296 ] ] ] } },
{ "type": "Feature", "properties": { "difference_1990_2000": 16.0, "difference_1990_2010": 0.0, "difference_1990_2020": 33.0 }, "geometry": { "type": "Polygon", "coordinates": [ [ [ -102.267946959304993, 19.977071371464621 ], [ -102.263374485596714, 19.977071371464618 ], [ -102.263374485596714, 19.972935701339807 ], [ -102.267946959304993, 19.972935701339811 ], [ -102.267946959304993, 19.977071371464621 ] ] ] } },
{ "type": "Feature", "properties": { "difference_1990_2000": 3.0, "difference_1990_2010": 0.0, "difference_1990_2020": 248.0 }, "geometry": { "type": "Polygon", "coordinates": [ [ [ -102.267946959304993, 19.997751331241215 ], [ -102.263374485596714, 19.997751331241208 ], [ -102.263374485596714, 19.993615124633063 ], [ -102.267946959304993, 19.993615124633035 ], [ -102.267946959304993, 19.997751331241215 ] ] ] } },
{ "type": "Feature", "properties": { "difference_1990_2000": 3.0, "difference_1990_2010": 0.0, "difference_1990_2020": 6.0 }, "geometry": { "type": "Polygon", "coordinates": [ [ [ -102.267946959304993, 19.981207148826581 ], [ -102.263374485596714, 19.981207148826581 ], [ -102.263374485596714, 19.977071371464618 ], [ -102.267946959304993, 19.977071371464621 ], [ -102.267946959304993, 19.981207148826581 ] ] ] } },
{ "type": "Feature", "properties": { "difference_1990_2000": 2.0, "difference_1990_2010": 0.0, "difference_1990_2020": 137.0 }, "geometry": { "type": "Polygon", "coordinates": [ [ [ -102.267946959304993, 19.989479025381062 ], [ -102.263374485596714, 19.989479025381058 ], [ -102.263374485596714, 19.985343033455511 ], [ -102.267946959304993, 19.985343033455479 ], [ -102.267946959304993, 19.989479025381062 ] ] ] } },
{ "type": "Feature", "properties": { "difference_1990_2000": 0.0, "difference_1990_2010": 0.0, "difference_1990_2020": 1498.0 }, "geometry": { "type": "Polygon", "coordinates": [ [ [ -102.258802011888434, 19.993615124633063 ], [ -102.254229538180155, 19.993615124633031 ], [ -102.254229538180155, 19.989479025381012 ], [ -102.258802011888434, 19.989479025381009 ], [ -102.258802011888434, 19.993615124633063 ] ] ] } },
{ "type": "Feature", "properties": { "difference_1990_2000": -115.0, "difference_1990_2010": 0.0, "difference_1990_2020": 10.0 }, "geometry": { "type": "Polygon", "coordinates": [ [ [ -102.258802011888434, 20.001887645235296 ], [ -102.254229538180155, 20.001887645235296 ], [ -102.254229538180155, 19.997751331241233 ], [ -102.258802011888434, 19.997751331241219 ], [ -102.258802011888434, 20.001887645235296 ] ] ] } },
{ "type": "Feature", "properties": { "difference_1990_2000": 0.0, "difference_1990_2010": 0.0, "difference_1990_2020": 1909.0 }, "geometry": { "type": "Polygon", "coordinates": [ [ [ -102.258802011888434, 19.985343033455507 ], [ -102.254229538180155, 19.985343033455511 ], [ -102.254229538180155, 19.981207148826581 ], [ -102.258802011888434, 19.981207148826584 ], [ -102.258802011888434, 19.985343033455507 ] ] ] } },
{ "type": "Feature", "properties": { "difference_1990_2000": -26.0, "difference_1990_2010": 0.0, "difference_1990_2020": 414.0 }, "geometry": { "type": "Polygon", "coordinates": [ [ [ -102.258802011888434, 19.997751331241219 ], [ -102.254229538180155, 19.997751331241233 ], [ -102.254229538180155, 19.993615124633031 ], [ -102.258802011888434, 19.993615124633063 ], [ -102.258802011888434, 19.997751331241219 ] ] ] } },
{ "type": "Feature", "properties": { "difference_1990_2000": 0.0, "difference_1990_2010": 0.0, "difference_1990_2020": 396.0 }, "geometry": { "type": "Polygon", "coordinates": [ [ [ -102.258802011888434, 19.989479025381009 ], [ -102.254229538180155, 19.989479025381012 ], [ -102.254229538180155, 19.985343033455511 ], [ -102.258802011888434, 19.985343033455507 ], [ -102.258802011888434, 19.989479025381009 ] ] ] } },
{ "type": "Feature", "properties": { "difference_1990_2000": 0.0, "difference_1990_2010": 0.0, "difference_1990_2020": 1011.0 }, "geometry": { "type": "Polygon", "coordinates": [ [ [ -102.249657064471904, 19.993615124633067 ], [ -102.245084590763625, 19.993615124633063 ], [ -102.245084590763625, 19.989479025381041 ], [ -102.249657064471904, 19.989479025381041 ], [ -102.249657064471904, 19.993615124633067 ] ] ] } },
{ "type": "Feature", "properties": { "difference_1990_2000": 0.0, "difference_1990_2010": 0.0, "difference_1990_2020": 2435.0 }, "geometry": { "type": "Polygon", "coordinates": [ [ [ -102.249657064471904, 19.985343033455511 ], [ -102.245084590763625, 19.985343033455479 ], [ -102.245084590763625, 19.981207148826581 ], [ -102.249657064471904, 19.981207148826581 ], [ -102.249657064471904, 19.985343033455511 ] ] ] } },
{ "type": "Feature", "properties": { "difference_1990_2000": 0.0, "difference_1990_2010": 0.0, "difference_1990_2020": 289.0 }, "geometry": { "type": "Polygon", "coordinates": [ [ [ -102.249657064471904, 19.989479025381041 ], [ -102.245084590763625, 19.989479025381041 ], [ -102.245084590763625, 19.985343033455479 ], [ -102.249657064471904, 19.985343033455511 ], [ -102.249657064471904, 19.989479025381041 ] ] ] } }
]
}
