{
"type": "FeatureCollection",
"name": "M23.02",
"crs": { "type": "name", "properties": { "name": "urn:ogc:def:crs:OGC:1.3:CRS84" } },
"features": [
{ "type": "Feature", "properties": { "difference_1990_2000": 60.0, "difference_1990_2010": 194.0, "difference_1990_2020": 332.0 }, "geometry": { "type": "Polygon", "coordinates": [ [ [ -88.340192043895755, 18.52362810541651 ], [ -88.33561957018749, 18.523628105416513 ], [ -88.33561957018749, 18.519528475622558 ], [ -88.340192043895755, 18.519528475622607 ], [ -88.340192043895755, 18.52362810541651 ] ] ] } },
{ "type": "Feature", "properties": { "difference_1990_2000": 362.0, "difference_1990_2010": 704.0, "difference_1990_2020": 740.0 }, "geometry": { "type": "Polygon", "coordinates": [ [ [ -88.340192043895755, 18.519528475622607 ], [ -88.33561957018749, 18.519528475622558 ], [ -88.33561957018749, 18.51542894290548 ], [ -88.340192043895755, 18.51542894290548 ], [ -88.340192043895755, 18.519528475622607 ] ] ] } },
{ "type": "Feature", "properties": { "difference_1990_2000": 234.0, "difference_1990_2010": 615.0, "difference_1990_2020": 541.0 }, "geometry": { "type": "Polygon", "coordinates": [ [ [ -88.340192043895755, 18.51542894290548 ], [ -88.33561957018749, 18.51542894290548 ], [ -88.33561957018749, 18.51132950723736 ], [ -88.340192043895755, 18.511329507237392 ], [ -88.340192043895755, 18.51542894290548 ] ] ] } },
{ "type": "Feature", "properties": { "difference_1990_2000": 23.0, "difference_1990_2010": 35.0, "difference_1990_2020": 34.0 }, "geometry": { "type": "Polygon", "coordinates": [ [ [ -88.331047096479196, 18.527727832314874 ], [ -88.326474622770917, 18.527727832314874 ], [ -88.326474622770917, 18.523628105416513 ], [ -88.331047096479196, 18.52362810541651 ], [ -88.331047096479196, 18.527727832314874 ] ] ] } },
{ "type": "Feature", "properties": { "difference_1990_2000": 312.0, "difference_1990_2010": 280.0, "difference_1990_2020": 248.0 }, "geometry": { "type": "Polygon", "coordinates": [ [ [ -88.331047096479196, 18.511329507237349 ], [ -88.326474622770917, 18.51132950723736 ], [ -88.326474622770917, 18.50723016859061 ], [ -88.331047096479196, 18.50723016859061 ], [ -88.331047096479196, 18.511329507237349 ] ] ] } },
{ "type": "Feature", "properties": { "difference_1990_2000": 12.0, "difference_1990_2010": 8.0, "difference_1990_2020": 26.0 }, "geometry": { "type": "Polygon", "coordinates": [ [ [ -88.331047096479196, 18.53182765634546 ], [ -88.326474622770917, 18.531827656345452 ], [ -88.326474622770917, 18.527727832314909 ], [ -88.331047096479196, 18.527727832314909 ], [ -88.331047096479196, 18.53182765634546 ] ] ] } },
{ "type": "Feature", "properties": { "difference_1990_2000": 639.0, "difference_1990_2010": 1012.0, "difference_1990_2020": 953.0 }, "geometry": { "type": "Polygon", "coordinates": [ [ [ -88.331047096479196, 18.52362810541651 ], [ -88.326474622770917, 18.523628105416513 ], [ -88.326474622770917, 18.51952847562259 ], [ -88.331047096479196, 18.519528475622586 ], [ -88.331047096479196, 18.52362810541651 ] ] ] } },
{ "type": "Feature", "properties": { "difference_1990_2000": -25.0, "difference_1990_2010": 45.0, "difference_1990_2020": -42.0 }, "geometry": { "type": "Polygon", "coordinates": [ [ [ -88.331047096479196, 18.519528475622586 ], [ -88.326474622770917, 18.51952847562259 ], [ -88.326474622770917, 18.515428942905476 ], [ -88.331047096479196, 18.515428942905455 ], [ -88.331047096479196, 18.519528475622586 ] ] ] } },
{ "type": "Feature", "properties": { "difference_1990_2000": 205.0, "difference_1990_2010": 280.0, "difference_1990_2020": 146.0 }, "geometry": { "type": "Polygon", "coordinates": [ [ [ -88.331047096479196, 18.515428942905455 ], [ -88.326474622770917, 18.515428942905476 ], [ -88.326474622770917, 18.51132950723736 ], [ -88.331047096479196, 18.511329507237349 ], [ -88.331047096479196, 18.515428942905455 ] ] ] } },
{ "type": "Feature", "properties": { "difference_1990_2000": 4.0, "difference_1990_2010": 6.0, "difference_1990_2020": 32.0 }, "geometry": { "type": "Polygon", "coordinates": [ [ [ -88.321902149062637, 18.499031782250313 ], [ -88.317329675354358, 18.499031782250317 ], [ -88.317329675354358, 18.494932734501376 ], [ -88.321902149062637, 18.494932734501397 ], [ -88.321902149062637, 18.499031782250313 ] ] ] } },
{ "type": "Feature", "properties": { "difference_1990_2000": -5.0, "difference_1990_2010": -22.0, "difference_1990_2020": -33.0 }, "geometry": { "type": "Polygon", "coordinates": [ [ [ -88.321902149062637, 18.507230168590581 ], [ -88.317329675354358, 18.507230168590578 ], [ -88.317329675354358, 18.503130926937491 ], [ -88.321902149062637, 18.503130926937494 ], [ -88.321902149062637, 18.507230168590581 ] ] ] } },
{ "type": "Feature", "properties": { "difference_1990_2000": 601.0, "difference_1990_2010": 575.0, "difference_1990_2020": 320.0 }, "geometry": { "type": "Polygon", "coordinates": [ [ [ -88.321902149062637, 18.527727832314874 ], [ -88.317329675354358, 18.527727832314877 ], [ -88.317329675354358, 18.523628105416513 ], [ -88.321902149062637, 18.523628105416492 ], [ -88.321902149062637, 18.527727832314874 ] ] ] } },
{ "type": "Feature", "properties": { "difference_1990_2000": 178.0, "difference_1990_2010": 54.0, "difference_1990_2020": -153.0 }, "geometry": { "type": "Polygon", "coordinates": [ [ [ -88.321902149062637, 18.51132950723736 ], [ -88.317329675354358, 18.51132950723736 ], [ -88.317329675354358, 18.50723016859061 ], [ -88.321902149062637, 18.50723016859061 ], [ -88.321902149062637, 18.51132950723736 ] ] ] } },
{ "type": "Feature", "properties": { "difference_1990_2000": 50.0, "difference_1990_2010": 63.0, "difference_1990_2020": 91.0 }, "geometry": { "type": "Polygon", "coordinates": [ [ [ -88.321902149062637, 18.503130926937494 ], [ -88.317329675354358, 18.503130926937491 ], [ -88.317329675354358, 18.499031782250317 ], [ -88.321902149062637, 18.499031782250313 ], [ -88.321902149062637, 18.503130926937494 ] ] ] } },
{ "type": "Feature", "properties": { "difference_1990_2000": 19.0, "difference_1990_2010": 142.0, "difference_1990_2020": 127.0 }, "geometry": { "type": "Polygon", "coordinates": [ [ [ -88.321902149062637, 18.540027595914193 ], [ -88.317329675354358, 18.540027595914179 ], [ -88.317329675354358, 18.53592757753599 ], [ -88.321902149062637, 18.535927577535993 ], [ -88.321902149062637, 18.540027595914193 ] ] ] } },
{ "type": "Feature", "properties": { "difference_1990_2000": 164.0, "difference_1990_2010": 807.0, "difference_1990_2020": 779.0 }, "geometry": { "type": "Polygon", "coordinates": [ [ [ -88.321902149062637, 18.535927577535993 ], [ -88.317329675354358, 18.53592757753599 ], [ -88.317329675354358, 18.531827656345452 ], [ -88.321902149062637, 18.531827656345452 ], [ -88.321902149062637, 18.535927577535993 ] ] ] } },
{ "type": "Feature", "properties": { "difference_1990_2000": 625.0, "difference_1990_2010": 847.0, "difference_1990_2020": 688.0 }, "geometry": { "type": "Polygon", "coordinates": [ [ [ -88.321902149062637, 18.531827656345452 ], [ -88.317329675354358, 18.531827656345452 ], [ -88.317329675354358, 18.527727832314909 ], [ -88.321902149062637, 18.527727832314909 ], [ -88.321902149062637, 18.531827656345452 ] ] ] } },
{ "type": "Feature", "properties": { "difference_1990_2000": 731.0, "difference_1990_2010": 1137.0, "difference_1990_2020": 1105.0 }, "geometry": { "type": "Polygon", "coordinates": [ [ [ -88.321902149062637, 18.523628105416492 ], [ -88.317329675354358, 18.523628105416513 ], [ -88.317329675354358, 18.519528475622582 ], [ -88.321902149062637, 18.519528475622561 ], [ -88.321902149062637, 18.523628105416492 ] ] ] } },
{ "type": "Feature", "properties": { "difference_1990_2000": -22.0, "difference_1990_2010": -37.0, "difference_1990_2020": -184.0 }, "geometry": { "type": "Polygon", "coordinates": [ [ [ -88.321902149062637, 18.519528475622561 ], [ -88.317329675354358, 18.519528475622582 ], [ -88.317329675354358, 18.515428942905476 ], [ -88.321902149062637, 18.515428942905476 ], [ -88.321902149062637, 18.519528475622561 ] ] ] } },
{ "type": "Feature", "properties": { "difference_1990_2000": 315.0, "difference_1990_2010": 285.0, "difference_1990_2020": 13.0 }, "geometry": { "type": "Polygon", "coordinates": [ [ [ -88.321902149062637, 18.515428942905476 ], [ -88.317329675354358, 18.515428942905476 ], [ -88.317329675354358, 18.51132950723736 ], [ -88.321902149062637, 18.51132950723736 ], [ -88.321902149062637, 18.515428942905476 ] ] ] } },
{ "type": "Feature", "properties": { "difference_1990_2000": -37.0, "difference_1990_2010": -63.0, "difference_1990_2020": -144.0 }, "geometry": { "type": "Polygon", "coordinates": [ [ [ -88.312757201646093, 18.499031782250313 ], [ -88.308184727937842, 18.499031782250309 ], [ -88.308184727937842, 18.494932734501376 ], [ -88.312757201646093, 18.494932734501383 ], [ -88.312757201646093, 18.499031782250313 ] ] ] } },
{ "type": "Feature", "properties": { "difference_1990_2000": -42.0, "difference_1990_2010": -147.0, "difference_1990_2020": -221.0 }, "geometry": { "type": "Polygon", "coordinates": [ [ [ -88.312757201646093, 18.507230168590585 ], [ -88.308184727937842, 18.507230168590613 ], [ -88.308184727937842, 18.503130926937491 ], [ -88.312757201646093, 18.503130926937498 ], [ -88.312757201646093, 18.507230168590585 ] ] ] } },
{ "type": "Feature", "properties": { "difference_1990_2000": 745.0, "difference_1990_2010": 1004.0, "difference_1990_2020": 1006.0 }, "geometry": { "type": "Polygon", "coordinates": [ [ [ -88.312757201646093, 18.52772783231487 ], [ -88.308184727937842, 18.527727832314856 ], [ -88.308184727937842, 18.52362810541651 ], [ -88.312757201646093, 18.523628105416513 ], [ -88.312757201646093, 18.52772783231487 ] ] ] } },
{ "type": "Feature", "properties": { "difference_1990_2000": -4.0, "difference_1990_2010": -10.0, "difference_1990_2020": -15.0 }, "geometry": { "type": "Polygon", "coordinates": [ [ [ -88.312757201646093, 18.494932734501383 ], [ -88.308184727937842, 18.494932734501376 ], [ -88.308184727937842, 18.490833783662968 ], [ -88.312757201646093, 18.490833783662964 ], [ -88.312757201646093, 18.494932734501383 ] ] ] } },
{ "type": "Feature", "properties": { "difference_1990_2000": 0.0, "difference_1990_2010": 17.0, "difference_1990_2020": 1179.0 }, "geometry": { "type": "Polygon", "coordinates": [ [ [ -88.312757201646093, 18.548227924344516 ], [ -88.308184727937842, 18.548227924344516 ], [ -88.308184727937842, 18.544127711507784 ], [ -88.312757201646093, 18.544127711507784 ], [ -88.312757201646093, 18.548227924344516 ] ] ] } },
{ "type": "Feature", "properties": { "difference_1990_2000": -123.0, "difference_1990_2010": -316.0, "difference_1990_2020": -482.0 }, "geometry": { "type": "Polygon", "coordinates": [ [ [ -88.312757201646093, 18.511329507237363 ], [ -88.308184727937842, 18.51132950723736 ], [ -88.308184727937842, 18.507230168590613 ], [ -88.312757201646093, 18.507230168590613 ], [ -88.312757201646093, 18.511329507237363 ] ] ] } },
{ "type": "Feature", "properties": { "difference_1990_2000": -65.0, "difference_1990_2010": -108.0, "difference_1990_2020": -168.0 }, "geometry": { "type": "Polygon", "coordinates": [ [ [ -88.312757201646093, 18.503130926937498 ], [ -88.308184727937842, 18.503130926937491 ], [ -88.308184727937842, 18.499031782250309 ], [ -88.312757201646093, 18.499031782250313 ], [ -88.312757201646093, 18.503130926937498 ] ] ] } },
{ "type": "Feature", "properties": { "difference_1990_2000": 0.0, "difference_1990_2010": 7.0, "difference_1990_2020": 563.0 }, "geometry": { "type": "Polygon", "coordinates": [ [ [ -88.312757201646093, 18.540027595914175 ], [ -88.308184727937842, 18.540027595914175 ], [ -88.308184727937842, 18.53592757753599 ], [ -88.312757201646093, 18.535927577535993 ], [ -88.312757201646093, 18.540027595914175 ] ] ] } },
{ "type": "Feature", "properties": { "difference_1990_2000": 153.0, "difference_1990_2010": 387.0, "difference_1990_2020": 661.0 }, "geometry": { "type": "Polygon", "coordinates": [ [ [ -88.312757201646093, 18.535927577535993 ], [ -88.308184727937842, 18.53592757753599 ], [ -88.308184727937842, 18.531827656345452 ], [ -88.312757201646093, 18.531827656345456 ], [ -88.312757201646093, 18.535927577535993 ] ] ] } },
{ "type": "Feature", "properties": { "difference_1990_2000": 806.0, "difference_1990_2010": 1186.0, "difference_1990_2020": 1103.0 }, "geometry": { "type": "Polygon", "coordinates": [ [ [ -88.312757201646093, 18.531827656345456 ], [ -88.308184727937842, 18.531827656345452 ], [ -88.308184727937842, 18.527727832314874 ], [ -88.312757201646093, 18.52772783231487 ], [ -88.312757201646093, 18.531827656345456 ] ] ] } },
{ "type": "Feature", "properties": { "difference_1990_2000": -59.0, "difference_1990_2010": -239.0, "difference_1990_2020": -405.0 }, "geometry": { "type": "Polygon", "coordinates": [ [ [ -88.312757201646093, 18.519528475622558 ], [ -88.308184727937842, 18.51952847562259 ], [ -88.308184727937842, 18.515428942905459 ], [ -88.312757201646093, 18.515428942905476 ], [ -88.312757201646093, 18.519528475622558 ] ] ] } },
{ "type": "Feature", "properties": { "difference_1990_2000": -292.0, "difference_1990_2010": -278.0, "difference_1990_2020": -221.0 }, "geometry": { "type": "Polygon", "coordinates": [ [ [ -88.312757201646093, 18.523628105416513 ], [ -88.308184727937842, 18.52362810541651 ], [ -88.308184727937842, 18.51952847562259 ], [ -88.312757201646093, 18.519528475622558 ], [ -88.312757201646093, 18.523628105416513 ] ] ] } },
{ "type": "Feature", "properties": { "difference_1990_2000": -222.0, "difference_1990_2010": -501.0, "difference_1990_2020": -797.0 }, "geometry": { "type": "Polygon", "coordinates": [ [ [ -88.312757201646093, 18.515428942905476 ], [ -88.308184727937842, 18.515428942905459 ], [ -88.308184727937842, 18.51132950723736 ], [ -88.312757201646093, 18.511329507237363 ], [ -88.312757201646093, 18.515428942905476 ] ] ] } },
{ "type": "Feature", "properties": { "difference_1990_2000": 0.0, "difference_1990_2010": 20.0, "difference_1990_2020": 1369.0 }, "geometry": { "type": "Polygon", "coordinates": [ [ [ -88.312757201646093, 18.544127711507784 ], [ -88.308184727937842, 18.544127711507784 ], [ -88.308184727937842, 18.540027595914175 ], [ -88.312757201646093, 18.540027595914175 ], [ -88.312757201646093, 18.544127711507784 ] ] ] } },
{ "type": "Feature", "properties": { "difference_1990_2000": -91.0, "difference_1990_2010": -190.0, "difference_1990_2020": -253.0 }, "geometry": { "type": "Polygon", "coordinates": [ [ [ -88.303612254229535, 18.499031782250309 ], [ -88.299039780521255, 18.499031782250313 ], [ -88.299039780521255, 18.494932734501383 ], [ -88.303612254229535, 18.494932734501376 ], [ -88.303612254229535, 18.499031782250309 ] ] ] } },
{ "type": "Feature", "properties": { "difference_1990_2000": 0.0, "difference_1990_2010": 0.0, "difference_1990_2020": 58.0 }, "geometry": { "type": "Polygon", "coordinates": [ [ [ -88.303612254229535, 18.556428641858489 ], [ -88.299039780521255, 18.55642864185852 ], [ -88.299039780521255, 18.552328234452169 ], [ -88.303612254229535, 18.552328234452169 ], [ -88.303612254229535, 18.556428641858489 ] ] ] } },
{ "type": "Feature", "properties": { "difference_1990_2000": -227.0, "difference_1990_2010": -374.0, "difference_1990_2020": -451.0 }, "geometry": { "type": "Polygon", "coordinates": [ [ [ -88.303612254229535, 18.507230168590581 ], [ -88.299039780521255, 18.507230168590578 ], [ -88.299039780521255, 18.503130926937498 ], [ -88.303612254229535, 18.503130926937491 ], [ -88.303612254229535, 18.507230168590581 ] ] ] } },
{ "type": "Feature", "properties": { "difference_1990_2000": 0.0, "difference_1990_2010": 0.0, "difference_1990_2020": 319.0 }, "geometry": { "type": "Polygon", "coordinates": [ [ [ -88.303612254229535, 18.552328234452169 ], [ -88.299039780521255, 18.552328234452169 ], [ -88.299039780521255, 18.548227924344516 ], [ -88.303612254229535, 18.548227924344481 ], [ -88.303612254229535, 18.552328234452169 ] ] ] } },
{ "type": "Feature", "properties": { "difference_1990_2000": 2056.0, "difference_1990_2010": 1998.0, "difference_1990_2020": 1968.0 }, "geometry": { "type": "Polygon", "coordinates": [ [ [ -88.303612254229535, 18.527727832314877 ], [ -88.299039780521255, 18.527727832314877 ], [ -88.299039780521255, 18.523628105416513 ], [ -88.303612254229535, 18.523628105416517 ], [ -88.303612254229535, 18.527727832314877 ] ] ] } },
{ "type": "Feature", "properties": { "difference_1990_2000": -47.0, "difference_1990_2010": -97.0, "difference_1990_2020": -124.0 }, "geometry": { "type": "Polygon", "coordinates": [ [ [ -88.303612254229535, 18.494932734501376 ], [ -88.299039780521255, 18.494932734501383 ], [ -88.299039780521255, 18.490833783662971 ], [ -88.303612254229535, 18.490833783662971 ], [ -88.303612254229535, 18.494932734501376 ] ] ] } },
{ "type": "Feature", "properties": { "difference_1990_2000": 0.0, "difference_1990_2010": 1636.0, "difference_1990_2020": 2034.0 }, "geometry": { "type": "Polygon", "coordinates": [ [ [ -88.303612254229535, 18.548227924344481 ], [ -88.299039780521255, 18.548227924344516 ], [ -88.299039780521255, 18.544127711507784 ], [ -88.303612254229535, 18.544127711507784 ], [ -88.303612254229535, 18.548227924344481 ] ] ] } },
{ "type": "Feature", "properties": { "difference_1990_2000": -192.0, "difference_1990_2010": -372.0, "difference_1990_2020": -476.0 }, "geometry": { "type": "Polygon", "coordinates": [ [ [ -88.303612254229535, 18.51132950723736 ], [ -88.299039780521255, 18.511329507237363 ], [ -88.299039780521255, 18.50723016859061 ], [ -88.303612254229535, 18.50723016859061 ], [ -88.303612254229535, 18.51132950723736 ] ] ] } },
{ "type": "Feature", "properties": { "difference_1990_2000": -87.0, "difference_1990_2010": -185.0, "difference_1990_2020": -247.0 }, "geometry": { "type": "Polygon", "coordinates": [ [ [ -88.303612254229535, 18.503130926937491 ], [ -88.299039780521255, 18.503130926937498 ], [ -88.299039780521255, 18.499031782250313 ], [ -88.303612254229535, 18.499031782250309 ], [ -88.303612254229535, 18.503130926937491 ] ] ] } },
{ "type": "Feature", "properties": { "difference_1990_2000": 569.0, "difference_1990_2010": 1867.0, "difference_1990_2020": 2098.0 }, "geometry": { "type": "Polygon", "coordinates": [ [ [ -88.303612254229535, 18.540027595914175 ], [ -88.299039780521255, 18.540027595914179 ], [ -88.299039780521255, 18.53592757753599 ], [ -88.303612254229535, 18.535927577535993 ], [ -88.303612254229535, 18.540027595914175 ] ] ] } },
{ "type": "Feature", "properties": { "difference_1990_2000": 1389.0, "difference_1990_2010": 2321.0, "difference_1990_2020": 2252.0 }, "geometry": { "type": "Polygon", "coordinates": [ [ [ -88.303612254229535, 18.535927577535993 ], [ -88.299039780521255, 18.53592757753599 ], [ -88.299039780521255, 18.531827656345456 ], [ -88.303612254229535, 18.531827656345456 ], [ -88.303612254229535, 18.535927577535993 ] ] ] } },
{ "type": "Feature", "properties": { "difference_1990_2000": 2617.0, "difference_1990_2010": 2757.0, "difference_1990_2020": 2413.0 }, "geometry": { "type": "Polygon", "coordinates": [ [ [ -88.303612254229535, 18.531827656345456 ], [ -88.299039780521255, 18.531827656345456 ], [ -88.299039780521255, 18.527727832314909 ], [ -88.303612254229535, 18.527727832314909 ], [ -88.303612254229535, 18.531827656345456 ] ] ] } },
{ "type": "Feature", "properties": { "difference_1990_2000": 0.0, "difference_1990_2010": -1.0, "difference_1990_2020": -2.0 }, "geometry": { "type": "Polygon", "coordinates": [ [ [ -88.303612254229535, 18.490833783662971 ], [ -88.299039780521255, 18.490833783662971 ], [ -88.299039780521255, 18.486734929707477 ], [ -88.303612254229535, 18.486734929707463 ], [ -88.303612254229535, 18.490833783662971 ] ] ] } },
{ "type": "Feature", "properties": { "difference_1990_2000": -28.0, "difference_1990_2010": -99.0, "difference_1990_2020": -191.0 }, "geometry": { "type": "Polygon", "coordinates": [ [ [ -88.303612254229535, 18.519528475622558 ], [ -88.299039780521255, 18.519528475622586 ], [ -88.299039780521255, 18.51542894290548 ], [ -88.303612254229535, 18.515428942905473 ], [ -88.303612254229535, 18.519528475622558 ] ] ] } },
{ "type": "Feature", "properties": { "difference_1990_2000": 188.0, "difference_1990_2010": 113.0, "difference_1990_2020": 14.0 }, "geometry": { "type": "Polygon", "coordinates": [ [ [ -88.303612254229535, 18.523628105416517 ], [ -88.299039780521255, 18.523628105416513 ], [ -88.299039780521255, 18.519528475622586 ], [ -88.303612254229535, 18.519528475622558 ], [ -88.303612254229535, 18.523628105416517 ] ] ] } },
{ "type": "Feature", "properties": { "difference_1990_2000": -76.0, "difference_1990_2010": -250.0, "difference_1990_2020": -369.0 }, "geometry": { "type": "Polygon", "coordinates": [ [ [ -88.303612254229535, 18.515428942905473 ], [ -88.299039780521255, 18.51542894290548 ], [ -88.299039780521255, 18.511329507237363 ], [ -88.303612254229535, 18.51132950723736 ], [ -88.303612254229535, 18.515428942905473 ] ] ] } },
{ "type": "Feature", "properties": { "difference_1990_2000": 0.0, "difference_1990_2010": 2112.0, "difference_1990_2020": 2395.0 }, "geometry": { "type": "Polygon", "coordinates": [ [ [ -88.303612254229535, 18.544127711507784 ], [ -88.299039780521255, 18.544127711507784 ], [ -88.299039780521255, 18.540027595914179 ], [ -88.303612254229535, 18.540027595914175 ], [ -88.303612254229535, 18.544127711507784 ] ] ] } },
{ "type": "Feature", "properties": { "difference_1990_2000": -122.0, "difference_1990_2010": -298.0, "difference_1990_2020": -404.0 }, "geometry": { "type": "Polygon", "coordinates": [ [ [ -88.29446730681299, 18.499031782250306 ], [ -88.289894833104711, 18.499031782250313 ], [ -88.289894833104711, 18.494932734501379 ], [ -88.29446730681299, 18.494932734501376 ], [ -88.29446730681299, 18.499031782250306 ] ] ] } },
{ "type": "Feature", "properties": { "difference_1990_2000": -155.0, "difference_1990_2010": -362.0, "difference_1990_2020": -532.0 }, "geometry": { "type": "Polygon", "coordinates": [ [ [ -88.29446730681299, 18.507230168590578 ], [ -88.289894833104711, 18.507230168590578 ], [ -88.289894833104711, 18.503130926937462 ], [ -88.29446730681299, 18.503130926937498 ], [ -88.29446730681299, 18.507230168590578 ] ] ] } },
{ "type": "Feature", "properties": { "difference_1990_2000": 710.0, "difference_1990_2010": 966.0, "difference_1990_2020": 812.0 }, "geometry": { "type": "Polygon", "coordinates": [ [ [ -88.29446730681299, 18.52772783231487 ], [ -88.289894833104711, 18.527727832314874 ], [ -88.289894833104711, 18.523628105416517 ], [ -88.29446730681299, 18.523628105416517 ], [ -88.29446730681299, 18.52772783231487 ] ] ] } },
{ "type": "Feature", "properties": { "difference_1990_2000": -53.0, "difference_1990_2010": -129.0, "difference_1990_2020": -175.0 }, "geometry": { "type": "Polygon", "coordinates": [ [ [ -88.29446730681299, 18.494932734501376 ], [ -88.289894833104711, 18.494932734501379 ], [ -88.289894833104711, 18.490833783662971 ], [ -88.29446730681299, 18.490833783662964 ], [ -88.29446730681299, 18.494932734501376 ] ] ] } },
{ "type": "Feature", "properties": { "difference_1990_2000": 0.0, "difference_1990_2010": 150.0, "difference_1990_2020": 1450.0 }, "geometry": { "type": "Polygon", "coordinates": [ [ [ -88.29446730681299, 18.548227924344513 ], [ -88.289894833104711, 18.548227924344513 ], [ -88.289894833104711, 18.544127711507763 ], [ -88.29446730681299, 18.544127711507809 ], [ -88.29446730681299, 18.548227924344513 ] ] ] } },
{ "type": "Feature", "properties": { "difference_1990_2000": -174.0, "difference_1990_2010": -419.0, "difference_1990_2020": -545.0 }, "geometry": { "type": "Polygon", "coordinates": [ [ [ -88.29446730681299, 18.51132950723736 ], [ -88.289894833104711, 18.511329507237363 ], [ -88.289894833104711, 18.50723016859061 ], [ -88.29446730681299, 18.507230168590606 ], [ -88.29446730681299, 18.51132950723736 ] ] ] } },
{ "type": "Feature", "properties": { "difference_1990_2000": -142.0, "difference_1990_2010": -324.0, "difference_1990_2020": -471.0 }, "geometry": { "type": "Polygon", "coordinates": [ [ [ -88.29446730681299, 18.503130926937498 ], [ -88.289894833104711, 18.503130926937462 ], [ -88.289894833104711, 18.499031782250313 ], [ -88.29446730681299, 18.499031782250306 ], [ -88.29446730681299, 18.503130926937498 ] ] ] } },
{ "type": "Feature", "properties": { "difference_1990_2000": 1.0, "difference_1990_2010": 93.0, "difference_1990_2020": 109.0 }, "geometry": { "type": "Polygon", "coordinates": [ [ [ -88.29446730681299, 18.540027595914175 ], [ -88.289894833104711, 18.540027595914143 ], [ -88.289894833104711, 18.53592757753599 ], [ -88.29446730681299, 18.53592757753599 ], [ -88.29446730681299, 18.540027595914175 ] ] ] } },
{ "type": "Feature", "properties": { "difference_1990_2000": 510.0, "difference_1990_2010": 1471.0, "difference_1990_2020": 1482.0 }, "geometry": { "type": "Polygon", "coordinates": [ [ [ -88.29446730681299, 18.53592757753599 ], [ -88.289894833104711, 18.53592757753599 ], [ -88.289894833104711, 18.531827656345456 ], [ -88.29446730681299, 18.531827656345452 ], [ -88.29446730681299, 18.53592757753599 ] ] ] } },
{ "type": "Feature", "properties": { "difference_1990_2000": 1207.0, "difference_1990_2010": 1721.0, "difference_1990_2020": 1476.0 }, "geometry": { "type": "Polygon", "coordinates": [ [ [ -88.29446730681299, 18.531827656345452 ], [ -88.289894833104711, 18.531827656345456 ], [ -88.289894833104711, 18.527727832314913 ], [ -88.29446730681299, 18.527727832314909 ], [ -88.29446730681299, 18.531827656345452 ] ] ] } },
{ "type": "Feature", "properties": { "difference_1990_2000": -30.0, "difference_1990_2010": -154.0, "difference_1990_2020": -145.0 }, "geometry": { "type": "Polygon", "coordinates": [ [ [ -88.29446730681299, 18.523628105416517 ], [ -88.289894833104711, 18.523628105416517 ], [ -88.289894833104711, 18.519528475622582 ], [ -88.29446730681299, 18.51952847562259 ], [ -88.29446730681299, 18.523628105416517 ] ] ] } },
{ "type": "Feature", "properties": { "difference_1990_2000": -155.0, "difference_1990_2010": -367.0, "difference_1990_2020": -416.0 }, "geometry": { "type": "Polygon", "coordinates": [ [ [ -88.29446730681299, 18.51952847562259 ], [ -88.289894833104711, 18.519528475622582 ], [ -88.289894833104711, 18.51542894290548 ], [ -88.29446730681299, 18.515428942905476 ], [ -88.29446730681299, 18.51952847562259 ] ] ] } },
{ "type": "Feature", "properties": { "difference_1990_2000": -246.0, "difference_1990_2010": -536.0, "difference_1990_2020": -623.0 }, "geometry": { "type": "Polygon", "coordinates": [ [ [ -88.29446730681299, 18.515428942905476 ], [ -88.289894833104711, 18.51542894290548 ], [ -88.289894833104711, 18.511329507237363 ], [ -88.29446730681299, 18.51132950723736 ], [ -88.29446730681299, 18.515428942905476 ] ] ] } },
{ "type": "Feature", "properties": { "difference_1990_2000": 0.0, "difference_1990_2010": 259.0, "difference_1990_2020": 481.0 }, "geometry": { "type": "Polygon", "coordinates": [ [ [ -88.29446730681299, 18.544127711507809 ], [ -88.289894833104711, 18.544127711507763 ], [ -88.289894833104711, 18.540027595914143 ], [ -88.29446730681299, 18.540027595914175 ], [ -88.29446730681299, 18.544127711507809 ] ] ] } },
{ "type": "Feature", "properties": { "difference_1990_2000": 0.0, "difference_1990_2010": 0.0, "difference_1990_2020": 244.0 }, "geometry": { "type": "Polygon", "coordinates": [ [ [ -88.294467306813004, 18.552328234452197 ], [ -88.289894833104711, 18.552328234452169 ], [ -88.289894833104711, 18.548227924344513 ], [ -88.29446730681299, 18.548227924344513 ], [ -88.294467306813004, 18.552328234452197 ] ] ] } },
{ "type": "Feature", "properties": { "difference_1990_2000": -12.0, "difference_1990_2010": -31.0, "difference_1990_2020": -40.0 }, "geometry": { "type": "Polygon", "coordinates": [ [ [ -88.285322359396432, 18.499031782250309 ], [ -88.280749885688181, 18.499031782250309 ], [ -88.280749885688181, 18.494932734501379 ], [ -88.285322359396432, 18.494932734501379 ], [ -88.285322359396432, 18.499031782250309 ] ] ] } },
{ "type": "Feature", "properties": { "difference_1990_2000": 0.0, "difference_1990_2010": 154.0, "difference_1990_2020": 1266.0 }, "geometry": { "type": "Polygon", "coordinates": [ [ [ -88.285322359396432, 18.556428641858524 ], [ -88.280749885688181, 18.55642864185852 ], [ -88.280749885688181, 18.552328234452201 ], [ -88.285322359396432, 18.552328234452201 ], [ -88.285322359396432, 18.556428641858524 ] ] ] } },
{ "type": "Feature", "properties": { "difference_1990_2000": 280.0, "difference_1990_2010": 247.0, "difference_1990_2020": -44.0 }, "geometry": { "type": "Polygon", "coordinates": [ [ [ -88.285322359396432, 18.50723016859061 ], [ -88.280749885688181, 18.507230168590581 ], [ -88.280749885688181, 18.503130926937494 ], [ -88.285322359396432, 18.503130926937512 ], [ -88.285322359396432, 18.50723016859061 ] ] ] } },
{ "type": "Feature", "properties": { "difference_1990_2000": 0.0, "difference_1990_2010": 763.0, "difference_1990_2020": 1485.0 }, "geometry": { "type": "Polygon", "coordinates": [ [ [ -88.285322359396432, 18.552328234452201 ], [ -88.280749885688181, 18.552328234452201 ], [ -88.280749885688181, 18.54822792434453 ], [ -88.285322359396432, 18.548227924344513 ], [ -88.285322359396432, 18.552328234452201 ] ] ] } },
{ "type": "Feature", "properties": { "difference_1990_2000": -86.0, "difference_1990_2010": -120.0, "difference_1990_2020": -220.0 }, "geometry": { "type": "Polygon", "coordinates": [ [ [ -88.285322359396432, 18.527727832314874 ], [ -88.280749885688181, 18.527727832314877 ], [ -88.280749885688181, 18.52362810541651 ], [ -88.285322359396432, 18.523628105416513 ], [ -88.285322359396432, 18.527727832314874 ] ] ] } },
{ "type": "Feature", "properties": { "difference_1990_2000": 0.0, "difference_1990_2010": 192.0, "difference_1990_2020": 289.0 }, "geometry": { "type": "Polygon", "coordinates": [ [ [ -88.285322359396432, 18.548227924344513 ], [ -88.280749885688181, 18.54822792434453 ], [ -88.280749885688181, 18.544127711507784 ], [ -88.285322359396432, 18.544127711507784 ], [ -88.285322359396432, 18.548227924344513 ] ] ] } },
{ "type": "Feature", "properties": { "difference_1990_2000": 0.0, "difference_1990_2010": 0.0, "difference_1990_2020": 1783.0 }, "geometry": { "type": "Polygon", "coordinates": [ [ [ -88.285322359396432, 18.560529146591243 ], [ -88.280749885688181, 18.560529146591243 ], [ -88.280749885688181, 18.55642864185852 ], [ -88.285322359396432, 18.556428641858524 ], [ -88.285322359396432, 18.560529146591243 ] ] ] } },
{ "type": "Feature", "properties": { "difference_1990_2000": 101.0, "difference_1990_2010": 31.0, "difference_1990_2020": -163.0 }, "geometry": { "type": "Polygon", "coordinates": [ [ [ -88.285322359396432, 18.511329507237388 ], [ -88.280749885688181, 18.511329507237388 ], [ -88.280749885688181, 18.507230168590606 ], [ -88.285322359396432, 18.50723016859061 ], [ -88.285322359396432, 18.511329507237388 ] ] ] } },
{ "type": "Feature", "properties": { "difference_1990_2000": 73.0, "difference_1990_2010": 31.0, "difference_1990_2020": -82.0 }, "geometry": { "type": "Polygon", "coordinates": [ [ [ -88.285322359396432, 18.503130926937512 ], [ -88.280749885688181, 18.503130926937494 ], [ -88.280749885688181, 18.499031782250309 ], [ -88.285322359396432, 18.499031782250309 ], [ -88.285322359396432, 18.503130926937512 ] ] ] } },
{ "type": "Feature", "properties": { "difference_1990_2000": 0.0, "difference_1990_2010": 376.0, "difference_1990_2020": 367.0 }, "geometry": { "type": "Polygon", "coordinates": [ [ [ -88.285322359396432, 18.540027595914172 ], [ -88.280749885688181, 18.540027595914179 ], [ -88.280749885688181, 18.53592757753599 ], [ -88.285322359396432, 18.53592757753599 ], [ -88.285322359396432, 18.540027595914172 ] ] ] } },
{ "type": "Feature", "properties": { "difference_1990_2000": 5.0, "difference_1990_2010": 1527.0, "difference_1990_2020": 1539.0 }, "geometry": { "type": "Polygon", "coordinates": [ [ [ -88.285322359396432, 18.53592757753599 ], [ -88.280749885688181, 18.53592757753599 ], [ -88.280749885688181, 18.531827656345456 ], [ -88.285322359396432, 18.531827656345452 ], [ -88.285322359396432, 18.53592757753599 ] ] ] } },
{ "type": "Feature", "properties": { "difference_1990_2000": 30.0, "difference_1990_2010": 637.0, "difference_1990_2020": 581.0 }, "geometry": { "type": "Polygon", "coordinates": [ [ [ -88.285322359396432, 18.531827656345452 ], [ -88.280749885688181, 18.531827656345456 ], [ -88.280749885688181, 18.527727832314905 ], [ -88.285322359396432, 18.527727832314913 ], [ -88.285322359396432, 18.531827656345452 ] ] ] } },
{ "type": "Feature", "properties": { "difference_1990_2000": -118.0, "difference_1990_2010": -170.0, "difference_1990_2020": -263.0 }, "geometry": { "type": "Polygon", "coordinates": [ [ [ -88.285322359396432, 18.523628105416513 ], [ -88.280749885688181, 18.52362810541651 ], [ -88.280749885688181, 18.519528475622586 ], [ -88.285322359396432, 18.51952847562259 ], [ -88.285322359396432, 18.523628105416513 ] ] ] } },
{ "type": "Feature", "properties": { "difference_1990_2000": -114.0, "difference_1990_2010": -227.0, "difference_1990_2020": -298.0 }, "geometry": { "type": "Polygon", "coordinates": [ [ [ -88.285322359396432, 18.51952847562259 ], [ -88.280749885688181, 18.519528475622586 ], [ -88.280749885688181, 18.515428942905476 ], [ -88.285322359396432, 18.515428942905483 ], [ -88.285322359396432, 18.51952847562259 ] ] ] } },
{ "type": "Feature", "properties": { "difference_1990_2000": 0.0, "difference_1990_2010": 0.0, "difference_1990_2020": 512.0 }, "geometry": { "type": "Polygon", "coordinates": [ [ [ -88.285322359396432, 18.56462974867814 ], [ -88.280749885688181, 18.56462974867814 ], [ -88.280749885688181, 18.560529146591243 ], [ -88.285322359396432, 18.560529146591243 ], [ -88.285322359396432, 18.56462974867814 ] ] ] } },
{ "type": "Feature", "properties": { "difference_1990_2000": -27.0, "difference_1990_2010": -119.0, "difference_1990_2020": -235.0 }, "geometry": { "type": "Polygon", "coordinates": [ [ [ -88.285322359396432, 18.515428942905483 ], [ -88.280749885688181, 18.515428942905476 ], [ -88.280749885688181, 18.511329507237388 ], [ -88.285322359396432, 18.511329507237388 ], [ -88.285322359396432, 18.515428942905483 ] ] ] } },
{ "type": "Feature", "properties": { "difference_1990_2000": 0.0, "difference_1990_2010": 0.0, "difference_1990_2020": 66.0 }, "geometry": { "type": "Polygon", "coordinates": [ [ [ -88.285322359396432, 18.544127711507784 ], [ -88.280749885688181, 18.544127711507784 ], [ -88.280749885688181, 18.540027595914179 ], [ -88.285322359396432, 18.540027595914172 ], [ -88.285322359396432, 18.544127711507784 ] ] ] } },
{ "type": "Feature", "properties": { "difference_1990_2000": 0.0, "difference_1990_2010": 0.0, "difference_1990_2020": 1339.0 }, "geometry": { "type": "Polygon", "coordinates": [ [ [ -88.276177411979873, 18.556428641858485 ], [ -88.271604938271594, 18.556428641858489 ], [ -88.271604938271594, 18.552328234452201 ], [ -88.276177411979873, 18.552328234452197 ], [ -88.276177411979873, 18.556428641858485 ] ] ] } },
{ "type": "Feature", "properties": { "difference_1990_2000": 0.0, "difference_1990_2010": 383.0, "difference_1990_2020": 1760.0 }, "geometry": { "type": "Polygon", "coordinates": [ [ [ -88.276177411979873, 18.552328234452197 ], [ -88.271604938271594, 18.552328234452201 ], [ -88.271604938271594, 18.548227924344523 ], [ -88.276177411979873, 18.548227924344477 ], [ -88.276177411979873, 18.552328234452197 ] ] ] } },
{ "type": "Feature", "properties": { "difference_1990_2000": 58.0, "difference_1990_2010": 3.0, "difference_1990_2020": -32.0 }, "geometry": { "type": "Polygon", "coordinates": [ [ [ -88.276177411979873, 18.527727832314856 ], [ -88.271604938271594, 18.527727832314877 ], [ -88.271604938271594, 18.523628105416538 ], [ -88.276177411979873, 18.52362810541651 ], [ -88.276177411979873, 18.527727832314856 ] ] ] } },
{ "type": "Feature", "properties": { "difference_1990_2000": 0.0, "difference_1990_2010": 290.0, "difference_1990_2020": 1921.0 }, "geometry": { "type": "Polygon", "coordinates": [ [ [ -88.276177411979873, 18.548227924344477 ], [ -88.271604938271594, 18.548227924344523 ], [ -88.271604938271594, 18.544127711507784 ], [ -88.276177411979873, 18.544127711507805 ], [ -88.276177411979873, 18.548227924344477 ] ] ] } },
{ "type": "Feature", "properties": { "difference_1990_2000": 108.0, "difference_1990_2010": 196.0, "difference_1990_2020": 175.0 }, "geometry": { "type": "Polygon", "coordinates": [ [ [ -88.276177411979873, 18.540027595914196 ], [ -88.271604938271594, 18.540027595914179 ], [ -88.271604938271594, 18.535927577535993 ], [ -88.276177411979873, 18.535927577535993 ], [ -88.276177411979873, 18.540027595914196 ] ] ] } },
{ "type": "Feature", "properties": { "difference_1990_2000": 127.0, "difference_1990_2010": 171.0, "difference_1990_2020": 276.0 }, "geometry": { "type": "Polygon", "coordinates": [ [ [ -88.276177411979873, 18.535927577535993 ], [ -88.271604938271594, 18.535927577535993 ], [ -88.271604938271594, 18.531827656345452 ], [ -88.276177411979873, 18.531827656345456 ], [ -88.276177411979873, 18.535927577535993 ] ] ] } },
{ "type": "Feature", "properties": { "difference_1990_2000": 140.0, "difference_1990_2010": 144.0, "difference_1990_2020": 342.0 }, "geometry": { "type": "Polygon", "coordinates": [ [ [ -88.276177411979873, 18.531827656345456 ], [ -88.271604938271594, 18.531827656345452 ], [ -88.271604938271594, 18.527727832314909 ], [ -88.276177411979873, 18.527727832314877 ], [ -88.276177411979873, 18.531827656345456 ] ] ] } },
{ "type": "Feature", "properties": { "difference_1990_2000": -14.0, "difference_1990_2010": -42.0, "difference_1990_2020": -96.0 }, "geometry": { "type": "Polygon", "coordinates": [ [ [ -88.276177411979873, 18.519528475622561 ], [ -88.271604938271594, 18.519528475622611 ], [ -88.271604938271594, 18.515428942905483 ], [ -88.276177411979873, 18.515428942905476 ], [ -88.276177411979873, 18.519528475622561 ] ] ] } },
{ "type": "Feature", "properties": { "difference_1990_2000": 10.0, "difference_1990_2010": 1.0, "difference_1990_2020": -16.0 }, "geometry": { "type": "Polygon", "coordinates": [ [ [ -88.276177411979873, 18.52362810541651 ], [ -88.271604938271594, 18.523628105416538 ], [ -88.271604938271594, 18.519528475622611 ], [ -88.276177411979873, 18.519528475622561 ], [ -88.276177411979873, 18.52362810541651 ] ] ] } },
{ "type": "Feature", "properties": { "difference_1990_2000": -7.0, "difference_1990_2010": -20.0, "difference_1990_2020": -42.0 }, "geometry": { "type": "Polygon", "coordinates": [ [ [ -88.276177411979873, 18.515428942905476 ], [ -88.271604938271594, 18.515428942905483 ], [ -88.271604938271594, 18.511329507237395 ], [ -88.276177411979873, 18.51132950723736 ], [ -88.276177411979873, 18.515428942905476 ] ] ] } },
{ "type": "Feature", "properties": { "difference_1990_2000": 69.0, "difference_1990_2010": 272.0, "difference_1990_2020": 524.0 }, "geometry": { "type": "Polygon", "coordinates": [ [ [ -88.276177411979873, 18.544127711507805 ], [ -88.271604938271594, 18.544127711507784 ], [ -88.271604938271594, 18.540027595914179 ], [ -88.276177411979873, 18.540027595914196 ], [ -88.276177411979873, 18.544127711507805 ] ] ] } },
{ "type": "Feature", "properties": { "difference_1990_2000": 12.0, "difference_1990_2010": 19.0, "difference_1990_2020": 18.0 }, "geometry": { "type": "Polygon", "coordinates": [ [ [ -88.267032464563329, 18.556428641858471 ], [ -88.262459990855049, 18.556428641858485 ], [ -88.262459990855049, 18.552328234452162 ], [ -88.267032464563329, 18.552328234452204 ], [ -88.267032464563329, 18.556428641858471 ] ] ] } },
{ "type": "Feature", "properties": { "difference_1990_2000": 52.0, "difference_1990_2010": 108.0, "difference_1990_2020": 113.0 }, "geometry": { "type": "Polygon", "coordinates": [ [ [ -88.267032464563329, 18.552328234452204 ], [ -88.262459990855049, 18.552328234452162 ], [ -88.262459990855049, 18.548227924344516 ], [ -88.267032464563329, 18.548227924344516 ], [ -88.267032464563329, 18.552328234452204 ] ] ] } },
{ "type": "Feature", "properties": { "difference_1990_2000": 0.0, "difference_1990_2010": 832.0, "difference_1990_2020": 928.0 }, "geometry": { "type": "Polygon", "coordinates": [ [ [ -88.267032464563329, 18.548227924344516 ], [ -88.262459990855049, 18.548227924344516 ], [ -88.262459990855049, 18.544127711507784 ], [ -88.267032464563329, 18.544127711507763 ], [ -88.267032464563329, 18.548227924344516 ] ] ] } },
{ "type": "Feature", "properties": { "difference_1990_2000": 1.0, "difference_1990_2010": 1.0, "difference_1990_2020": 1.0 }, "geometry": { "type": "Polygon", "coordinates": [ [ [ -88.267032464563329, 18.560529146591243 ], [ -88.262459990855049, 18.560529146591247 ], [ -88.262459990855049, 18.556428641858485 ], [ -88.267032464563329, 18.556428641858471 ], [ -88.267032464563329, 18.560529146591243 ] ] ] } },
{ "type": "Feature", "properties": { "difference_1990_2000": 0.0, "difference_1990_2010": 6.0, "difference_1990_2020": 6.0 }, "geometry": { "type": "Polygon", "coordinates": [ [ [ -88.267032464563329, 18.544127711507763 ], [ -88.262459990855049, 18.544127711507784 ], [ -88.262459990855049, 18.540027595914143 ], [ -88.267032464563329, 18.540027595914147 ], [ -88.267032464563329, 18.544127711507763 ] ] ] } },
{ "type": "Feature", "properties": { "difference_1990_2000": 51.0, "difference_1990_2010": 111.0, "difference_1990_2020": 88.0 }, "geometry": { "type": "Polygon", "coordinates": [ [ [ -88.25788751714677, 18.556428641858485 ], [ -88.253315043438519, 18.556428641858485 ], [ -88.253315043438519, 18.552328234452201 ], [ -88.25788751714677, 18.552328234452204 ], [ -88.25788751714677, 18.556428641858485 ] ] ] } },
{ "type": "Feature", "properties": { "difference_1990_2000": 103.0, "difference_1990_2010": 151.0, "difference_1990_2020": 152.0 }, "geometry": { "type": "Polygon", "coordinates": [ [ [ -88.25788751714677, 18.552328234452204 ], [ -88.253315043438519, 18.552328234452201 ], [ -88.253315043438519, 18.548227924344513 ], [ -88.25788751714677, 18.548227924344516 ], [ -88.25788751714677, 18.552328234452204 ] ] ] } },
{ "type": "Feature", "properties": { "difference_1990_2000": 6.0, "difference_1990_2010": 8.0, "difference_1990_2020": 8.0 }, "geometry": { "type": "Polygon", "coordinates": [ [ [ -88.25788751714677, 18.548227924344516 ], [ -88.253315043438519, 18.548227924344513 ], [ -88.253315043438519, 18.544127711507812 ], [ -88.25788751714677, 18.544127711507784 ], [ -88.25788751714677, 18.548227924344516 ] ] ] } },
{ "type": "Feature", "properties": { "difference_1990_2000": 20.0, "difference_1990_2010": 83.0, "difference_1990_2020": 162.0 }, "geometry": { "type": "Polygon", "coordinates": [ [ [ -88.25788751714677, 18.560529146591261 ], [ -88.253315043438519, 18.560529146591243 ], [ -88.253315043438519, 18.556428641858485 ], [ -88.25788751714677, 18.556428641858485 ], [ -88.25788751714677, 18.560529146591261 ] ] ] } },
{ "type": "Feature", "properties": { "difference_1990_2000": 21.0, "difference_1990_2010": 152.0, "difference_1990_2020": 173.0 }, "geometry": { "type": "Polygon", "coordinates": [ [ [ -88.25788751714677, 18.564629748678165 ], [ -88.253315043438519, 18.56462974867814 ], [ -88.253315043438519, 18.560529146591243 ], [ -88.25788751714677, 18.560529146591261 ], [ -88.25788751714677, 18.564629748678165 ] ] ] } },
{ "type": "Feature", "properties": { "difference_1990_2000": 4.0, "difference_1990_2010": 34.0, "difference_1990_2020": 40.0 }, "geometry": { "type": "Polygon", "coordinates": [ [ [ -88.25788751714677, 18.56873044814704 ], [ -88.253315043438519, 18.568730448147026 ], [ -88.253315043438519, 18.56462974867814 ], [ -88.25788751714677, 18.564629748678165 ], [ -88.25788751714677, 18.56873044814704 ] ] ] } },
{ "type": "Feature", "properties": { "difference_1990_2000": 1.0, "difference_1990_2010": 2.0, "difference_1990_2020": 2.0 }, "geometry": { "type": "Polygon", "coordinates": [ [ [ -88.24874256973024, 18.560529146591243 ], [ -88.244170096021961, 18.560529146591247 ], [ -88.244170096021961, 18.556428641858492 ], [ -88.24874256973024, 18.556428641858489 ], [ -88.24874256973024, 18.560529146591243 ] ] ] } },
{ "type": "Feature", "properties": { "difference_1990_2000": 31.0, "difference_1990_2010": 39.0, "difference_1990_2020": 44.0 }, "geometry": { "type": "Polygon", "coordinates": [ [ [ -88.24874256973024, 18.564629748678136 ], [ -88.244170096021961, 18.56462974867814 ], [ -88.244170096021961, 18.560529146591247 ], [ -88.24874256973024, 18.560529146591243 ], [ -88.24874256973024, 18.564629748678136 ] ] ] } },
{ "type": "Feature", "properties": { "difference_1990_2000": 20.0, "difference_1990_2010": 0.0, "difference_1990_2020": 588.0 }, "geometry": { "type": "Polygon", "coordinates": [ [ [ -88.34476451760402, 18.519528475622586 ], [ -88.340192043895755, 18.519528475622607 ], [ -88.340192043895755, 18.51542894290548 ], [ -88.34476451760402, 18.515428942905476 ], [ -88.34476451760402, 18.519528475622586 ] ] ] } },
{ "type": "Feature", "properties": { "difference_1990_2000": 15.0, "difference_1990_2010": 22.0, "difference_1990_2020": 428.0 }, "geometry": { "type": "Polygon", "coordinates": [ [ [ -88.34476451760402, 18.515428942905476 ], [ -88.340192043895755, 18.51542894290548 ], [ -88.340192043895755, 18.511329507237392 ], [ -88.34476451760402, 18.511329507237392 ], [ -88.34476451760402, 18.515428942905476 ] ] ] } },
{ "type": "Feature", "properties": { "difference_1990_2000": 5.0, "difference_1990_2010": 11.0, "difference_1990_2020": 8.0 }, "geometry": { "type": "Polygon", "coordinates": [ [ [ -88.33561957018749, 18.51132950723736 ], [ -88.331047096479196, 18.511329507237349 ], [ -88.331047096479196, 18.50723016859061 ], [ -88.335619570187504, 18.507230168590606 ], [ -88.33561957018749, 18.51132950723736 ] ] ] } },
{ "type": "Feature", "properties": { "difference_1990_2000": 745.0, "difference_1990_2010": 806.0, "difference_1990_2020": 632.0 }, "geometry": { "type": "Polygon", "coordinates": [ [ [ -88.33561957018749, 18.519528475622558 ], [ -88.331047096479196, 18.519528475622586 ], [ -88.331047096479196, 18.515428942905455 ], [ -88.33561957018749, 18.51542894290548 ], [ -88.33561957018749, 18.519528475622558 ] ] ] } },
{ "type": "Feature", "properties": { "difference_1990_2000": 273.0, "difference_1990_2010": 499.0, "difference_1990_2020": 735.0 }, "geometry": { "type": "Polygon", "coordinates": [ [ [ -88.33561957018749, 18.523628105416513 ], [ -88.331047096479196, 18.52362810541651 ], [ -88.331047096479196, 18.519528475622586 ], [ -88.33561957018749, 18.519528475622558 ], [ -88.33561957018749, 18.523628105416513 ] ] ] } },
{ "type": "Feature", "properties": { "difference_1990_2000": 570.0, "difference_1990_2010": 994.0, "difference_1990_2020": 742.0 }, "geometry": { "type": "Polygon", "coordinates": [ [ [ -88.33561957018749, 18.51542894290548 ], [ -88.331047096479196, 18.515428942905455 ], [ -88.331047096479196, 18.511329507237349 ], [ -88.33561957018749, 18.51132950723736 ], [ -88.33561957018749, 18.51542894290548 ] ] ] } },
{ "type": "Feature", "properties": { "difference_1990_2000": 0.0, "difference_1990_2010": 390.0, "difference_1990_2020": 380.0 }, "geometry": { "type": "Polygon", "coordinates": [ [ [ -88.335619570187504, 18.527727832314874 ], [ -88.331047096479196, 18.527727832314874 ], [ -88.331047096479196, 18.52362810541651 ], [ -88.33561957018749, 18.523628105416513 ], [ -88.335619570187504, 18.527727832314874 ] ] ] } },
{ "type": "Feature", "properties": { "difference_1990_2000": 46.0, "difference_1990_2010": 57.0, "difference_1990_2020": 613.0 }, "geometry": { "type": "Polygon", "coordinates": [ [ [ -88.326474622770917, 18.499031782250313 ], [ -88.321902149062637, 18.499031782250313 ], [ -88.321902149062637, 18.494932734501397 ], [ -88.326474622770917, 18.494932734501383 ], [ -88.326474622770917, 18.499031782250313 ] ] ] } },
{ "type": "Feature", "properties": { "difference_1990_2000": 384.0, "difference_1990_2010": 328.0, "difference_1990_2020": 254.0 }, "geometry": { "type": "Polygon", "coordinates": [ [ [ -88.326474622770917, 18.527727832314874 ], [ -88.321902149062637, 18.527727832314874 ], [ -88.321902149062637, 18.523628105416492 ], [ -88.326474622770917, 18.523628105416513 ], [ -88.326474622770917, 18.527727832314874 ] ] ] } },
{ "type": "Feature", "properties": { "difference_1990_2000": 600.0, "difference_1990_2010": 461.0, "difference_1990_2020": 381.0 }, "geometry": { "type": "Polygon", "coordinates": [ [ [ -88.326474622770917, 18.51132950723736 ], [ -88.321902149062637, 18.51132950723736 ], [ -88.321902149062637, 18.50723016859061 ], [ -88.326474622770917, 18.50723016859061 ], [ -88.326474622770917, 18.51132950723736 ] ] ] } },
{ "type": "Feature", "properties": { "difference_1990_2000": 361.0, "difference_1990_2010": 511.0, "difference_1990_2020": 764.0 }, "geometry": { "type": "Polygon", "coordinates": [ [ [ -88.326474622770917, 18.503130926937498 ], [ -88.321902149062637, 18.503130926937494 ], [ -88.321902149062637, 18.499031782250313 ], [ -88.326474622770917, 18.499031782250313 ], [ -88.326474622770917, 18.503130926937498 ] ] ] } },
{ "type": "Feature", "properties": { "difference_1990_2000": 121.0, "difference_1990_2010": 304.0, "difference_1990_2020": 466.0 }, "geometry": { "type": "Polygon", "coordinates": [ [ [ -88.326474622770917, 18.53592757753599 ], [ -88.321902149062637, 18.535927577535993 ], [ -88.321902149062637, 18.531827656345452 ], [ -88.326474622770917, 18.531827656345452 ], [ -88.326474622770917, 18.53592757753599 ] ] ] } },
{ "type": "Feature", "properties": { "difference_1990_2000": 501.0, "difference_1990_2010": 766.0, "difference_1990_2020": 720.0 }, "geometry": { "type": "Polygon", "coordinates": [ [ [ -88.326474622770917, 18.531827656345452 ], [ -88.321902149062637, 18.531827656345452 ], [ -88.321902149062637, 18.527727832314909 ], [ -88.326474622770917, 18.527727832314909 ], [ -88.326474622770917, 18.531827656345452 ] ] ] } },
{ "type": "Feature", "properties": { "difference_1990_2000": 731.0, "difference_1990_2010": 1137.0, "difference_1990_2020": 1105.0 }, "geometry": { "type": "Polygon", "coordinates": [ [ [ -88.326474622770917, 18.523628105416513 ], [ -88.321902149062637, 18.523628105416492 ], [ -88.321902149062637, 18.519528475622561 ], [ -88.326474622770917, 18.51952847562259 ], [ -88.326474622770917, 18.523628105416513 ] ] ] } },
{ "type": "Feature", "properties": { "difference_1990_2000": 107.0, "difference_1990_2010": 95.0, "difference_1990_2020": -44.0 }, "geometry": { "type": "Polygon", "coordinates": [ [ [ -88.326474622770917, 18.51952847562259 ], [ -88.321902149062637, 18.519528475622561 ], [ -88.321902149062637, 18.515428942905476 ], [ -88.326474622770917, 18.515428942905476 ], [ -88.326474622770917, 18.51952847562259 ] ] ] } },
{ "type": "Feature", "properties": { "difference_1990_2000": -152.0, "difference_1990_2010": -197.0, "difference_1990_2020": -321.0 }, "geometry": { "type": "Polygon", "coordinates": [ [ [ -88.326474622770917, 18.515428942905476 ], [ -88.321902149062637, 18.515428942905476 ], [ -88.321902149062637, 18.51132950723736 ], [ -88.326474622770917, 18.51132950723736 ], [ -88.326474622770917, 18.515428942905476 ] ] ] } },
{ "type": "Feature", "properties": { "difference_1990_2000": -22.0, "difference_1990_2010": -50.0, "difference_1990_2020": -83.0 }, "geometry": { "type": "Polygon", "coordinates": [ [ [ -88.317329675354372, 18.499031782250317 ], [ -88.312757201646093, 18.499031782250313 ], [ -88.312757201646093, 18.494932734501383 ], [ -88.317329675354372, 18.494932734501376 ], [ -88.317329675354372, 18.499031782250317 ] ] ] } },
{ "type": "Feature", "properties": { "difference_1990_2000": -36.0, "difference_1990_2010": -127.0, "difference_1990_2020": -190.0 }, "geometry": { "type": "Polygon", "coordinates": [ [ [ -88.317329675354372, 18.507230168590578 ], [ -88.312757201646093, 18.507230168590585 ], [ -88.312757201646093, 18.503130926937498 ], [ -88.317329675354372, 18.503130926937491 ], [ -88.317329675354372, 18.507230168590578 ] ] ] } },
{ "type": "Feature", "properties": { "difference_1990_2000": 681.0, "difference_1990_2010": 764.0, "difference_1990_2020": 616.0 }, "geometry": { "type": "Polygon", "coordinates": [ [ [ -88.317329675354372, 18.527727832314877 ], [ -88.312757201646093, 18.52772783231487 ], [ -88.312757201646093, 18.523628105416513 ], [ -88.317329675354372, 18.523628105416513 ], [ -88.317329675354372, 18.527727832314877 ] ] ] } },
{ "type": "Feature", "properties": { "difference_1990_2000": 231.0, "difference_1990_2010": 63.0, "difference_1990_2020": -184.0 }, "geometry": { "type": "Polygon", "coordinates": [ [ [ -88.317329675354372, 18.511329507237392 ], [ -88.312757201646093, 18.511329507237363 ], [ -88.312757201646093, 18.507230168590613 ], [ -88.317329675354372, 18.50723016859061 ], [ -88.317329675354372, 18.511329507237392 ] ] ] } },
{ "type": "Feature", "properties": { "difference_1990_2000": -33.0, "difference_1990_2010": -53.0, "difference_1990_2020": -83.0 }, "geometry": { "type": "Polygon", "coordinates": [ [ [ -88.317329675354372, 18.503130926937491 ], [ -88.312757201646093, 18.503130926937498 ], [ -88.312757201646093, 18.499031782250313 ], [ -88.317329675354372, 18.499031782250317 ], [ -88.317329675354372, 18.503130926937491 ] ] ] } },
{ "type": "Feature", "properties": { "difference_1990_2000": 0.0, "difference_1990_2010": 0.0, "difference_1990_2020": 1.0 }, "geometry": { "type": "Polygon", "coordinates": [ [ [ -88.317329675354372, 18.540027595914179 ], [ -88.312757201646093, 18.540027595914175 ], [ -88.312757201646093, 18.535927577535993 ], [ -88.317329675354372, 18.53592757753599 ], [ -88.317329675354372, 18.540027595914179 ] ] ] } },
{ "type": "Feature", "properties": { "difference_1990_2000": 109.0, "difference_1990_2010": 212.0, "difference_1990_2020": 240.0 }, "geometry": { "type": "Polygon", "coordinates": [ [ [ -88.317329675354372, 18.53592757753599 ], [ -88.312757201646093, 18.535927577535993 ], [ -88.312757201646093, 18.531827656345456 ], [ -88.317329675354372, 18.531827656345452 ], [ -88.317329675354372, 18.53592757753599 ] ] ] } },
{ "type": "Feature", "properties": { "difference_1990_2000": 634.0, "difference_1990_2010": 927.0, "difference_1990_2020": 807.0 }, "geometry": { "type": "Polygon", "coordinates": [ [ [ -88.317329675354372, 18.531827656345452 ], [ -88.312757201646093, 18.531827656345456 ], [ -88.312757201646093, 18.52772783231487 ], [ -88.317329675354372, 18.527727832314909 ], [ -88.317329675354372, 18.531827656345452 ] ] ] } },
{ "type": "Feature", "properties": { "difference_1990_2000": 727.0, "difference_1990_2010": 729.0, "difference_1990_2020": 635.0 }, "geometry": { "type": "Polygon", "coordinates": [ [ [ -88.317329675354372, 18.523628105416513 ], [ -88.312757201646093, 18.523628105416513 ], [ -88.312757201646093, 18.519528475622558 ], [ -88.317329675354372, 18.519528475622582 ], [ -88.317329675354372, 18.523628105416513 ] ] ] } },
{ "type": "Feature", "properties": { "difference_1990_2000": -296.0, "difference_1990_2010": -405.0, "difference_1990_2020": -572.0 }, "geometry": { "type": "Polygon", "coordinates": [ [ [ -88.317329675354372, 18.519528475622582 ], [ -88.312757201646093, 18.519528475622558 ], [ -88.312757201646093, 18.515428942905476 ], [ -88.317329675354372, 18.515428942905476 ], [ -88.317329675354372, 18.519528475622582 ] ] ] } },
{ "type": "Feature", "properties": { "difference_1990_2000": 225.0, "difference_1990_2010": 16.0, "difference_1990_2020": -293.0 }, "geometry": { "type": "Polygon", "coordinates": [ [ [ -88.317329675354372, 18.515428942905476 ], [ -88.312757201646093, 18.515428942905476 ], [ -88.312757201646093, 18.511329507237363 ], [ -88.317329675354372, 18.511329507237392 ], [ -88.317329675354372, 18.515428942905476 ] ] ] } },
{ "type": "Feature", "properties": { "difference_1990_2000": -37.0, "difference_1990_2010": -95.0, "difference_1990_2020": -161.0 }, "geometry": { "type": "Polygon", "coordinates": [ [ [ -88.308184727937842, 18.499031782250309 ], [ -88.303612254229535, 18.499031782250309 ], [ -88.303612254229535, 18.494932734501376 ], [ -88.308184727937842, 18.494932734501376 ], [ -88.308184727937842, 18.499031782250309 ] ] ] } },
{ "type": "Feature", "properties": { "difference_1990_2000": -159.0, "difference_1990_2010": -267.0, "difference_1990_2020": -350.0 }, "geometry": { "type": "Polygon", "coordinates": [ [ [ -88.308184727937842, 18.507230168590613 ], [ -88.303612254229535, 18.507230168590581 ], [ -88.303612254229535, 18.503130926937491 ], [ -88.308184727937842, 18.503130926937491 ], [ -88.308184727937842, 18.507230168590613 ] ] ] } },
{ "type": "Feature", "properties": { "difference_1990_2000": 1324.0, "difference_1990_2010": 1465.0, "difference_1990_2020": 1413.0 }, "geometry": { "type": "Polygon", "coordinates": [ [ [ -88.308184727937842, 18.527727832314856 ], [ -88.303612254229535, 18.527727832314877 ], [ -88.303612254229535, 18.523628105416517 ], [ -88.308184727937842, 18.52362810541651 ], [ -88.308184727937842, 18.527727832314856 ] ] ] } },
{ "type": "Feature", "properties": { "difference_1990_2000": -22.0, "difference_1990_2010": -145.0, "difference_1990_2020": -97.0 }, "geometry": { "type": "Polygon", "coordinates": [ [ [ -88.308184727937842, 18.494932734501376 ], [ -88.303612254229535, 18.494932734501376 ], [ -88.303612254229535, 18.490833783662971 ], [ -88.308184727937842, 18.490833783662968 ], [ -88.308184727937842, 18.494932734501376 ] ] ] } },
{ "type": "Feature", "properties": { "difference_1990_2000": 0.0, "difference_1990_2010": 857.0, "difference_1990_2020": 1569.0 }, "geometry": { "type": "Polygon", "coordinates": [ [ [ -88.308184727937842, 18.548227924344516 ], [ -88.303612254229535, 18.548227924344481 ], [ -88.303612254229535, 18.544127711507784 ], [ -88.308184727937842, 18.544127711507784 ], [ -88.308184727937842, 18.548227924344516 ] ] ] } },
{ "type": "Feature", "properties": { "difference_1990_2000": -154.0, "difference_1990_2010": -321.0, "difference_1990_2020": -443.0 }, "geometry": { "type": "Polygon", "coordinates": [ [ [ -88.308184727937842, 18.51132950723736 ], [ -88.303612254229535, 18.51132950723736 ], [ -88.303612254229535, 18.50723016859061 ], [ -88.308184727937842, 18.507230168590613 ], [ -88.308184727937842, 18.51132950723736 ] ] ] } },
{ "type": "Feature", "properties": { "difference_1990_2000": -43.0, "difference_1990_2010": -98.0, "difference_1990_2020": -163.0 }, "geometry": { "type": "Polygon", "coordinates": [ [ [ -88.308184727937842, 18.503130926937491 ], [ -88.303612254229535, 18.503130926937491 ], [ -88.303612254229535, 18.499031782250309 ], [ -88.308184727937842, 18.499031782250309 ], [ -88.308184727937842, 18.503130926937491 ] ] ] } },
{ "type": "Feature", "properties": { "difference_1990_2000": 0.0, "difference_1990_2010": 1654.0, "difference_1990_2020": 1732.0 }, "geometry": { "type": "Polygon", "coordinates": [ [ [ -88.308184727937842, 18.540027595914175 ], [ -88.303612254229535, 18.540027595914175 ], [ -88.303612254229535, 18.535927577535993 ], [ -88.308184727937842, 18.53592757753599 ], [ -88.308184727937842, 18.540027595914175 ] ] ] } },
{ "type": "Feature", "properties": { "difference_1990_2000": 269.0, "difference_1990_2010": 1727.0, "difference_1990_2020": 1650.0 }, "geometry": { "type": "Polygon", "coordinates": [ [ [ -88.308184727937842, 18.53592757753599 ], [ -88.303612254229535, 18.535927577535993 ], [ -88.303612254229535, 18.531827656345456 ], [ -88.308184727937842, 18.531827656345452 ], [ -88.308184727937842, 18.53592757753599 ] ] ] } },
{ "type": "Feature", "properties": { "difference_1990_2000": 1454.0, "difference_1990_2010": 1727.0, "difference_1990_2020": 1527.0 }, "geometry": { "type": "Polygon", "coordinates": [ [ [ -88.308184727937842, 18.531827656345452 ], [ -88.303612254229535, 18.531827656345456 ], [ -88.303612254229535, 18.527727832314909 ], [ -88.308184727937842, 18.527727832314874 ], [ -88.308184727937842, 18.531827656345452 ] ] ] } },
{ "type": "Feature", "properties": { "difference_1990_2000": -106.0, "difference_1990_2010": -125.0, "difference_1990_2020": -128.0 }, "geometry": { "type": "Polygon", "coordinates": [ [ [ -88.308184727937842, 18.52362810541651 ], [ -88.303612254229535, 18.523628105416517 ], [ -88.303612254229535, 18.519528475622558 ], [ -88.308184727937842, 18.51952847562259 ], [ -88.308184727937842, 18.52362810541651 ] ] ] } },
{ "type": "Feature", "properties": { "difference_1990_2000": 26.0, "difference_1990_2010": -122.0, "difference_1990_2020": -241.0 }, "geometry": { "type": "Polygon", "coordinates": [ [ [ -88.308184727937842, 18.51952847562259 ], [ -88.303612254229535, 18.519528475622558 ], [ -88.303612254229535, 18.515428942905473 ], [ -88.308184727937842, 18.515428942905459 ], [ -88.308184727937842, 18.51952847562259 ] ] ] } },
{ "type": "Feature", "properties": { "difference_1990_2000": -141.0, "difference_1990_2010": -373.0, "difference_1990_2020": -547.0 }, "geometry": { "type": "Polygon", "coordinates": [ [ [ -88.308184727937842, 18.515428942905459 ], [ -88.303612254229535, 18.515428942905473 ], [ -88.303612254229535, 18.51132950723736 ], [ -88.308184727937842, 18.51132950723736 ], [ -88.308184727937842, 18.515428942905459 ] ] ] } },
{ "type": "Feature", "properties": { "difference_1990_2000": 0.0, "difference_1990_2010": 1477.0, "difference_1990_2020": 1729.0 }, "geometry": { "type": "Polygon", "coordinates": [ [ [ -88.308184727937842, 18.544127711507784 ], [ -88.303612254229535, 18.544127711507784 ], [ -88.303612254229535, 18.540027595914175 ], [ -88.308184727937842, 18.540027595914175 ], [ -88.308184727937842, 18.544127711507784 ] ] ] } },
{ "type": "Feature", "properties": { "difference_1990_2000": -126.0, "difference_1990_2010": -276.0, "difference_1990_2020": -360.0 }, "geometry": { "type": "Polygon", "coordinates": [ [ [ -88.299039780521255, 18.499031782250313 ], [ -88.294467306812976, 18.499031782250306 ], [ -88.294467306812976, 18.494932734501376 ], [ -88.299039780521255, 18.494932734501383 ], [ -88.299039780521255, 18.499031782250313 ] ] ] } },
{ "type": "Feature", "properties": { "difference_1990_2000": 0.0, "difference_1990_2010": 0.0, "difference_1990_2020": 10.0 }, "geometry": { "type": "Polygon", "coordinates": [ [ [ -88.299039780521255, 18.55642864185852 ], [ -88.294467306812976, 18.556428641858481 ], [ -88.294467306812976, 18.552328234452197 ], [ -88.299039780521255, 18.552328234452169 ], [ -88.299039780521255, 18.55642864185852 ] ] ] } },
{ "type": "Feature", "properties": { "difference_1990_2000": -121.0, "difference_1990_2010": -341.0, "difference_1990_2020": -407.0 }, "geometry": { "type": "Polygon", "coordinates": [ [ [ -88.299039780521255, 18.507230168590578 ], [ -88.294467306812976, 18.507230168590578 ], [ -88.294467306812976, 18.503130926937498 ], [ -88.299039780521255, 18.503130926937498 ], [ -88.299039780521255, 18.507230168590578 ] ] ] } },
{ "type": "Feature", "properties": { "difference_1990_2000": 0.0, "difference_1990_2010": 0.0, "difference_1990_2020": 79.0 }, "geometry": { "type": "Polygon", "coordinates": [ [ [ -88.299039780521255, 18.552328234452169 ], [ -88.294467306812976, 18.552328234452197 ], [ -88.294467306812976, 18.548227924344513 ], [ -88.299039780521255, 18.548227924344516 ], [ -88.299039780521255, 18.552328234452169 ] ] ] } },
{ "type": "Feature", "properties": { "difference_1990_2000": 1201.0, "difference_1990_2010": 1214.0, "difference_1990_2020": 1378.0 }, "geometry": { "type": "Polygon", "coordinates": [ [ [ -88.299039780521255, 18.527727832314877 ], [ -88.294467306812976, 18.52772783231487 ], [ -88.294467306812976, 18.523628105416517 ], [ -88.299039780521255, 18.523628105416513 ], [ -88.299039780521255, 18.527727832314877 ] ] ] } },
{ "type": "Feature", "properties": { "difference_1990_2000": -66.0, "difference_1990_2010": -145.0, "difference_1990_2020": -189.0 }, "geometry": { "type": "Polygon", "coordinates": [ [ [ -88.299039780521255, 18.494932734501383 ], [ -88.294467306812976, 18.494932734501376 ], [ -88.294467306812976, 18.490833783662964 ], [ -88.299039780521255, 18.490833783662971 ], [ -88.299039780521255, 18.494932734501383 ] ] ] } },
{ "type": "Feature", "properties": { "difference_1990_2000": 0.0, "difference_1990_2010": 1181.0, "difference_1990_2020": 2157.0 }, "geometry": { "type": "Polygon", "coordinates": [ [ [ -88.299039780521255, 18.548227924344516 ], [ -88.294467306812976, 18.548227924344513 ], [ -88.294467306812976, 18.544127711507809 ], [ -88.299039780521255, 18.544127711507784 ], [ -88.299039780521255, 18.548227924344516 ] ] ] } },
{ "type": "Feature", "properties": { "difference_1990_2000": -134.0, "difference_1990_2010": -380.0, "difference_1990_2020": -468.0 }, "geometry": { "type": "Polygon", "coordinates": [ [ [ -88.299039780521255, 18.511329507237363 ], [ -88.294467306812976, 18.51132950723736 ], [ -88.294467306812976, 18.507230168590606 ], [ -88.299039780521255, 18.50723016859061 ], [ -88.299039780521255, 18.511329507237363 ] ] ] } },
{ "type": "Feature", "properties": { "difference_1990_2000": -130.0, "difference_1990_2010": -285.0, "difference_1990_2020": -371.0 }, "geometry": { "type": "Polygon", "coordinates": [ [ [ -88.299039780521255, 18.503130926937498 ], [ -88.294467306812976, 18.503130926937498 ], [ -88.294467306812976, 18.499031782250306 ], [ -88.299039780521255, 18.499031782250313 ], [ -88.299039780521255, 18.503130926937498 ] ] ] } },
{ "type": "Feature", "properties": { "difference_1990_2000": 2.0, "difference_1990_2010": 846.0, "difference_1990_2020": 1571.0 }, "geometry": { "type": "Polygon", "coordinates": [ [ [ -88.299039780521255, 18.540027595914179 ], [ -88.294467306812976, 18.540027595914175 ], [ -88.294467306812976, 18.53592757753599 ], [ -88.299039780521255, 18.53592757753599 ], [ -88.299039780521255, 18.540027595914179 ] ] ] } },
{ "type": "Feature", "properties": { "difference_1990_2000": 601.0, "difference_1990_2010": 1609.0, "difference_1990_2020": 1653.0 }, "geometry": { "type": "Polygon", "coordinates": [ [ [ -88.299039780521255, 18.53592757753599 ], [ -88.294467306812976, 18.53592757753599 ], [ -88.294467306812976, 18.531827656345452 ], [ -88.299039780521255, 18.531827656345456 ], [ -88.299039780521255, 18.53592757753599 ] ] ] } },
{ "type": "Feature", "properties": { "difference_1990_2000": 2270.0, "difference_1990_2010": 2413.0, "difference_1990_2020": 2258.0 }, "geometry": { "type": "Polygon", "coordinates": [ [ [ -88.299039780521255, 18.531827656345456 ], [ -88.294467306812976, 18.531827656345452 ], [ -88.294467306812976, 18.527727832314909 ], [ -88.299039780521255, 18.527727832314909 ], [ -88.299039780521255, 18.531827656345456 ] ] ] } },
{ "type": "Feature", "properties": { "difference_1990_2000": -29.0, "difference_1990_2010": -113.0, "difference_1990_2020": -179.0 }, "geometry": { "type": "Polygon", "coordinates": [ [ [ -88.299039780521255, 18.523628105416513 ], [ -88.294467306812976, 18.523628105416517 ], [ -88.294467306812976, 18.51952847562259 ], [ -88.299039780521255, 18.519528475622586 ], [ -88.299039780521255, 18.523628105416513 ] ] ] } },
{ "type": "Feature", "properties": { "difference_1990_2000": -43.0, "difference_1990_2010": -156.0, "difference_1990_2020": -199.0 }, "geometry": { "type": "Polygon", "coordinates": [ [ [ -88.299039780521255, 18.519528475622586 ], [ -88.294467306812976, 18.51952847562259 ], [ -88.294467306812976, 18.515428942905476 ], [ -88.299039780521255, 18.51542894290548 ], [ -88.299039780521255, 18.519528475622586 ] ] ] } },
{ "type": "Feature", "properties": { "difference_1990_2000": -100.0, "difference_1990_2010": -293.0, "difference_1990_2020": -374.0 }, "geometry": { "type": "Polygon", "coordinates": [ [ [ -88.299039780521255, 18.51542894290548 ], [ -88.294467306812976, 18.515428942905476 ], [ -88.294467306812976, 18.51132950723736 ], [ -88.299039780521255, 18.511329507237363 ], [ -88.299039780521255, 18.51542894290548 ] ] ] } },
{ "type": "Feature", "properties": { "difference_1990_2000": 0.0, "difference_1990_2010": 1778.0, "difference_1990_2020": 2430.0 }, "geometry": { "type": "Polygon", "coordinates": [ [ [ -88.299039780521255, 18.544127711507784 ], [ -88.294467306812976, 18.544127711507809 ], [ -88.294467306812976, 18.540027595914175 ], [ -88.299039780521255, 18.540027595914179 ], [ -88.299039780521255, 18.544127711507784 ] ] ] } },
{ "type": "Feature", "properties": { "difference_1990_2000": 0.0, "difference_1990_2010": 3.0, "difference_1990_2020": 38.0 }, "geometry": { "type": "Polygon", "coordinates": [ [ [ -88.289894833104711, 18.556428641858471 ], [ -88.285322359396432, 18.556428641858524 ], [ -88.285322359396432, 18.552328234452201 ], [ -88.289894833104711, 18.552328234452169 ], [ -88.289894833104711, 18.556428641858471 ] ] ] } },
{ "type": "Feature", "properties": { "difference_1990_2000": -123.0, "difference_1990_2010": -309.0, "difference_1990_2020": -395.0 }, "geometry": { "type": "Polygon", "coordinates": [ [ [ -88.289894833104711, 18.499031782250313 ], [ -88.285322359396432, 18.499031782250309 ], [ -88.285322359396432, 18.494932734501379 ], [ -88.289894833104711, 18.494932734501379 ], [ -88.289894833104711, 18.499031782250313 ] ] ] } },
{ "type": "Feature", "properties": { "difference_1990_2000": 75.0, "difference_1990_2010": -38.0, "difference_1990_2020": -283.0 }, "geometry": { "type": "Polygon", "coordinates": [ [ [ -88.289894833104711, 18.507230168590578 ], [ -88.285322359396432, 18.50723016859061 ], [ -88.285322359396432, 18.503130926937512 ], [ -88.289894833104711, 18.503130926937462 ], [ -88.289894833104711, 18.507230168590578 ] ] ] } },
{ "type": "Feature", "properties": { "difference_1990_2000": 0.0, "difference_1990_2010": 35.0, "difference_1990_2020": 486.0 }, "geometry": { "type": "Polygon", "coordinates": [ [ [ -88.289894833104711, 18.552328234452169 ], [ -88.285322359396432, 18.552328234452201 ], [ -88.285322359396432, 18.548227924344513 ], [ -88.289894833104711, 18.548227924344513 ], [ -88.289894833104711, 18.552328234452169 ] ] ] } },
{ "type": "Feature", "properties": { "difference_1990_2000": 636.0, "difference_1990_2010": 897.0, "difference_1990_2020": 974.0 }, "geometry": { "type": "Polygon", "coordinates": [ [ [ -88.289894833104711, 18.527727832314874 ], [ -88.285322359396432, 18.527727832314874 ], [ -88.285322359396432, 18.523628105416513 ], [ -88.289894833104711, 18.523628105416517 ], [ -88.289894833104711, 18.527727832314874 ] ] ] } },
{ "type": "Feature", "properties": { "difference_1990_2000": -27.0, "difference_1990_2010": -69.0, "difference_1990_2020": -88.0 }, "geometry": { "type": "Polygon", "coordinates": [ [ [ -88.289894833104711, 18.494932734501379 ], [ -88.285322359396432, 18.494932734501379 ], [ -88.285322359396432, 18.490833783662971 ], [ -88.289894833104711, 18.490833783662971 ], [ -88.289894833104711, 18.494932734501379 ] ] ] } },
{ "type": "Feature", "properties": { "difference_1990_2000": 0.0, "difference_1990_2010": 1369.0, "difference_1990_2020": 1718.0 }, "geometry": { "type": "Polygon", "coordinates": [ [ [ -88.289894833104711, 18.548227924344513 ], [ -88.285322359396432, 18.548227924344513 ], [ -88.285322359396432, 18.544127711507784 ], [ -88.289894833104711, 18.544127711507763 ], [ -88.289894833104711, 18.548227924344513 ] ] ] } },
{ "type": "Feature", "properties": { "difference_1990_2000": 0.0, "difference_1990_2010": 0.0, "difference_1990_2020": 58.0 }, "geometry": { "type": "Polygon", "coordinates": [ [ [ -88.289894833104711, 18.560529146591243 ], [ -88.285322359396432, 18.560529146591243 ], [ -88.285322359396432, 18.556428641858524 ], [ -88.289894833104711, 18.556428641858471 ], [ -88.289894833104711, 18.560529146591243 ] ] ] } },
{ "type": "Feature", "properties": { "difference_1990_2000": 13.0, "difference_1990_2010": -142.0, "difference_1990_2020": -338.0 }, "geometry": { "type": "Polygon", "coordinates": [ [ [ -88.289894833104711, 18.511329507237363 ], [ -88.285322359396432, 18.511329507237388 ], [ -88.285322359396432, 18.50723016859061 ], [ -88.289894833104711, 18.50723016859061 ], [ -88.289894833104711, 18.511329507237363 ] ] ] } },
{ "type": "Feature", "properties": { "difference_1990_2000": -124.0, "difference_1990_2010": -306.0, "difference_1990_2020": -459.0 }, "geometry": { "type": "Polygon", "coordinates": [ [ [ -88.289894833104711, 18.503130926937462 ], [ -88.285322359396432, 18.503130926937512 ], [ -88.285322359396432, 18.499031782250309 ], [ -88.289894833104711, 18.499031782250313 ], [ -88.289894833104711, 18.503130926937462 ] ] ] } },
{ "type": "Feature", "properties": { "difference_1990_2000": 0.0, "difference_1990_2010": 397.0, "difference_1990_2020": 371.0 }, "geometry": { "type": "Polygon", "coordinates": [ [ [ -88.289894833104711, 18.540027595914143 ], [ -88.285322359396432, 18.540027595914172 ], [ -88.285322359396432, 18.53592757753599 ], [ -88.289894833104711, 18.53592757753599 ], [ -88.289894833104711, 18.540027595914143 ] ] ] } },
{ "type": "Feature", "properties": { "difference_1990_2000": 71.0, "difference_1990_2010": 2101.0, "difference_1990_2020": 1979.0 }, "geometry": { "type": "Polygon", "coordinates": [ [ [ -88.289894833104711, 18.53592757753599 ], [ -88.285322359396432, 18.53592757753599 ], [ -88.285322359396432, 18.531827656345452 ], [ -88.289894833104711, 18.531827656345456 ], [ -88.289894833104711, 18.53592757753599 ] ] ] } },
{ "type": "Feature", "properties": { "difference_1990_2000": 982.0, "difference_1990_2010": 1846.0, "difference_1990_2020": 1794.0 }, "geometry": { "type": "Polygon", "coordinates": [ [ [ -88.289894833104711, 18.531827656345456 ], [ -88.285322359396432, 18.531827656345452 ], [ -88.285322359396432, 18.527727832314913 ], [ -88.289894833104711, 18.527727832314913 ], [ -88.289894833104711, 18.531827656345456 ] ] ] } },
{ "type": "Feature", "properties": { "difference_1990_2000": -111.0, "difference_1990_2010": -220.0, "difference_1990_2020": -278.0 }, "geometry": { "type": "Polygon", "coordinates": [ [ [ -88.289894833104711, 18.523628105416517 ], [ -88.285322359396432, 18.523628105416513 ], [ -88.285322359396432, 18.51952847562259 ], [ -88.289894833104711, 18.519528475622582 ], [ -88.289894833104711, 18.523628105416517 ] ] ] } },
{ "type": "Feature", "properties": { "difference_1990_2000": -123.0, "difference_1990_2010": -263.0, "difference_1990_2020": -343.0 }, "geometry": { "type": "Polygon", "coordinates": [ [ [ -88.289894833104711, 18.519528475622582 ], [ -88.285322359396432, 18.51952847562259 ], [ -88.285322359396432, 18.515428942905483 ], [ -88.289894833104711, 18.51542894290548 ], [ -88.289894833104711, 18.519528475622582 ] ] ] } },
{ "type": "Feature", "properties": { "difference_1990_2000": -71.0, "difference_1990_2010": -208.0, "difference_1990_2020": -327.0 }, "geometry": { "type": "Polygon", "coordinates": [ [ [ -88.289894833104711, 18.51542894290548 ], [ -88.285322359396432, 18.515428942905483 ], [ -88.285322359396432, 18.511329507237388 ], [ -88.289894833104711, 18.511329507237363 ], [ -88.289894833104711, 18.51542894290548 ] ] ] } },
{ "type": "Feature", "properties": { "difference_1990_2000": 0.0, "difference_1990_2010": 40.0, "difference_1990_2020": 239.0 }, "geometry": { "type": "Polygon", "coordinates": [ [ [ -88.289894833104711, 18.544127711507763 ], [ -88.285322359396432, 18.544127711507784 ], [ -88.285322359396432, 18.540027595914172 ], [ -88.289894833104711, 18.540027595914143 ], [ -88.289894833104711, 18.544127711507763 ] ] ] } },
{ "type": "Feature", "properties": { "difference_1990_2000": 0.0, "difference_1990_2010": 38.0, "difference_1990_2020": 185.0 }, "geometry": { "type": "Polygon", "coordinates": [ [ [ -88.280749885688181, 18.55642864185852 ], [ -88.276177411979873, 18.556428641858485 ], [ -88.276177411979873, 18.552328234452197 ], [ -88.280749885688181, 18.552328234452201 ], [ -88.280749885688181, 18.55642864185852 ] ] ] } },
{ "type": "Feature", "properties": { "difference_1990_2000": 0.0, "difference_1990_2010": 2.0, "difference_1990_2020": 1291.0 }, "geometry": { "type": "Polygon", "coordinates": [ [ [ -88.280749885688181, 18.552328234452201 ], [ -88.276177411979873, 18.552328234452197 ], [ -88.276177411979873, 18.548227924344477 ], [ -88.280749885688181, 18.54822792434453 ], [ -88.280749885688181, 18.552328234452201 ] ] ] } },
{ "type": "Feature", "properties": { "difference_1990_2000": 14.0, "difference_1990_2010": -54.0, "difference_1990_2020": -158.0 }, "geometry": { "type": "Polygon", "coordinates": [ [ [ -88.280749885688181, 18.527727832314877 ], [ -88.276177411979873, 18.527727832314856 ], [ -88.276177411979873, 18.52362810541651 ], [ -88.280749885688181, 18.52362810541651 ], [ -88.280749885688181, 18.527727832314877 ] ] ] } },
{ "type": "Feature", "properties": { "difference_1990_2000": 0.0, "difference_1990_2010": 3.0, "difference_1990_2020": 1132.0 }, "geometry": { "type": "Polygon", "coordinates": [ [ [ -88.280749885688181, 18.54822792434453 ], [ -88.276177411979873, 18.548227924344477 ], [ -88.276177411979873, 18.544127711507805 ], [ -88.280749885688181, 18.544127711507784 ], [ -88.280749885688181, 18.54822792434453 ] ] ] } },
{ "type": "Feature", "properties": { "difference_1990_2000": 0.0, "difference_1990_2010": 0.0, "difference_1990_2020": 895.0 }, "geometry": { "type": "Polygon", "coordinates": [ [ [ -88.280749885688181, 18.560529146591243 ], [ -88.276177411979873, 18.560529146591239 ], [ -88.276177411979873, 18.556428641858485 ], [ -88.280749885688181, 18.55642864185852 ], [ -88.280749885688181, 18.560529146591243 ] ] ] } },
{ "type": "Feature", "properties": { "difference_1990_2000": -13.0, "difference_1990_2010": -62.0, "difference_1990_2020": -124.0 }, "geometry": { "type": "Polygon", "coordinates": [ [ [ -88.280749885688181, 18.511329507237388 ], [ -88.276177411979873, 18.51132950723736 ], [ -88.276177411979873, 18.50723016859061 ], [ -88.280749885688181, 18.507230168590606 ], [ -88.280749885688181, 18.511329507237388 ] ] ] } },
{ "type": "Feature", "properties": { "difference_1990_2000": 38.0, "difference_1990_2010": 70.0, "difference_1990_2020": 62.0 }, "geometry": { "type": "Polygon", "coordinates": [ [ [ -88.280749885688181, 18.540027595914179 ], [ -88.276177411979873, 18.540027595914196 ], [ -88.276177411979873, 18.535927577535993 ], [ -88.280749885688181, 18.53592757753599 ], [ -88.280749885688181, 18.540027595914179 ] ] ] } },
{ "type": "Feature", "properties": { "difference_1990_2000": 86.0, "difference_1990_2010": 407.0, "difference_1990_2020": 386.0 }, "geometry": { "type": "Polygon", "coordinates": [ [ [ -88.280749885688181, 18.53592757753599 ], [ -88.276177411979873, 18.535927577535993 ], [ -88.276177411979873, 18.531827656345456 ], [ -88.280749885688181, 18.531827656345456 ], [ -88.280749885688181, 18.53592757753599 ] ] ] } },
{ "type": "Feature", "properties": { "difference_1990_2000": 75.0, "difference_1990_2010": 65.0, "difference_1990_2020": -6.0 }, "geometry": { "type": "Polygon", "coordinates": [ [ [ -88.280749885688181, 18.531827656345456 ], [ -88.276177411979873, 18.531827656345456 ], [ -88.276177411979873, 18.527727832314877 ], [ -88.280749885688181, 18.527727832314905 ], [ -88.280749885688181, 18.531827656345456 ] ] ] } },
{ "type": "Feature", "properties": { "difference_1990_2000": -89.0, "difference_1990_2010": -128.0, "difference_1990_2020": -224.0 }, "geometry": { "type": "Polygon", "coordinates": [ [ [ -88.280749885688181, 18.52362810541651 ], [ -88.276177411979873, 18.52362810541651 ], [ -88.276177411979873, 18.519528475622561 ], [ -88.280749885688181, 18.519528475622586 ], [ -88.280749885688181, 18.52362810541651 ] ] ] } },
{ "type": "Feature", "properties": { "difference_1990_2000": -36.0, "difference_1990_2010": -87.0, "difference_1990_2020": -172.0 }, "geometry": { "type": "Polygon", "coordinates": [ [ [ -88.280749885688181, 18.519528475622586 ], [ -88.276177411979873, 18.519528475622561 ], [ -88.276177411979873, 18.515428942905476 ], [ -88.280749885688181, 18.515428942905476 ], [ -88.280749885688181, 18.519528475622586 ] ] ] } },
{ "type": "Feature", "properties": { "difference_1990_2000": 0.0, "difference_1990_2010": 0.0, "difference_1990_2020": 805.0 }, "geometry": { "type": "Polygon", "coordinates": [ [ [ -88.280749885688181, 18.56462974867814 ], [ -88.276177411979873, 18.56462974867814 ], [ -88.276177411979873, 18.560529146591239 ], [ -88.280749885688181, 18.560529146591243 ], [ -88.280749885688181, 18.56462974867814 ] ] ] } },
{ "type": "Feature", "properties": { "difference_1990_2000": -24.0, "difference_1990_2010": -84.0, "difference_1990_2020": -175.0 }, "geometry": { "type": "Polygon", "coordinates": [ [ [ -88.280749885688181, 18.515428942905476 ], [ -88.276177411979873, 18.515428942905476 ], [ -88.276177411979873, 18.51132950723736 ], [ -88.280749885688181, 18.511329507237388 ], [ -88.280749885688181, 18.515428942905476 ] ] ] } },
{ "type": "Feature", "properties": { "difference_1990_2000": 0.0, "difference_1990_2010": 13.0, "difference_1990_2020": 38.0 }, "geometry": { "type": "Polygon", "coordinates": [ [ [ -88.280749885688181, 18.544127711507784 ], [ -88.276177411979873, 18.544127711507805 ], [ -88.276177411979873, 18.540027595914196 ], [ -88.280749885688181, 18.540027595914179 ], [ -88.280749885688181, 18.544127711507784 ] ] ] } },
{ "type": "Feature", "properties": { "difference_1990_2000": 0.0, "difference_1990_2010": 0.0, "difference_1990_2020": 914.0 }, "geometry": { "type": "Polygon", "coordinates": [ [ [ -88.271604938271622, 18.556428641858489 ], [ -88.267032464563329, 18.556428641858471 ], [ -88.267032464563329, 18.552328234452204 ], [ -88.271604938271622, 18.552328234452169 ], [ -88.271604938271622, 18.556428641858489 ] ] ] } },
{ "type": "Feature", "properties": { "difference_1990_2000": 0.0, "difference_1990_2010": 77.0, "difference_1990_2020": 178.0 }, "geometry": { "type": "Polygon", "coordinates": [ [ [ -88.271604938271622, 18.552328234452169 ], [ -88.267032464563329, 18.552328234452204 ], [ -88.267032464563329, 18.548227924344516 ], [ -88.271604938271622, 18.54822792434452 ], [ -88.271604938271622, 18.552328234452169 ] ] ] } },
{ "type": "Feature", "properties": { "difference_1990_2000": 4.0, "difference_1990_2010": 8.0, "difference_1990_2020": 13.0 }, "geometry": { "type": "Polygon", "coordinates": [ [ [ -88.271604938271622, 18.527727832314859 ], [ -88.267032464563329, 18.527727832314874 ], [ -88.267032464563329, 18.523628105416485 ], [ -88.271604938271622, 18.523628105416488 ], [ -88.271604938271622, 18.527727832314859 ] ] ] } },
{ "type": "Feature", "properties": { "difference_1990_2000": 0.0, "difference_1990_2010": 960.0, "difference_1990_2020": 979.0 }, "geometry": { "type": "Polygon", "coordinates": [ [ [ -88.271604938271622, 18.54822792434452 ], [ -88.267032464563329, 18.548227924344516 ], [ -88.267032464563329, 18.544127711507763 ], [ -88.271604938271622, 18.544127711507784 ], [ -88.271604938271622, 18.54822792434452 ] ] ] } },
{ "type": "Feature", "properties": { "difference_1990_2000": 77.0, "difference_1990_2010": 272.0, "difference_1990_2020": 376.0 }, "geometry": { "type": "Polygon", "coordinates": [ [ [ -88.271604938271622, 18.540027595914179 ], [ -88.267032464563329, 18.540027595914147 ], [ -88.267032464563329, 18.53592757753599 ], [ -88.271604938271622, 18.535927577535993 ], [ -88.271604938271622, 18.540027595914179 ] ] ] } },
{ "type": "Feature", "properties": { "difference_1990_2000": 101.0, "difference_1990_2010": 99.0, "difference_1990_2020": 262.0 }, "geometry": { "type": "Polygon", "coordinates": [ [ [ -88.271604938271622, 18.535927577535993 ], [ -88.267032464563329, 18.53592757753599 ], [ -88.267032464563329, 18.531827656345449 ], [ -88.271604938271622, 18.531827656345452 ], [ -88.271604938271622, 18.535927577535993 ] ] ] } },
{ "type": "Feature", "properties": { "difference_1990_2000": 44.0, "difference_1990_2010": 38.0, "difference_1990_2020": 119.0 }, "geometry": { "type": "Polygon", "coordinates": [ [ [ -88.271604938271622, 18.531827656345452 ], [ -88.267032464563329, 18.531827656345449 ], [ -88.267032464563329, 18.527727832314874 ], [ -88.271604938271622, 18.527727832314877 ], [ -88.271604938271622, 18.531827656345452 ] ] ] } },
{ "type": "Feature", "properties": { "difference_1990_2000": 9.0, "difference_1990_2010": 18.0, "difference_1990_2020": 26.0 }, "geometry": { "type": "Polygon", "coordinates": [ [ [ -88.271604938271622, 18.523628105416488 ], [ -88.267032464563329, 18.523628105416485 ], [ -88.267032464563329, 18.51952847562259 ], [ -88.271604938271622, 18.51952847562259 ], [ -88.271604938271622, 18.523628105416488 ] ] ] } },
{ "type": "Feature", "properties": { "difference_1990_2000": 3.0, "difference_1990_2010": 4.0, "difference_1990_2020": 3.0 }, "geometry": { "type": "Polygon", "coordinates": [ [ [ -88.271604938271622, 18.51952847562259 ], [ -88.267032464563329, 18.51952847562259 ], [ -88.267032464563329, 18.51542894290548 ], [ -88.271604938271622, 18.515428942905483 ], [ -88.271604938271622, 18.51952847562259 ] ] ] } },
{ "type": "Feature", "properties": { "difference_1990_2000": 5.0, "difference_1990_2010": 61.0, "difference_1990_2020": 56.0 }, "geometry": { "type": "Polygon", "coordinates": [ [ [ -88.271604938271622, 18.544127711507784 ], [ -88.267032464563329, 18.544127711507763 ], [ -88.267032464563329, 18.540027595914147 ], [ -88.271604938271622, 18.540027595914179 ], [ -88.271604938271622, 18.544127711507784 ] ] ] } },
{ "type": "Feature", "properties": { "difference_1990_2000": 93.0, "difference_1990_2010": 160.0, "difference_1990_2020": 146.0 }, "geometry": { "type": "Polygon", "coordinates": [ [ [ -88.262459990855049, 18.556428641858485 ], [ -88.25788751714677, 18.556428641858485 ], [ -88.25788751714677, 18.552328234452204 ], [ -88.262459990855049, 18.552328234452162 ], [ -88.262459990855049, 18.556428641858485 ] ] ] } },
{ "type": "Feature", "properties": { "difference_1990_2000": 138.0, "difference_1990_2010": 201.0, "difference_1990_2020": 203.0 }, "geometry": { "type": "Polygon", "coordinates": [ [ [ -88.262459990855049, 18.552328234452162 ], [ -88.25788751714677, 18.552328234452204 ], [ -88.25788751714677, 18.548227924344516 ], [ -88.262459990855049, 18.548227924344516 ], [ -88.262459990855049, 18.552328234452162 ] ] ] } },
{ "type": "Feature", "properties": { "difference_1990_2000": 1.0, "difference_1990_2010": 115.0, "difference_1990_2020": 133.0 }, "geometry": { "type": "Polygon", "coordinates": [ [ [ -88.262459990855049, 18.548227924344516 ], [ -88.25788751714677, 18.548227924344516 ], [ -88.25788751714677, 18.544127711507784 ], [ -88.262459990855049, 18.544127711507784 ], [ -88.262459990855049, 18.548227924344516 ] ] ] } },
{ "type": "Feature", "properties": { "difference_1990_2000": 61.0, "difference_1990_2010": 122.0, "difference_1990_2020": 155.0 }, "geometry": { "type": "Polygon", "coordinates": [ [ [ -88.262459990855049, 18.560529146591247 ], [ -88.25788751714677, 18.560529146591261 ], [ -88.25788751714677, 18.556428641858485 ], [ -88.262459990855049, 18.556428641858485 ], [ -88.262459990855049, 18.560529146591247 ] ] ] } },
{ "type": "Feature", "properties": { "difference_1990_2000": 6.0, "difference_1990_2010": 36.0, "difference_1990_2020": 124.0 }, "geometry": { "type": "Polygon", "coordinates": [ [ [ -88.262459990855049, 18.564629748678136 ], [ -88.25788751714677, 18.564629748678165 ], [ -88.25788751714677, 18.560529146591261 ], [ -88.262459990855049, 18.560529146591247 ], [ -88.262459990855049, 18.564629748678136 ] ] ] } },
{ "type": "Feature", "properties": { "difference_1990_2000": 0.0, "difference_1990_2010": 113.0, "difference_1990_2020": 133.0 }, "geometry": { "type": "Polygon", "coordinates": [ [ [ -88.262459990855049, 18.568730448147029 ], [ -88.25788751714677, 18.56873044814704 ], [ -88.25788751714677, 18.564629748678165 ], [ -88.262459990855049, 18.564629748678136 ], [ -88.262459990855049, 18.568730448147029 ] ] ] } },
{ "type": "Feature", "properties": { "difference_1990_2000": 1.0, "difference_1990_2010": 12.0, "difference_1990_2020": 5.0 }, "geometry": { "type": "Polygon", "coordinates": [ [ [ -88.253315043438519, 18.556428641858485 ], [ -88.24874256973024, 18.556428641858489 ], [ -88.24874256973024, 18.552328234452201 ], [ -88.253315043438519, 18.552328234452201 ], [ -88.253315043438519, 18.556428641858485 ] ] ] } },
{ "type": "Feature", "properties": { "difference_1990_2000": 37.0, "difference_1990_2010": 70.0, "difference_1990_2020": 60.0 }, "geometry": { "type": "Polygon", "coordinates": [ [ [ -88.253315043438519, 18.560529146591243 ], [ -88.24874256973024, 18.560529146591243 ], [ -88.24874256973024, 18.556428641858489 ], [ -88.253315043438519, 18.556428641858485 ], [ -88.253315043438519, 18.560529146591243 ] ] ] } },
{ "type": "Feature", "properties": { "difference_1990_2000": 221.0, "difference_1990_2010": 276.0, "difference_1990_2020": 307.0 }, "geometry": { "type": "Polygon", "coordinates": [ [ [ -88.253315043438519, 18.56462974867814 ], [ -88.24874256973024, 18.564629748678136 ], [ -88.24874256973024, 18.560529146591243 ], [ -88.253315043438519, 18.560529146591243 ], [ -88.253315043438519, 18.56462974867814 ] ] ] } },
{ "type": "Feature", "properties": { "difference_1990_2000": 25.0, "difference_1990_2010": 46.0, "difference_1990_2020": 46.0 }, "geometry": { "type": "Polygon", "coordinates": [ [ [ -88.253315043438519, 18.568730448147026 ], [ -88.24874256973024, 18.568730448147022 ], [ -88.24874256973024, 18.564629748678136 ], [ -88.253315043438519, 18.56462974867814 ], [ -88.253315043438519, 18.568730448147026 ] ] ] } }
]
}
