{
"type": "FeatureCollection",
"name": "M27.01",
"crs": { "type": "name", "properties": { "name": "urn:ogc:def:crs:OGC:1.3:CRS84" } },
"features": [
{ "type": "Feature", "properties": { "difference_1990_2000": 109.0, "difference_1990_2010": 181.0, "difference_1990_2020": 200.0 }, "geometry": { "type": "Polygon", "coordinates": [ [ [ -93.077274805669873, 17.958785059926608 ], [ -93.072702331961594, 17.958785059926626 ], [ -93.072702331961594, 17.954698566987219 ], [ -93.077274805669873, 17.954698566987211 ], [ -93.077274805669873, 17.958785059926608 ] ] ] } },
{ "type": "Feature", "properties": { "difference_1990_2000": 108.0, "difference_1990_2010": 181.0, "difference_1990_2020": 200.0 }, "geometry": { "type": "Polygon", "coordinates": [ [ [ -93.077274805669873, 17.954698566987211 ], [ -93.072702331961594, 17.954698566987219 ], [ -93.072702331961594, 17.950612167349242 ], [ -93.077274805669873, 17.950612167349234 ], [ -93.077274805669873, 17.954698566987211 ] ] ] } },
{ "type": "Feature", "properties": { "difference_1990_2000": 91.0, "difference_1990_2010": 151.0, "difference_1990_2020": 167.0 }, "geometry": { "type": "Polygon", "coordinates": [ [ [ -93.077274805669873, 17.962871646194497 ], [ -93.072702331961594, 17.9628716461945 ], [ -93.072702331961594, 17.958785059926626 ], [ -93.077274805669873, 17.958785059926608 ], [ -93.077274805669873, 17.962871646194497 ] ] ] } },
{ "type": "Feature", "properties": { "difference_1990_2000": 67.0, "difference_1990_2010": 111.0, "difference_1990_2020": 123.0 }, "geometry": { "type": "Polygon", "coordinates": [ [ [ -93.077274805669873, 17.950612167349234 ], [ -93.072702331961594, 17.950612167349242 ], [ -93.072702331961594, 17.946525860985673 ], [ -93.077274805669873, 17.946525860985673 ], [ -93.077274805669873, 17.950612167349234 ] ] ] } },
{ "type": "Feature", "properties": { "difference_1990_2000": 94.0, "difference_1990_2010": 157.0, "difference_1990_2020": 173.0 }, "geometry": { "type": "Polygon", "coordinates": [ [ [ -93.068129858253343, 17.958785059926623 ], [ -93.063557384545035, 17.958785059926605 ], [ -93.063557384545035, 17.954698566987194 ], [ -93.068129858253343, 17.954698566987219 ], [ -93.068129858253343, 17.958785059926623 ] ] ] } },
{ "type": "Feature", "properties": { "difference_1990_2000": 109.0, "difference_1990_2010": 181.0, "difference_1990_2020": 200.0 }, "geometry": { "type": "Polygon", "coordinates": [ [ [ -93.068129858253343, 17.966958325817842 ], [ -93.063557384545035, 17.966958325817842 ], [ -93.063557384545035, 17.962871646194532 ], [ -93.068129858253343, 17.9628716461945 ], [ -93.068129858253343, 17.966958325817842 ] ] ] } },
{ "type": "Feature", "properties": { "difference_1990_2000": 16.0, "difference_1990_2010": 26.0, "difference_1990_2020": 29.0 }, "geometry": { "type": "Polygon", "coordinates": [ [ [ -93.068129858253343, 17.971045098823694 ], [ -93.063557384545035, 17.97104509882363 ], [ -93.063557384545035, 17.966958325817842 ], [ -93.068129858253343, 17.966958325817842 ], [ -93.068129858253343, 17.971045098823694 ] ] ] } },
{ "type": "Feature", "properties": { "difference_1990_2000": 109.0, "difference_1990_2010": 181.0, "difference_1990_2020": 200.0 }, "geometry": { "type": "Polygon", "coordinates": [ [ [ -93.068129858253343, 17.9628716461945 ], [ -93.063557384545035, 17.962871646194532 ], [ -93.063557384545035, 17.958785059926605 ], [ -93.068129858253343, 17.958785059926623 ], [ -93.068129858253343, 17.9628716461945 ] ] ] } },
{ "type": "Feature", "properties": { "difference_1990_2000": 39.0, "difference_1990_2010": 63.0, "difference_1990_2020": 72.0 }, "geometry": { "type": "Polygon", "coordinates": [ [ [ -93.058984910836784, 17.958785059926626 ], [ -93.054412437128505, 17.958785059926626 ], [ -93.054412437128505, 17.954698566987215 ], [ -93.058984910836784, 17.954698566987219 ], [ -93.058984910836784, 17.958785059926626 ] ] ] } },
{ "type": "Feature", "properties": { "difference_1990_2000": 51.0, "difference_1990_2010": 85.0, "difference_1990_2020": 94.0 }, "geometry": { "type": "Polygon", "coordinates": [ [ [ -93.058984910836784, 17.975131965238962 ], [ -93.054412437128505, 17.975131965238994 ], [ -93.054412437128505, 17.971045098823666 ], [ -93.058984910836784, 17.971045098823669 ], [ -93.058984910836784, 17.975131965238962 ] ] ] } },
{ "type": "Feature", "properties": { "difference_1990_2000": 104.0, "difference_1990_2010": 174.0, "difference_1990_2020": 192.0 }, "geometry": { "type": "Polygon", "coordinates": [ [ [ -93.058984910836784, 17.971045098823669 ], [ -93.054412437128505, 17.971045098823666 ], [ -93.054412437128505, 17.966958325817842 ], [ -93.058984910836784, 17.966958325817842 ], [ -93.058984910836784, 17.971045098823669 ] ] ] } },
{ "type": "Feature", "properties": { "difference_1990_2000": 109.0, "difference_1990_2010": 181.0, "difference_1990_2020": 200.0 }, "geometry": { "type": "Polygon", "coordinates": [ [ [ -93.058984910836784, 17.966958325817842 ], [ -93.054412437128505, 17.966958325817842 ], [ -93.054412437128505, 17.962871646194497 ], [ -93.058984910836784, 17.9628716461945 ], [ -93.058984910836784, 17.966958325817842 ] ] ] } },
{ "type": "Feature", "properties": { "difference_1990_2000": 109.0, "difference_1990_2010": 181.0, "difference_1990_2020": 200.0 }, "geometry": { "type": "Polygon", "coordinates": [ [ [ -93.058984910836784, 17.9628716461945 ], [ -93.054412437128505, 17.962871646194497 ], [ -93.054412437128505, 17.958785059926626 ], [ -93.058984910836784, 17.958785059926626 ], [ -93.058984910836784, 17.9628716461945 ] ] ] } },
{ "type": "Feature", "properties": { "difference_1990_2000": 4.0, "difference_1990_2010": 6.0, "difference_1990_2020": 7.0 }, "geometry": { "type": "Polygon", "coordinates": [ [ [ -93.058984910836784, 17.97921892509083 ], [ -93.054412437128505, 17.979218925090827 ], [ -93.054412437128505, 17.975131965238994 ], [ -93.058984910836784, 17.975131965238962 ], [ -93.058984910836784, 17.97921892509083 ] ] ] } },
{ "type": "Feature", "properties": { "difference_1990_2000": 103.0, "difference_1990_2010": 171.0, "difference_1990_2020": 189.0 }, "geometry": { "type": "Polygon", "coordinates": [ [ [ -93.049839963420226, 17.975131965238969 ], [ -93.045267489711946, 17.975131965238951 ], [ -93.045267489711946, 17.971045098823666 ], [ -93.049839963420226, 17.971045098823666 ], [ -93.049839963420226, 17.975131965238969 ] ] ] } },
{ "type": "Feature", "properties": { "difference_1990_2000": 109.0, "difference_1990_2010": 181.0, "difference_1990_2020": 200.0 }, "geometry": { "type": "Polygon", "coordinates": [ [ [ -93.049839963420226, 17.971045098823666 ], [ -93.045267489711946, 17.971045098823666 ], [ -93.045267489711946, 17.966958325817828 ], [ -93.049839963420226, 17.966958325817846 ], [ -93.049839963420226, 17.971045098823666 ] ] ] } },
{ "type": "Feature", "properties": { "difference_1990_2000": 90.0, "difference_1990_2010": 118.0, "difference_1990_2020": 166.0 }, "geometry": { "type": "Polygon", "coordinates": [ [ [ -93.049839963420226, 17.966958325817846 ], [ -93.045267489711946, 17.966958325817828 ], [ -93.045267489711946, 17.962871646194504 ], [ -93.049839963420226, 17.962871646194547 ], [ -93.049839963420226, 17.966958325817846 ] ] ] } },
{ "type": "Feature", "properties": { "difference_1990_2000": 39.0, "difference_1990_2010": 65.0, "difference_1990_2020": 72.0 }, "geometry": { "type": "Polygon", "coordinates": [ [ [ -93.049839963420226, 17.979218925090827 ], [ -93.045267489711946, 17.979218925090787 ], [ -93.045267489711946, 17.975131965238951 ], [ -93.049839963420226, 17.975131965238969 ], [ -93.049839963420226, 17.979218925090827 ] ] ] } },
{ "type": "Feature", "properties": { "difference_1990_2000": 1.0, "difference_1990_2010": 1.0, "difference_1990_2020": 2.0 }, "geometry": { "type": "Polygon", "coordinates": [ [ [ -93.049839963420226, 17.962871646194547 ], [ -93.045267489711946, 17.962871646194504 ], [ -93.045267489711946, 17.958785059926626 ], [ -93.049839963420226, 17.958785059926626 ], [ -93.049839963420226, 17.962871646194547 ] ] ] } },
{ "type": "Feature", "properties": { "difference_1990_2000": 82.0, "difference_1990_2010": 134.0, "difference_1990_2020": 151.0 }, "geometry": { "type": "Polygon", "coordinates": [ [ [ -93.040695016003681, 17.975131965238965 ], [ -93.036122542295374, 17.975131965238965 ], [ -93.036122542295374, 17.971045098823666 ], [ -93.040695016003681, 17.971045098823623 ], [ -93.040695016003681, 17.975131965238965 ] ] ] } },
{ "type": "Feature", "properties": { "difference_1990_2000": 28.0, "difference_1990_2010": 25.0, "difference_1990_2020": 52.0 }, "geometry": { "type": "Polygon", "coordinates": [ [ [ -93.040695016003681, 17.971045098823623 ], [ -93.036122542295374, 17.971045098823666 ], [ -93.036122542295374, 17.966958325817878 ], [ -93.040695016003681, 17.966958325817842 ], [ -93.040695016003681, 17.971045098823623 ] ] ] } },
{ "type": "Feature", "properties": { "difference_1990_2000": 4.0, "difference_1990_2010": 6.0, "difference_1990_2020": 7.0 }, "geometry": { "type": "Polygon", "coordinates": [ [ [ -93.040695016003681, 17.97921892509083 ], [ -93.036122542295374, 17.979218925090827 ], [ -93.036122542295374, 17.975131965238965 ], [ -93.040695016003681, 17.975131965238965 ], [ -93.040695016003681, 17.97921892509083 ] ] ] } },
{ "type": "Feature", "properties": { "difference_1990_2000": 89.0, "difference_1990_2010": 148.0, "difference_1990_2020": 163.0 }, "geometry": { "type": "Polygon", "coordinates": [ [ [ -93.031550068587123, 17.975131965238965 ], [ -93.026977594878844, 17.975131965238969 ], [ -93.026977594878844, 17.971045098823669 ], [ -93.031550068587123, 17.971045098823669 ], [ -93.031550068587123, 17.975131965238965 ] ] ] } },
{ "type": "Feature", "properties": { "difference_1990_2000": 5.0, "difference_1990_2010": 8.0, "difference_1990_2020": 9.0 }, "geometry": { "type": "Polygon", "coordinates": [ [ [ -93.031550068587123, 17.971045098823669 ], [ -93.026977594878844, 17.971045098823669 ], [ -93.026977594878844, 17.966958325817881 ], [ -93.031550068587123, 17.966958325817842 ], [ -93.031550068587123, 17.971045098823669 ] ] ] } },
{ "type": "Feature", "properties": { "difference_1990_2000": 12.0, "difference_1990_2010": 19.0, "difference_1990_2020": 21.0 }, "geometry": { "type": "Polygon", "coordinates": [ [ [ -93.031550068587123, 17.966958325817842 ], [ -93.026977594878844, 17.966958325817881 ], [ -93.026977594878844, 17.9628716461945 ], [ -93.031550068587123, 17.9628716461945 ], [ -93.031550068587123, 17.966958325817842 ] ] ] } },
{ "type": "Feature", "properties": { "difference_1990_2000": 7.0, "difference_1990_2010": 11.0, "difference_1990_2020": 13.0 }, "geometry": { "type": "Polygon", "coordinates": [ [ [ -93.031550068587123, 17.9628716461945 ], [ -93.026977594878844, 17.9628716461945 ], [ -93.026977594878844, 17.958785059926605 ], [ -93.031550068587123, 17.95878505992663 ], [ -93.031550068587123, 17.9628716461945 ] ] ] } },
{ "type": "Feature", "properties": { "difference_1990_2000": 53.0, "difference_1990_2010": 87.0, "difference_1990_2020": 95.0 }, "geometry": { "type": "Polygon", "coordinates": [ [ [ -93.031550068587123, 17.979218925090827 ], [ -93.026977594878844, 17.979218925090827 ], [ -93.026977594878844, 17.975131965238969 ], [ -93.031550068587123, 17.975131965238965 ], [ -93.031550068587123, 17.979218925090827 ] ] ] } },
{ "type": "Feature", "properties": { "difference_1990_2000": 0.0, "difference_1990_2010": 1559.0, "difference_1990_2020": 1867.0 }, "geometry": { "type": "Polygon", "coordinates": [ [ [ -93.022405121170564, 17.958785059926608 ], [ -93.017832647462285, 17.958785059926612 ], [ -93.017832647462285, 17.954698566987194 ], [ -93.022405121170564, 17.95469856698719 ], [ -93.022405121170564, 17.958785059926608 ] ] ] } },
{ "type": "Feature", "properties": { "difference_1990_2000": 255.0, "difference_1990_2010": 393.0, "difference_1990_2020": 417.0 }, "geometry": { "type": "Polygon", "coordinates": [ [ [ -93.022405121170564, 17.975131965238948 ], [ -93.017832647462285, 17.975131965238965 ], [ -93.017832647462285, 17.971045098823669 ], [ -93.022405121170564, 17.971045098823627 ], [ -93.022405121170564, 17.975131965238948 ] ] ] } },
{ "type": "Feature", "properties": { "difference_1990_2000": 55.0, "difference_1990_2010": 85.0, "difference_1990_2020": 90.0 }, "geometry": { "type": "Polygon", "coordinates": [ [ [ -93.022405121170564, 17.983305978406221 ], [ -93.017832647462285, 17.983305978406229 ], [ -93.017832647462285, 17.979218925090834 ], [ -93.022405121170564, 17.979218925090827 ], [ -93.022405121170564, 17.983305978406221 ] ] ] } },
{ "type": "Feature", "properties": { "difference_1990_2000": 309.0, "difference_1990_2010": 477.0, "difference_1990_2020": 506.0 }, "geometry": { "type": "Polygon", "coordinates": [ [ [ -93.022405121170564, 17.971045098823627 ], [ -93.017832647462285, 17.971045098823669 ], [ -93.017832647462285, 17.966958325817842 ], [ -93.022405121170564, 17.966958325817842 ], [ -93.022405121170564, 17.971045098823627 ] ] ] } },
{ "type": "Feature", "properties": { "difference_1990_2000": 0.0, "difference_1990_2010": 644.0, "difference_1990_2020": 607.0 }, "geometry": { "type": "Polygon", "coordinates": [ [ [ -93.022405121170564, 17.95469856698719 ], [ -93.017832647462285, 17.954698566987194 ], [ -93.017832647462285, 17.950612167349238 ], [ -93.022405121170564, 17.950612167349245 ], [ -93.022405121170564, 17.95469856698719 ] ] ] } },
{ "type": "Feature", "properties": { "difference_1990_2000": 278.0, "difference_1990_2010": 456.0, "difference_1990_2020": 530.0 }, "geometry": { "type": "Polygon", "coordinates": [ [ [ -93.022405121170564, 17.966958325817842 ], [ -93.017832647462285, 17.966958325817842 ], [ -93.017832647462285, 17.9628716461945 ], [ -93.022405121170564, 17.9628716461945 ], [ -93.022405121170564, 17.966958325817842 ] ] ] } },
{ "type": "Feature", "properties": { "difference_1990_2000": 10.0, "difference_1990_2010": 455.0, "difference_1990_2020": 1305.0 }, "geometry": { "type": "Polygon", "coordinates": [ [ [ -93.022405121170564, 17.9628716461945 ], [ -93.017832647462285, 17.9628716461945 ], [ -93.017832647462285, 17.958785059926612 ], [ -93.022405121170564, 17.958785059926608 ], [ -93.022405121170564, 17.9628716461945 ] ] ] } },
{ "type": "Feature", "properties": { "difference_1990_2000": 63.0, "difference_1990_2010": 98.0, "difference_1990_2020": 104.0 }, "geometry": { "type": "Polygon", "coordinates": [ [ [ -93.022405121170564, 17.979218925090827 ], [ -93.017832647462285, 17.979218925090834 ], [ -93.017832647462285, 17.975131965238965 ], [ -93.022405121170564, 17.975131965238948 ], [ -93.022405121170564, 17.979218925090827 ] ] ] } },
{ "type": "Feature", "properties": { "difference_1990_2000": 4.0, "difference_1990_2010": 6.0, "difference_1990_2020": 6.0 }, "geometry": { "type": "Polygon", "coordinates": [ [ [ -93.022405121170564, 17.987393125212215 ], [ -93.017832647462285, 17.987393125212218 ], [ -93.017832647462285, 17.983305978406229 ], [ -93.022405121170564, 17.983305978406221 ], [ -93.022405121170564, 17.987393125212215 ] ] ] } },
{ "type": "Feature", "properties": { "difference_1990_2000": 6.0, "difference_1990_2010": 23.0, "difference_1990_2020": 16.0 }, "geometry": { "type": "Polygon", "coordinates": [ [ [ -93.01326017375402, 17.958785059926626 ], [ -93.008687700045741, 17.958785059926626 ], [ -93.008687700045741, 17.954698566987215 ], [ -93.01326017375402, 17.954698566987215 ], [ -93.01326017375402, 17.958785059926626 ] ] ] } },
{ "type": "Feature", "properties": { "difference_1990_2000": 156.0, "difference_1990_2010": 242.0, "difference_1990_2020": 256.0 }, "geometry": { "type": "Polygon", "coordinates": [ [ [ -93.01326017375402, 17.971045098823666 ], [ -93.008687700045741, 17.97104509882363 ], [ -93.008687700045741, 17.966958325817878 ], [ -93.01326017375402, 17.966958325817846 ], [ -93.01326017375402, 17.971045098823666 ] ] ] } },
{ "type": "Feature", "properties": { "difference_1990_2000": 278.0, "difference_1990_2010": 576.0, "difference_1990_2020": 521.0 }, "geometry": { "type": "Polygon", "coordinates": [ [ [ -93.01326017375402, 17.966958325817846 ], [ -93.008687700045741, 17.966958325817878 ], [ -93.008687700045741, 17.9628716461945 ], [ -93.01326017375402, 17.9628716461945 ], [ -93.01326017375402, 17.966958325817846 ] ] ] } },
{ "type": "Feature", "properties": { "difference_1990_2000": 200.0, "difference_1990_2010": 774.0, "difference_1990_2020": 535.0 }, "geometry": { "type": "Polygon", "coordinates": [ [ [ -93.01326017375402, 17.9628716461945 ], [ -93.008687700045741, 17.9628716461945 ], [ -93.008687700045741, 17.958785059926626 ], [ -93.01326017375402, 17.958785059926626 ], [ -93.01326017375402, 17.9628716461945 ] ] ] } },
{ "type": "Feature", "properties": { "difference_1990_2000": 53.0, "difference_1990_2010": 828.0, "difference_1990_2020": 755.0 }, "geometry": { "type": "Polygon", "coordinates": [ [ [ -93.004115226337461, 17.958785059926658 ], [ -92.999542752629182, 17.95878505992663 ], [ -92.999542752629182, 17.954698566987215 ], [ -93.004115226337461, 17.954698566987211 ], [ -93.004115226337461, 17.958785059926658 ] ] ] } },
{ "type": "Feature", "properties": { "difference_1990_2000": 91.0, "difference_1990_2010": 354.0, "difference_1990_2020": 245.0 }, "geometry": { "type": "Polygon", "coordinates": [ [ [ -93.004115226337461, 17.966958325817846 ], [ -92.999542752629182, 17.966958325817838 ], [ -92.999542752629182, 17.9628716461945 ], [ -93.004115226337461, 17.9628716461945 ], [ -93.004115226337461, 17.966958325817846 ] ] ] } },
{ "type": "Feature", "properties": { "difference_1990_2000": 196.0, "difference_1990_2010": 874.0, "difference_1990_2020": 638.0 }, "geometry": { "type": "Polygon", "coordinates": [ [ [ -93.004115226337461, 17.9628716461945 ], [ -92.999542752629182, 17.9628716461945 ], [ -92.999542752629182, 17.95878505992663 ], [ -93.004115226337461, 17.958785059926658 ], [ -93.004115226337461, 17.9628716461945 ] ] ] } },
{ "type": "Feature", "properties": { "difference_1990_2000": 2.0, "difference_1990_2010": 9.0, "difference_1990_2020": 6.0 }, "geometry": { "type": "Polygon", "coordinates": [ [ [ -92.994970278920874, 17.958785059926605 ], [ -92.990397805212595, 17.95878505992663 ], [ -92.990397805212595, 17.954698566987219 ], [ -92.994970278920874, 17.954698566987215 ], [ -92.994970278920874, 17.958785059926605 ] ] ] } },
{ "type": "Feature", "properties": { "difference_1990_2000": 33.0, "difference_1990_2010": 478.0, "difference_1990_2020": 487.0 }, "geometry": { "type": "Polygon", "coordinates": [ [ [ -92.994970278920874, 17.975131965238965 ], [ -92.990397805212595, 17.975131965238969 ], [ -92.990397805212595, 17.971045098823694 ], [ -92.994970278920874, 17.971045098823666 ], [ -92.994970278920874, 17.975131965238965 ] ] ] } },
{ "type": "Feature", "properties": { "difference_1990_2000": 677.0, "difference_1990_2010": 2395.0, "difference_1990_2020": 2384.0 }, "geometry": { "type": "Polygon", "coordinates": [ [ [ -92.994970278920874, 17.971045098823666 ], [ -92.990397805212595, 17.971045098823694 ], [ -92.990397805212595, 17.966958325817881 ], [ -92.994970278920874, 17.966958325817842 ], [ -92.994970278920874, 17.971045098823666 ] ] ] } },
{ "type": "Feature", "properties": { "difference_1990_2000": 16.0, "difference_1990_2010": 25.0, "difference_1990_2020": 29.0 }, "geometry": { "type": "Polygon", "coordinates": [ [ [ -92.994970278920874, 17.954698566987215 ], [ -92.990397805212595, 17.954698566987219 ], [ -92.990397805212595, 17.950612167349252 ], [ -92.994970278920874, 17.950612167349242 ], [ -92.994970278920874, 17.954698566987215 ] ] ] } },
{ "type": "Feature", "properties": { "difference_1990_2000": 222.0, "difference_1990_2010": 818.0, "difference_1990_2020": 682.0 }, "geometry": { "type": "Polygon", "coordinates": [ [ [ -92.994970278920874, 17.966958325817842 ], [ -92.990397805212595, 17.966958325817881 ], [ -92.990397805212595, 17.962871646194554 ], [ -92.994970278920874, 17.9628716461945 ], [ -92.994970278920874, 17.966958325817842 ] ] ] } },
{ "type": "Feature", "properties": { "difference_1990_2000": 144.0, "difference_1990_2010": 558.0, "difference_1990_2020": 386.0 }, "geometry": { "type": "Polygon", "coordinates": [ [ [ -92.994970278920874, 17.9628716461945 ], [ -92.990397805212595, 17.962871646194554 ], [ -92.990397805212595, 17.95878505992663 ], [ -92.994970278920874, 17.958785059926605 ], [ -92.994970278920874, 17.9628716461945 ] ] ] } },
{ "type": "Feature", "properties": { "difference_1990_2000": -2.0, "difference_1990_2010": 17.0, "difference_1990_2020": 18.0 }, "geometry": { "type": "Polygon", "coordinates": [ [ [ -92.994970278920874, 17.979218925090834 ], [ -92.990397805212595, 17.979218925090827 ], [ -92.990397805212595, 17.975131965238969 ], [ -92.994970278920874, 17.975131965238965 ], [ -92.994970278920874, 17.979218925090834 ] ] ] } },
{ "type": "Feature", "properties": { "difference_1990_2000": 6.0, "difference_1990_2010": 10.0, "difference_1990_2020": 12.0 }, "geometry": { "type": "Polygon", "coordinates": [ [ [ -92.994970278920874, 17.950612167349242 ], [ -92.990397805212595, 17.950612167349252 ], [ -92.990397805212595, 17.946525860985677 ], [ -92.994970278920874, 17.946525860985677 ], [ -92.994970278920874, 17.950612167349242 ] ] ] } },
{ "type": "Feature", "properties": { "difference_1990_2000": 234.0, "difference_1990_2010": 369.0, "difference_1990_2020": 425.0 }, "geometry": { "type": "Polygon", "coordinates": [ [ [ -92.985825331504358, 17.958785059926626 ], [ -92.981252857796079, 17.958785059926608 ], [ -92.981252857796079, 17.954698566987194 ], [ -92.985825331504358, 17.954698566987215 ], [ -92.985825331504358, 17.958785059926626 ] ] ] } },
{ "type": "Feature", "properties": { "difference_1990_2000": 1441.0, "difference_1990_2010": 1637.0, "difference_1990_2020": 1708.0 }, "geometry": { "type": "Polygon", "coordinates": [ [ [ -92.985825331504358, 17.975131965238962 ], [ -92.981252857796079, 17.975131965238969 ], [ -92.981252857796079, 17.971045098823669 ], [ -92.985825331504358, 17.971045098823669 ], [ -92.985825331504358, 17.975131965238962 ] ] ] } },
{ "type": "Feature", "properties": { "difference_1990_2000": 45.0, "difference_1990_2010": 225.0, "difference_1990_2020": 232.0 }, "geometry": { "type": "Polygon", "coordinates": [ [ [ -92.985825331504358, 17.983305978406239 ], [ -92.981252857796079, 17.983305978406197 ], [ -92.981252857796079, 17.97921892509083 ], [ -92.985825331504358, 17.97921892509083 ], [ -92.985825331504358, 17.983305978406239 ] ] ] } },
{ "type": "Feature", "properties": { "difference_1990_2000": 276.0, "difference_1990_2010": 434.0, "difference_1990_2020": 500.0 }, "geometry": { "type": "Polygon", "coordinates": [ [ [ -92.985825331504358, 17.946525860985677 ], [ -92.981252857796079, 17.946525860985677 ], [ -92.981252857796079, 17.94243964786958 ], [ -92.985825331504358, 17.94243964786958 ], [ -92.985825331504358, 17.946525860985677 ] ] ] } },
{ "type": "Feature", "properties": { "difference_1990_2000": 147.0, "difference_1990_2010": 467.0, "difference_1990_2020": 164.0 }, "geometry": { "type": "Polygon", "coordinates": [ [ [ -92.985825331504358, 17.971045098823669 ], [ -92.981252857796079, 17.971045098823669 ], [ -92.981252857796079, 17.966958325817846 ], [ -92.985825331504358, 17.966958325817846 ], [ -92.985825331504358, 17.971045098823669 ] ] ] } },
{ "type": "Feature", "properties": { "difference_1990_2000": 48.0, "difference_1990_2010": 76.0, "difference_1990_2020": 87.0 }, "geometry": { "type": "Polygon", "coordinates": [ [ [ -92.985825331504358, 17.954698566987215 ], [ -92.981252857796079, 17.954698566987194 ], [ -92.981252857796079, 17.950612167349238 ], [ -92.985825331504358, 17.950612167349252 ], [ -92.985825331504358, 17.954698566987215 ] ] ] } },
{ "type": "Feature", "properties": { "difference_1990_2000": 231.0, "difference_1990_2010": 364.0, "difference_1990_2020": 419.0 }, "geometry": { "type": "Polygon", "coordinates": [ [ [ -92.985825331504358, 17.966958325817846 ], [ -92.981252857796079, 17.966958325817846 ], [ -92.981252857796079, 17.962871646194483 ], [ -92.985825331504358, 17.962871646194504 ], [ -92.985825331504358, 17.966958325817846 ] ] ] } },
{ "type": "Feature", "properties": { "difference_1990_2000": 278.0, "difference_1990_2010": 437.0, "difference_1990_2020": 503.0 }, "geometry": { "type": "Polygon", "coordinates": [ [ [ -92.985825331504358, 17.962871646194504 ], [ -92.981252857796079, 17.962871646194483 ], [ -92.981252857796079, 17.958785059926608 ], [ -92.985825331504358, 17.958785059926626 ], [ -92.985825331504358, 17.962871646194504 ] ] ] } },
{ "type": "Feature", "properties": { "difference_1990_2000": 441.0, "difference_1990_2010": 594.0, "difference_1990_2020": 615.0 }, "geometry": { "type": "Polygon", "coordinates": [ [ [ -92.985825331504358, 17.97921892509083 ], [ -92.981252857796079, 17.97921892509083 ], [ -92.981252857796079, 17.975131965238969 ], [ -92.985825331504358, 17.975131965238962 ], [ -92.985825331504358, 17.97921892509083 ] ] ] } },
{ "type": "Feature", "properties": { "difference_1990_2000": 82.0, "difference_1990_2010": 130.0, "difference_1990_2020": 149.0 }, "geometry": { "type": "Polygon", "coordinates": [ [ [ -92.985825331504358, 17.950612167349252 ], [ -92.981252857796079, 17.950612167349238 ], [ -92.981252857796079, 17.946525860985677 ], [ -92.985825331504358, 17.946525860985677 ], [ -92.985825331504358, 17.950612167349252 ] ] ] } },
{ "type": "Feature", "properties": { "difference_1990_2000": 0.0, "difference_1990_2010": 0.0, "difference_1990_2020": 515.0 }, "geometry": { "type": "Polygon", "coordinates": [ [ [ -92.9766803840878, 18.011917970865483 ], [ -92.97210791037952, 18.011917970865465 ], [ -92.97210791037952, 18.007830262547802 ], [ -92.9766803840878, 18.007830262547785 ], [ -92.9766803840878, 18.011917970865483 ] ] ] } },
{ "type": "Feature", "properties": { "difference_1990_2000": 169.0, "difference_1990_2010": 245.0, "difference_1990_2020": 111.0 }, "geometry": { "type": "Polygon", "coordinates": [ [ [ -92.9766803840878, 17.975131965238951 ], [ -92.97210791037952, 17.975131965238965 ], [ -92.97210791037952, 17.971045098823669 ], [ -92.9766803840878, 17.97104509882363 ], [ -92.9766803840878, 17.975131965238951 ] ] ] } },
{ "type": "Feature", "properties": { "difference_1990_2000": 92.0, "difference_1990_2010": 142.0, "difference_1990_2020": 40.0 }, "geometry": { "type": "Polygon", "coordinates": [ [ [ -92.9766803840878, 17.983305978406225 ], [ -92.97210791037952, 17.983305978406239 ], [ -92.97210791037952, 17.97921892509083 ], [ -92.9766803840878, 17.97921892509083 ], [ -92.9766803840878, 17.983305978406225 ] ] ] } },
{ "type": "Feature", "properties": { "difference_1990_2000": 177.0, "difference_1990_2010": 277.0, "difference_1990_2020": 300.0 }, "geometry": { "type": "Polygon", "coordinates": [ [ [ -92.9766803840878, 17.97104509882363 ], [ -92.97210791037952, 17.971045098823669 ], [ -92.97210791037952, 17.966958325817838 ], [ -92.9766803840878, 17.966958325817842 ], [ -92.9766803840878, 17.97104509882363 ] ] ] } },
{ "type": "Feature", "properties": { "difference_1990_2000": 2.0, "difference_1990_2010": 4.0, "difference_1990_2020": 4.0 }, "geometry": { "type": "Polygon", "coordinates": [ [ [ -92.9766803840878, 17.966958325817842 ], [ -92.97210791037952, 17.966958325817838 ], [ -92.97210791037952, 17.9628716461945 ], [ -92.9766803840878, 17.962871646194483 ], [ -92.9766803840878, 17.966958325817842 ] ] ] } },
{ "type": "Feature", "properties": { "difference_1990_2000": 0.0, "difference_1990_2010": 0.0, "difference_1990_2020": 74.0 }, "geometry": { "type": "Polygon", "coordinates": [ [ [ -92.9766803840878, 18.016005772863128 ], [ -92.97210791037952, 18.016005772863149 ], [ -92.97210791037952, 18.011917970865465 ], [ -92.9766803840878, 18.011917970865483 ], [ -92.9766803840878, 18.016005772863128 ] ] ] } },
{ "type": "Feature", "properties": { "difference_1990_2000": 264.0, "difference_1990_2010": 370.0, "difference_1990_2020": 228.0 }, "geometry": { "type": "Polygon", "coordinates": [ [ [ -92.9766803840878, 17.97921892509083 ], [ -92.97210791037952, 17.97921892509083 ], [ -92.97210791037952, 17.975131965238965 ], [ -92.9766803840878, 17.975131965238951 ], [ -92.9766803840878, 17.97921892509083 ] ] ] } },
{ "type": "Feature", "properties": { "difference_1990_2000": 0.0, "difference_1990_2010": 0.0, "difference_1990_2020": 1.0 }, "geometry": { "type": "Polygon", "coordinates": [ [ [ -92.9766803840878, 18.007830262547785 ], [ -92.97210791037952, 18.007830262547802 ], [ -92.97210791037952, 18.003742647883097 ], [ -92.9766803840878, 18.003742647883101 ], [ -92.9766803840878, 18.007830262547785 ] ] ] } },
{ "type": "Feature", "properties": { "difference_1990_2000": 31.0, "difference_1990_2010": 48.0, "difference_1990_2020": 47.0 }, "geometry": { "type": "Polygon", "coordinates": [ [ [ -92.967535436671255, 18.011917970865479 ], [ -92.962962962962976, 18.011917970865479 ], [ -92.962962962962976, 18.007830262547795 ], [ -92.967535436671255, 18.007830262547795 ], [ -92.967535436671255, 18.011917970865479 ] ] ] } },
{ "type": "Feature", "properties": { "difference_1990_2000": -75.0, "difference_1990_2010": -11.0, "difference_1990_2020": -54.0 }, "geometry": { "type": "Polygon", "coordinates": [ [ [ -92.967535436671255, 17.995567699404194 ], [ -92.962962962962976, 17.995567699404191 ], [ -92.962962962962976, 17.991480365535871 ], [ -92.967535436671255, 17.991480365535871 ], [ -92.967535436671255, 17.995567699404194 ] ] ] } },
{ "type": "Feature", "properties": { "difference_1990_2000": 11.0, "difference_1990_2010": 0.0, "difference_1990_2020": 1.0 }, "geometry": { "type": "Polygon", "coordinates": [ [ [ -92.967535436671255, 18.003742647883097 ], [ -92.962962962962976, 18.003742647883097 ], [ -92.962962962962976, 17.999655126844225 ], [ -92.967535436671255, 17.999655126844225 ], [ -92.967535436671255, 18.003742647883097 ] ] ] } },
{ "type": "Feature", "properties": { "difference_1990_2000": -81.0, "difference_1990_2010": -47.0, "difference_1990_2020": -26.0 }, "geometry": { "type": "Polygon", "coordinates": [ [ [ -92.967535436671255, 17.958785059926658 ], [ -92.962962962962976, 17.958785059926619 ], [ -92.962962962962976, 17.954698566987215 ], [ -92.967535436671255, 17.954698566987219 ], [ -92.967535436671255, 17.958785059926658 ] ] ] } },
{ "type": "Feature", "properties": { "difference_1990_2000": -44.0, "difference_1990_2010": 9.0, "difference_1990_2020": -52.0 }, "geometry": { "type": "Polygon", "coordinates": [ [ [ -92.967535436671255, 17.991480365535871 ], [ -92.962962962962976, 17.991480365535871 ], [ -92.962962962962976, 17.987393125212218 ], [ -92.967535436671255, 17.987393125212218 ], [ -92.967535436671255, 17.991480365535871 ] ] ] } },
{ "type": "Feature", "properties": { "difference_1990_2000": 375.0, "difference_1990_2010": 167.0, "difference_1990_2020": 62.0 }, "geometry": { "type": "Polygon", "coordinates": [ [ [ -92.967535436671255, 17.983305978406218 ], [ -92.962962962962976, 17.983305978406221 ], [ -92.962962962962976, 17.979218925090827 ], [ -92.967535436671255, 17.97921892509083 ], [ -92.967535436671255, 17.983305978406218 ] ] ] } },
{ "type": "Feature", "properties": { "difference_1990_2000": 174.0, "difference_1990_2010": -84.0, "difference_1990_2020": -310.0 }, "geometry": { "type": "Polygon", "coordinates": [ [ [ -92.967535436671255, 17.975131965238965 ], [ -92.962962962962976, 17.975131965239001 ], [ -92.962962962962976, 17.971045098823669 ], [ -92.967535436671255, 17.971045098823673 ], [ -92.967535436671255, 17.975131965238965 ] ] ] } },
{ "type": "Feature", "properties": { "difference_1990_2000": 118.0, "difference_1990_2010": 143.0, "difference_1990_2020": -127.0 }, "geometry": { "type": "Polygon", "coordinates": [ [ [ -92.967535436671255, 17.971045098823673 ], [ -92.962962962962976, 17.971045098823669 ], [ -92.962962962962976, 17.966958325817878 ], [ -92.967535436671255, 17.966958325817842 ], [ -92.967535436671255, 17.971045098823673 ] ] ] } },
{ "type": "Feature", "properties": { "difference_1990_2000": -83.0, "difference_1990_2010": -48.0, "difference_1990_2020": -27.0 }, "geometry": { "type": "Polygon", "coordinates": [ [ [ -92.967535436671255, 17.954698566987219 ], [ -92.962962962962976, 17.954698566987215 ], [ -92.962962962962976, 17.950612167349245 ], [ -92.967535436671255, 17.950612167349227 ], [ -92.967535436671255, 17.954698566987219 ] ] ] } },
{ "type": "Feature", "properties": { "difference_1990_2000": 31.0, "difference_1990_2010": 39.0, "difference_1990_2020": -31.0 }, "geometry": { "type": "Polygon", "coordinates": [ [ [ -92.967535436671255, 17.966958325817842 ], [ -92.962962962962976, 17.966958325817878 ], [ -92.962962962962976, 17.962871646194529 ], [ -92.967535436671255, 17.9628716461945 ], [ -92.967535436671255, 17.966958325817842 ] ] ] } },
{ "type": "Feature", "properties": { "difference_1990_2000": 4.0, "difference_1990_2010": 81.0, "difference_1990_2020": 97.0 }, "geometry": { "type": "Polygon", "coordinates": [ [ [ -92.967535436671255, 18.016005772863132 ], [ -92.962962962962976, 18.016005772863128 ], [ -92.962962962962976, 18.011917970865479 ], [ -92.967535436671255, 18.011917970865479 ], [ -92.967535436671255, 18.016005772863132 ] ] ] } },
{ "type": "Feature", "properties": { "difference_1990_2000": -21.0, "difference_1990_2010": -11.0, "difference_1990_2020": -8.0 }, "geometry": { "type": "Polygon", "coordinates": [ [ [ -92.967535436671255, 17.9628716461945 ], [ -92.962962962962976, 17.962871646194529 ], [ -92.962962962962976, 17.958785059926619 ], [ -92.967535436671255, 17.958785059926658 ], [ -92.967535436671255, 17.9628716461945 ] ] ] } },
{ "type": "Feature", "properties": { "difference_1990_2000": 352.0, "difference_1990_2010": 129.0, "difference_1990_2020": -198.0 }, "geometry": { "type": "Polygon", "coordinates": [ [ [ -92.967535436671255, 17.97921892509083 ], [ -92.962962962962976, 17.979218925090827 ], [ -92.962962962962976, 17.975131965239001 ], [ -92.967535436671255, 17.975131965238965 ], [ -92.967535436671255, 17.97921892509083 ] ] ] } },
{ "type": "Feature", "properties": { "difference_1990_2000": -13.0, "difference_1990_2010": -7.0, "difference_1990_2020": -4.0 }, "geometry": { "type": "Polygon", "coordinates": [ [ [ -92.967535436671255, 17.950612167349227 ], [ -92.962962962962976, 17.950612167349245 ], [ -92.962962962962976, 17.94652586098567 ], [ -92.967535436671255, 17.946525860985673 ], [ -92.967535436671255, 17.950612167349227 ] ] ] } },
{ "type": "Feature", "properties": { "difference_1990_2000": 26.0, "difference_1990_2010": 1.0, "difference_1990_2020": 1.0 }, "geometry": { "type": "Polygon", "coordinates": [ [ [ -92.967535436671255, 18.007830262547795 ], [ -92.962962962962976, 18.007830262547795 ], [ -92.962962962962976, 18.003742647883097 ], [ -92.967535436671255, 18.003742647883097 ], [ -92.967535436671255, 18.007830262547795 ] ] ] } },
{ "type": "Feature", "properties": { "difference_1990_2000": 377.0, "difference_1990_2010": 179.0, "difference_1990_2020": 70.0 }, "geometry": { "type": "Polygon", "coordinates": [ [ [ -92.967535436671255, 17.987393125212218 ], [ -92.962962962962976, 17.987393125212218 ], [ -92.962962962962976, 17.983305978406221 ], [ -92.967535436671255, 17.983305978406218 ], [ -92.967535436671255, 17.987393125212218 ] ] ] } },
{ "type": "Feature", "properties": { "difference_1990_2000": 371.0, "difference_1990_2010": 485.0, "difference_1990_2020": 542.0 }, "geometry": { "type": "Polygon", "coordinates": [ [ [ -92.958390489254697, 18.020093668567874 ], [ -92.953818015546418, 18.020093668567835 ], [ -92.953818015546418, 18.016005772863128 ], [ -92.958390489254697, 18.016005772863146 ], [ -92.958390489254697, 18.020093668567874 ] ] ] } },
{ "type": "Feature", "properties": { "difference_1990_2000": 0.0, "difference_1990_2010": -8.0, "difference_1990_2020": -13.0 }, "geometry": { "type": "Polygon", "coordinates": [ [ [ -92.958390489254697, 18.011917970865483 ], [ -92.953818015546418, 18.011917970865483 ], [ -92.953818015546418, 18.007830262547806 ], [ -92.958390489254697, 18.007830262547799 ], [ -92.958390489254697, 18.011917970865483 ] ] ] } },
{ "type": "Feature", "properties": { "difference_1990_2000": 1050.0, "difference_1990_2010": 934.0, "difference_1990_2020": 872.0 }, "geometry": { "type": "Polygon", "coordinates": [ [ [ -92.958390489254697, 17.995567699404187 ], [ -92.953818015546418, 17.995567699404191 ], [ -92.953818015546418, 17.991480365535867 ], [ -92.958390489254697, 17.991480365535871 ], [ -92.958390489254697, 17.995567699404187 ] ] ] } },
{ "type": "Feature", "properties": { "difference_1990_2000": 303.0, "difference_1990_2010": 164.0, "difference_1990_2020": 98.0 }, "geometry": { "type": "Polygon", "coordinates": [ [ [ -92.958390489254697, 17.999655126844228 ], [ -92.953818015546418, 17.999655126844228 ], [ -92.953818015546418, 17.995567699404191 ], [ -92.958390489254697, 17.995567699404187 ], [ -92.958390489254697, 17.999655126844228 ] ] ] } },
{ "type": "Feature", "properties": { "difference_1990_2000": 728.0, "difference_1990_2010": 491.0, "difference_1990_2020": 469.0 }, "geometry": { "type": "Polygon", "coordinates": [ [ [ -92.958390489254697, 18.003742647883101 ], [ -92.953818015546418, 18.003742647883101 ], [ -92.953818015546418, 17.999655126844228 ], [ -92.958390489254697, 17.999655126844228 ], [ -92.958390489254697, 18.003742647883101 ] ] ] } },
{ "type": "Feature", "properties": { "difference_1990_2000": -275.0, "difference_1990_2010": -160.0, "difference_1990_2020": -89.0 }, "geometry": { "type": "Polygon", "coordinates": [ [ [ -92.958390489254697, 17.958785059926608 ], [ -92.953818015546418, 17.958785059926608 ], [ -92.953818015546418, 17.954698566987215 ], [ -92.958390489254697, 17.954698566987215 ], [ -92.958390489254697, 17.958785059926608 ] ] ] } },
{ "type": "Feature", "properties": { "difference_1990_2000": 2164.0, "difference_1990_2010": 2031.0, "difference_1990_2020": 1979.0 }, "geometry": { "type": "Polygon", "coordinates": [ [ [ -92.958390489254697, 17.991480365535871 ], [ -92.953818015546418, 17.991480365535867 ], [ -92.953818015546418, 17.987393125212211 ], [ -92.958390489254697, 17.987393125212236 ], [ -92.958390489254697, 17.991480365535871 ] ] ] } },
{ "type": "Feature", "properties": { "difference_1990_2000": 273.0, "difference_1990_2010": -188.0, "difference_1990_2020": -305.0 }, "geometry": { "type": "Polygon", "coordinates": [ [ [ -92.958390489254697, 17.983305978406221 ], [ -92.953818015546418, 17.983305978406221 ], [ -92.953818015546418, 17.97921892509083 ], [ -92.958390489254697, 17.979218925090851 ], [ -92.958390489254697, 17.983305978406221 ] ] ] } },
{ "type": "Feature", "properties": { "difference_1990_2000": 90.0, "difference_1990_2010": -304.0, "difference_1990_2020": -693.0 }, "geometry": { "type": "Polygon", "coordinates": [ [ [ -92.958390489254697, 17.975131965238969 ], [ -92.953818015546418, 17.975131965238965 ], [ -92.953818015546418, 17.971045098823669 ], [ -92.958390489254697, 17.971045098823673 ], [ -92.958390489254697, 17.975131965238969 ] ] ] } },
{ "type": "Feature", "properties": { "difference_1990_2000": 1860.0, "difference_1990_2010": 1961.0, "difference_1990_2020": 2041.0 }, "geometry": { "type": "Polygon", "coordinates": [ [ [ -92.958390489254697, 18.02418165800675 ], [ -92.953818015546418, 18.02418165800675 ], [ -92.953818015546418, 18.020093668567835 ], [ -92.958390489254697, 18.020093668567874 ], [ -92.958390489254697, 18.02418165800675 ] ] ] } },
{ "type": "Feature", "properties": { "difference_1990_2000": -86.0, "difference_1990_2010": -50.0, "difference_1990_2020": -28.0 }, "geometry": { "type": "Polygon", "coordinates": [ [ [ -92.958390489254697, 17.946525860985677 ], [ -92.953818015546418, 17.946525860985655 ], [ -92.953818015546418, 17.94243964786958 ], [ -92.958390489254697, 17.942439647869584 ], [ -92.958390489254697, 17.946525860985677 ] ] ] } },
{ "type": "Feature", "properties": { "difference_1990_2000": 649.0, "difference_1990_2010": 442.0, "difference_1990_2020": 123.0 }, "geometry": { "type": "Polygon", "coordinates": [ [ [ -92.958390489254697, 17.971045098823673 ], [ -92.953818015546418, 17.971045098823669 ], [ -92.953818015546418, 17.966958325817846 ], [ -92.958390489254697, 17.966958325817846 ], [ -92.958390489254697, 17.971045098823673 ] ] ] } },
{ "type": "Feature", "properties": { "difference_1990_2000": -275.0, "difference_1990_2010": -160.0, "difference_1990_2020": -89.0 }, "geometry": { "type": "Polygon", "coordinates": [ [ [ -92.958390489254697, 17.954698566987215 ], [ -92.953818015546418, 17.954698566987215 ], [ -92.953818015546418, 17.95061216734922 ], [ -92.958390489254697, 17.950612167349242 ], [ -92.958390489254697, 17.954698566987215 ] ] ] } },
{ "type": "Feature", "properties": { "difference_1990_2000": 591.0, "difference_1990_2010": 678.0, "difference_1990_2020": 362.0 }, "geometry": { "type": "Polygon", "coordinates": [ [ [ -92.958390489254697, 17.966958325817846 ], [ -92.953818015546418, 17.966958325817846 ], [ -92.953818015546418, 17.9628716461945 ], [ -92.958390489254697, 17.962871646194497 ], [ -92.958390489254697, 17.966958325817846 ] ] ] } },
{ "type": "Feature", "properties": { "difference_1990_2000": 132.0, "difference_1990_2010": 230.0, "difference_1990_2020": 208.0 }, "geometry": { "type": "Polygon", "coordinates": [ [ [ -92.958390489254697, 18.016005772863146 ], [ -92.953818015546418, 18.016005772863128 ], [ -92.953818015546418, 18.011917970865483 ], [ -92.958390489254697, 18.011917970865483 ], [ -92.958390489254697, 18.016005772863146 ] ] ] } },
{ "type": "Feature", "properties": { "difference_1990_2000": -241.0, "difference_1990_2010": -61.0, "difference_1990_2020": -229.0 }, "geometry": { "type": "Polygon", "coordinates": [ [ [ -92.958390489254697, 17.962871646194497 ], [ -92.953818015546418, 17.9628716461945 ], [ -92.953818015546418, 17.958785059926608 ], [ -92.958390489254697, 17.958785059926608 ], [ -92.958390489254697, 17.962871646194497 ] ] ] } },
{ "type": "Feature", "properties": { "difference_1990_2000": -163.0, "difference_1990_2010": -555.0, "difference_1990_2020": -845.0 }, "geometry": { "type": "Polygon", "coordinates": [ [ [ -92.958390489254697, 17.979218925090851 ], [ -92.953818015546418, 17.97921892509083 ], [ -92.953818015546418, 17.975131965238965 ], [ -92.958390489254697, 17.975131965238969 ], [ -92.958390489254697, 17.979218925090851 ] ] ] } },
{ "type": "Feature", "properties": { "difference_1990_2000": -275.0, "difference_1990_2010": -160.0, "difference_1990_2020": -89.0 }, "geometry": { "type": "Polygon", "coordinates": [ [ [ -92.958390489254697, 17.950612167349242 ], [ -92.953818015546418, 17.95061216734922 ], [ -92.953818015546418, 17.946525860985655 ], [ -92.958390489254697, 17.946525860985677 ], [ -92.958390489254697, 17.950612167349242 ] ] ] } },
{ "type": "Feature", "properties": { "difference_1990_2000": 122.0, "difference_1990_2010": 71.0, "difference_1990_2020": 71.0 }, "geometry": { "type": "Polygon", "coordinates": [ [ [ -92.958390489254697, 18.007830262547799 ], [ -92.953818015546418, 18.007830262547806 ], [ -92.953818015546418, 18.003742647883101 ], [ -92.958390489254697, 18.003742647883101 ], [ -92.958390489254697, 18.007830262547799 ] ] ] } },
{ "type": "Feature", "properties": { "difference_1990_2000": 457.0, "difference_1990_2010": 258.0, "difference_1990_2020": 154.0 }, "geometry": { "type": "Polygon", "coordinates": [ [ [ -92.958390489254697, 17.987393125212236 ], [ -92.953818015546418, 17.987393125212211 ], [ -92.953818015546418, 17.983305978406221 ], [ -92.958390489254697, 17.983305978406221 ], [ -92.958390489254697, 17.987393125212236 ] ] ] } },
{ "type": "Feature", "properties": { "difference_1990_2000": 49.0, "difference_1990_2010": 81.0, "difference_1990_2020": 90.0 }, "geometry": { "type": "Polygon", "coordinates": [ [ [ -93.081847279378167, 17.958785059926658 ], [ -93.077274805669873, 17.958785059926608 ], [ -93.077274805669873, 17.954698566987211 ], [ -93.081847279378167, 17.954698566987211 ], [ -93.081847279378167, 17.958785059926658 ] ] ] } },
{ "type": "Feature", "properties": { "difference_1990_2000": 12.0, "difference_1990_2010": 19.0, "difference_1990_2020": 21.0 }, "geometry": { "type": "Polygon", "coordinates": [ [ [ -93.081847279378167, 17.954698566987211 ], [ -93.077274805669873, 17.954698566987211 ], [ -93.077274805669873, 17.950612167349234 ], [ -93.081847279378167, 17.950612167349242 ], [ -93.081847279378167, 17.954698566987211 ] ] ] } },
{ "type": "Feature", "properties": { "difference_1990_2000": 31.0, "difference_1990_2010": 52.0, "difference_1990_2020": 57.0 }, "geometry": { "type": "Polygon", "coordinates": [ [ [ -93.081847279378167, 17.962871646194532 ], [ -93.077274805669873, 17.962871646194497 ], [ -93.077274805669873, 17.958785059926608 ], [ -93.081847279378167, 17.958785059926658 ], [ -93.081847279378167, 17.962871646194532 ] ] ] } },
{ "type": "Feature", "properties": { "difference_1990_2000": 7.0, "difference_1990_2010": 11.0, "difference_1990_2020": 13.0 }, "geometry": { "type": "Polygon", "coordinates": [ [ [ -93.081847279378167, 17.950612167349242 ], [ -93.077274805669873, 17.950612167349234 ], [ -93.077274805669873, 17.946525860985673 ], [ -93.081847279378167, 17.946525860985673 ], [ -93.081847279378167, 17.950612167349242 ] ] ] } },
{ "type": "Feature", "properties": { "difference_1990_2000": 109.0, "difference_1990_2010": 181.0, "difference_1990_2020": 200.0 }, "geometry": { "type": "Polygon", "coordinates": [ [ [ -93.072702331961594, 17.958785059926626 ], [ -93.068129858253343, 17.958785059926623 ], [ -93.068129858253343, 17.954698566987219 ], [ -93.072702331961594, 17.954698566987219 ], [ -93.072702331961594, 17.958785059926626 ] ] ] } },
{ "type": "Feature", "properties": { "difference_1990_2000": 45.0, "difference_1990_2010": 75.0, "difference_1990_2020": 82.0 }, "geometry": { "type": "Polygon", "coordinates": [ [ [ -93.072702331961594, 17.954698566987219 ], [ -93.068129858253343, 17.954698566987219 ], [ -93.068129858253343, 17.950612167349252 ], [ -93.072702331961594, 17.950612167349242 ], [ -93.072702331961594, 17.954698566987219 ] ] ] } },
{ "type": "Feature", "properties": { "difference_1990_2000": 52.0, "difference_1990_2010": 87.0, "difference_1990_2020": 96.0 }, "geometry": { "type": "Polygon", "coordinates": [ [ [ -93.072702331961594, 17.966958325817849 ], [ -93.068129858253343, 17.966958325817842 ], [ -93.068129858253343, 17.9628716461945 ], [ -93.072702331961594, 17.9628716461945 ], [ -93.072702331961594, 17.966958325817849 ] ] ] } },
{ "type": "Feature", "properties": { "difference_1990_2000": 109.0, "difference_1990_2010": 181.0, "difference_1990_2020": 200.0 }, "geometry": { "type": "Polygon", "coordinates": [ [ [ -93.072702331961594, 17.9628716461945 ], [ -93.068129858253343, 17.9628716461945 ], [ -93.068129858253343, 17.958785059926623 ], [ -93.072702331961594, 17.958785059926626 ], [ -93.072702331961594, 17.9628716461945 ] ] ] } },
{ "type": "Feature", "properties": { "difference_1990_2000": 68.0, "difference_1990_2010": 113.0, "difference_1990_2020": 125.0 }, "geometry": { "type": "Polygon", "coordinates": [ [ [ -93.063557384545035, 17.958785059926605 ], [ -93.058984910836756, 17.958785059926662 ], [ -93.058984910836756, 17.954698566987219 ], [ -93.063557384545035, 17.954698566987194 ], [ -93.063557384545035, 17.958785059926605 ] ] ] } },
{ "type": "Feature", "properties": { "difference_1990_2000": 44.0, "difference_1990_2010": 73.0, "difference_1990_2020": 80.0 }, "geometry": { "type": "Polygon", "coordinates": [ [ [ -93.063557384545035, 17.97104509882363 ], [ -93.058984910836756, 17.971045098823669 ], [ -93.058984910836756, 17.966958325817842 ], [ -93.063557384545035, 17.966958325817842 ], [ -93.063557384545035, 17.97104509882363 ] ] ] } },
{ "type": "Feature", "properties": { "difference_1990_2000": 109.0, "difference_1990_2010": 181.0, "difference_1990_2020": 200.0 }, "geometry": { "type": "Polygon", "coordinates": [ [ [ -93.063557384545035, 17.966958325817842 ], [ -93.058984910836756, 17.966958325817842 ], [ -93.058984910836756, 17.9628716461945 ], [ -93.063557384545035, 17.962871646194532 ], [ -93.063557384545035, 17.966958325817842 ] ] ] } },
{ "type": "Feature", "properties": { "difference_1990_2000": 109.0, "difference_1990_2010": 181.0, "difference_1990_2020": 200.0 }, "geometry": { "type": "Polygon", "coordinates": [ [ [ -93.063557384545035, 17.962871646194532 ], [ -93.058984910836756, 17.9628716461945 ], [ -93.058984910836756, 17.958785059926662 ], [ -93.063557384545035, 17.958785059926605 ], [ -93.063557384545035, 17.962871646194532 ] ] ] } },
{ "type": "Feature", "properties": { "difference_1990_2000": 5.0, "difference_1990_2010": 0.0, "difference_1990_2020": 9.0 }, "geometry": { "type": "Polygon", "coordinates": [ [ [ -93.054412437128505, 17.958785059926626 ], [ -93.049839963420226, 17.958785059926626 ], [ -93.049839963420226, 17.954698566987215 ], [ -93.054412437128505, 17.954698566987215 ], [ -93.054412437128505, 17.958785059926626 ] ] ] } },
{ "type": "Feature", "properties": { "difference_1990_2000": 109.0, "difference_1990_2010": 181.0, "difference_1990_2020": 200.0 }, "geometry": { "type": "Polygon", "coordinates": [ [ [ -93.054412437128505, 17.975131965238994 ], [ -93.049839963420226, 17.975131965238969 ], [ -93.049839963420226, 17.971045098823666 ], [ -93.054412437128505, 17.971045098823666 ], [ -93.054412437128505, 17.975131965238994 ] ] ] } },
{ "type": "Feature", "properties": { "difference_1990_2000": 109.0, "difference_1990_2010": 181.0, "difference_1990_2020": 200.0 }, "geometry": { "type": "Polygon", "coordinates": [ [ [ -93.054412437128505, 17.971045098823666 ], [ -93.049839963420226, 17.971045098823666 ], [ -93.049839963420226, 17.966958325817846 ], [ -93.054412437128505, 17.966958325817842 ], [ -93.054412437128505, 17.971045098823666 ] ] ] } },
{ "type": "Feature", "properties": { "difference_1990_2000": 109.0, "difference_1990_2010": 181.0, "difference_1990_2020": 200.0 }, "geometry": { "type": "Polygon", "coordinates": [ [ [ -93.054412437128505, 17.966958325817842 ], [ -93.049839963420226, 17.966958325817846 ], [ -93.049839963420226, 17.962871646194547 ], [ -93.054412437128505, 17.962871646194497 ], [ -93.054412437128505, 17.966958325817842 ] ] ] } },
{ "type": "Feature", "properties": { "difference_1990_2000": 51.0, "difference_1990_2010": 72.0, "difference_1990_2020": 94.0 }, "geometry": { "type": "Polygon", "coordinates": [ [ [ -93.054412437128505, 17.962871646194497 ], [ -93.049839963420226, 17.962871646194547 ], [ -93.049839963420226, 17.958785059926626 ], [ -93.054412437128505, 17.958785059926626 ], [ -93.054412437128505, 17.962871646194497 ] ] ] } },
{ "type": "Feature", "properties": { "difference_1990_2000": 66.0, "difference_1990_2010": 110.0, "difference_1990_2020": 122.0 }, "geometry": { "type": "Polygon", "coordinates": [ [ [ -93.054412437128505, 17.979218925090827 ], [ -93.049839963420226, 17.979218925090827 ], [ -93.049839963420226, 17.975131965238969 ], [ -93.054412437128505, 17.975131965238994 ], [ -93.054412437128505, 17.979218925090827 ] ] ] } },
{ "type": "Feature", "properties": { "difference_1990_2000": 32.0, "difference_1990_2010": 54.0, "difference_1990_2020": 60.0 }, "geometry": { "type": "Polygon", "coordinates": [ [ [ -93.045267489711946, 17.975131965238951 ], [ -93.040695016003681, 17.975131965238965 ], [ -93.040695016003681, 17.971045098823623 ], [ -93.045267489711946, 17.971045098823666 ], [ -93.045267489711946, 17.975131965238951 ] ] ] } },
{ "type": "Feature", "properties": { "difference_1990_2000": 97.0, "difference_1990_2010": 151.0, "difference_1990_2020": 179.0 }, "geometry": { "type": "Polygon", "coordinates": [ [ [ -93.045267489711946, 17.971045098823666 ], [ -93.040695016003681, 17.971045098823623 ], [ -93.040695016003681, 17.966958325817842 ], [ -93.045267489711946, 17.966958325817828 ], [ -93.045267489711946, 17.971045098823666 ] ] ] } },
{ "type": "Feature", "properties": { "difference_1990_2000": 4.0, "difference_1990_2010": 1.0, "difference_1990_2020": 7.0 }, "geometry": { "type": "Polygon", "coordinates": [ [ [ -93.045267489711946, 17.966958325817828 ], [ -93.040695016003681, 17.966958325817842 ], [ -93.040695016003681, 17.962871646194504 ], [ -93.045267489711946, 17.962871646194504 ], [ -93.045267489711946, 17.966958325817828 ] ] ] } },
{ "type": "Feature", "properties": { "difference_1990_2000": 72.0, "difference_1990_2010": 132.0, "difference_1990_2020": 133.0 }, "geometry": { "type": "Polygon", "coordinates": [ [ [ -93.036122542295402, 17.975131965238965 ], [ -93.031550068587123, 17.975131965238965 ], [ -93.031550068587123, 17.971045098823669 ], [ -93.036122542295402, 17.971045098823666 ], [ -93.036122542295402, 17.975131965238965 ] ] ] } },
{ "type": "Feature", "properties": { "difference_1990_2000": 29.0, "difference_1990_2010": 0.0, "difference_1990_2020": 54.0 }, "geometry": { "type": "Polygon", "coordinates": [ [ [ -93.036122542295402, 17.971045098823666 ], [ -93.031550068587123, 17.971045098823669 ], [ -93.031550068587123, 17.966958325817842 ], [ -93.036122542295402, 17.966958325817878 ], [ -93.036122542295402, 17.971045098823666 ] ] ] } },
{ "type": "Feature", "properties": { "difference_1990_2000": 37.0, "difference_1990_2010": 62.0, "difference_1990_2020": 68.0 }, "geometry": { "type": "Polygon", "coordinates": [ [ [ -93.036122542295402, 17.979218925090827 ], [ -93.031550068587123, 17.979218925090827 ], [ -93.031550068587123, 17.975131965238965 ], [ -93.036122542295402, 17.975131965238965 ], [ -93.036122542295402, 17.979218925090827 ] ] ] } },
{ "type": "Feature", "properties": { "difference_1990_2000": 34.0, "difference_1990_2010": 53.0, "difference_1990_2020": 56.0 }, "geometry": { "type": "Polygon", "coordinates": [ [ [ -93.026977594878844, 17.983305978406197 ], [ -93.022405121170564, 17.983305978406221 ], [ -93.022405121170564, 17.979218925090827 ], [ -93.026977594878844, 17.979218925090827 ], [ -93.026977594878844, 17.983305978406197 ] ] ] } },
{ "type": "Feature", "properties": { "difference_1990_2000": 197.0, "difference_1990_2010": 308.0, "difference_1990_2020": 336.0 }, "geometry": { "type": "Polygon", "coordinates": [ [ [ -93.026977594878844, 17.975131965238969 ], [ -93.022405121170564, 17.975131965238948 ], [ -93.022405121170564, 17.971045098823627 ], [ -93.026977594878844, 17.971045098823669 ], [ -93.026977594878844, 17.975131965238969 ] ] ] } },
{ "type": "Feature", "properties": { "difference_1990_2000": 175.0, "difference_1990_2010": 277.0, "difference_1990_2020": 299.0 }, "geometry": { "type": "Polygon", "coordinates": [ [ [ -93.026977594878844, 17.971045098823669 ], [ -93.022405121170564, 17.971045098823627 ], [ -93.022405121170564, 17.966958325817842 ], [ -93.026977594878844, 17.966958325817881 ], [ -93.026977594878844, 17.971045098823669 ] ] ] } },
{ "type": "Feature", "properties": { "difference_1990_2000": 126.0, "difference_1990_2010": 205.0, "difference_1990_2020": 224.0 }, "geometry": { "type": "Polygon", "coordinates": [ [ [ -93.026977594878844, 17.966958325817881 ], [ -93.022405121170564, 17.966958325817842 ], [ -93.022405121170564, 17.9628716461945 ], [ -93.026977594878844, 17.9628716461945 ], [ -93.026977594878844, 17.966958325817881 ] ] ] } },
{ "type": "Feature", "properties": { "difference_1990_2000": 34.0, "difference_1990_2010": 56.0, "difference_1990_2020": 63.0 }, "geometry": { "type": "Polygon", "coordinates": [ [ [ -93.026977594878844, 17.9628716461945 ], [ -93.022405121170564, 17.9628716461945 ], [ -93.022405121170564, 17.958785059926608 ], [ -93.026977594878844, 17.958785059926605 ], [ -93.026977594878844, 17.9628716461945 ] ] ] } },
{ "type": "Feature", "properties": { "difference_1990_2000": 242.0, "difference_1990_2010": 374.0, "difference_1990_2020": 397.0 }, "geometry": { "type": "Polygon", "coordinates": [ [ [ -93.026977594878844, 17.979218925090827 ], [ -93.022405121170564, 17.979218925090827 ], [ -93.022405121170564, 17.975131965238948 ], [ -93.026977594878844, 17.975131965238969 ], [ -93.026977594878844, 17.979218925090827 ] ] ] } },
{ "type": "Feature", "properties": { "difference_1990_2000": 11.0, "difference_1990_2010": 1764.0, "difference_1990_2020": 1670.0 }, "geometry": { "type": "Polygon", "coordinates": [ [ [ -93.017832647462285, 17.958785059926612 ], [ -93.01326017375402, 17.958785059926626 ], [ -93.01326017375402, 17.954698566987215 ], [ -93.017832647462285, 17.954698566987194 ], [ -93.017832647462285, 17.958785059926612 ] ] ] } },
{ "type": "Feature", "properties": { "difference_1990_2000": 224.0, "difference_1990_2010": 351.0, "difference_1990_2020": 367.0 }, "geometry": { "type": "Polygon", "coordinates": [ [ [ -93.017832647462285, 17.983305978406229 ], [ -93.01326017375402, 17.983305978406221 ], [ -93.01326017375402, 17.979218925090827 ], [ -93.017832647462285, 17.979218925090834 ], [ -93.017832647462285, 17.983305978406229 ] ] ] } },
{ "type": "Feature", "properties": { "difference_1990_2000": 147.0, "difference_1990_2010": 226.0, "difference_1990_2020": 240.0 }, "geometry": { "type": "Polygon", "coordinates": [ [ [ -93.017832647462285, 17.975131965238965 ], [ -93.01326017375402, 17.975131965238965 ], [ -93.01326017375402, 17.971045098823666 ], [ -93.017832647462285, 17.971045098823669 ], [ -93.017832647462285, 17.975131965238965 ] ] ] } },
{ "type": "Feature", "properties": { "difference_1990_2000": 0.0, "difference_1990_2010": 40.0, "difference_1990_2020": 38.0 }, "geometry": { "type": "Polygon", "coordinates": [ [ [ -93.017832647462285, 17.954698566987194 ], [ -93.01326017375402, 17.954698566987215 ], [ -93.01326017375402, 17.950612167349242 ], [ -93.017832647462285, 17.950612167349238 ], [ -93.017832647462285, 17.954698566987194 ] ] ] } },
{ "type": "Feature", "properties": { "difference_1990_2000": 254.0, "difference_1990_2010": 393.0, "difference_1990_2020": 416.0 }, "geometry": { "type": "Polygon", "coordinates": [ [ [ -93.017832647462285, 17.971045098823669 ], [ -93.01326017375402, 17.971045098823666 ], [ -93.01326017375402, 17.966958325817846 ], [ -93.017832647462285, 17.966958325817842 ], [ -93.017832647462285, 17.971045098823669 ] ] ] } },
{ "type": "Feature", "properties": { "difference_1990_2000": 291.0, "difference_1990_2010": 534.0, "difference_1990_2020": 517.0 }, "geometry": { "type": "Polygon", "coordinates": [ [ [ -93.017832647462285, 17.966958325817842 ], [ -93.01326017375402, 17.966958325817846 ], [ -93.01326017375402, 17.9628716461945 ], [ -93.017832647462285, 17.9628716461945 ], [ -93.017832647462285, 17.966958325817842 ] ] ] } },
{ "type": "Feature", "properties": { "difference_1990_2000": 82.0, "difference_1990_2010": 878.0, "difference_1990_2020": 1577.0 }, "geometry": { "type": "Polygon", "coordinates": [ [ [ -93.017832647462285, 17.9628716461945 ], [ -93.01326017375402, 17.9628716461945 ], [ -93.01326017375402, 17.958785059926626 ], [ -93.017832647462285, 17.958785059926612 ], [ -93.017832647462285, 17.9628716461945 ] ] ] } },
{ "type": "Feature", "properties": { "difference_1990_2000": 210.0, "difference_1990_2010": 324.0, "difference_1990_2020": 343.0 }, "geometry": { "type": "Polygon", "coordinates": [ [ [ -93.017832647462285, 17.979218925090834 ], [ -93.01326017375402, 17.979218925090827 ], [ -93.01326017375402, 17.975131965238965 ], [ -93.017832647462285, 17.975131965238965 ], [ -93.017832647462285, 17.979218925090834 ] ] ] } },
{ "type": "Feature", "properties": { "difference_1990_2000": 236.0, "difference_1990_2010": 365.0, "difference_1990_2020": 387.0 }, "geometry": { "type": "Polygon", "coordinates": [ [ [ -93.017832647462285, 17.987393125212218 ], [ -93.01326017375402, 17.987393125212215 ], [ -93.01326017375402, 17.983305978406221 ], [ -93.017832647462285, 17.983305978406229 ], [ -93.017832647462285, 17.987393125212218 ] ] ] } },
{ "type": "Feature", "properties": { "difference_1990_2000": 51.0, "difference_1990_2010": 197.0, "difference_1990_2020": 136.0 }, "geometry": { "type": "Polygon", "coordinates": [ [ [ -93.008687700045741, 17.958785059926626 ], [ -93.004115226337461, 17.958785059926658 ], [ -93.004115226337461, 17.954698566987211 ], [ -93.008687700045741, 17.954698566987215 ], [ -93.008687700045741, 17.958785059926626 ] ] ] } },
{ "type": "Feature", "properties": { "difference_1990_2000": 28.0, "difference_1990_2010": 77.0, "difference_1990_2020": 79.0 }, "geometry": { "type": "Polygon", "coordinates": [ [ [ -93.008687700045741, 17.97104509882363 ], [ -93.004115226337461, 17.971045098823669 ], [ -93.004115226337461, 17.966958325817846 ], [ -93.008687700045741, 17.966958325817878 ], [ -93.008687700045741, 17.97104509882363 ] ] ] } },
{ "type": "Feature", "properties": { "difference_1990_2000": 121.0, "difference_1990_2010": 340.0, "difference_1990_2020": 267.0 }, "geometry": { "type": "Polygon", "coordinates": [ [ [ -93.008687700045741, 17.966958325817878 ], [ -93.004115226337461, 17.966958325817846 ], [ -93.004115226337461, 17.9628716461945 ], [ -93.008687700045741, 17.9628716461945 ], [ -93.008687700045741, 17.966958325817878 ] ] ] } },
{ "type": "Feature", "properties": { "difference_1990_2000": 206.0, "difference_1990_2010": 798.0, "difference_1990_2020": 552.0 }, "geometry": { "type": "Polygon", "coordinates": [ [ [ -93.008687700045741, 17.9628716461945 ], [ -93.004115226337461, 17.9628716461945 ], [ -93.004115226337461, 17.958785059926658 ], [ -93.008687700045741, 17.958785059926626 ], [ -93.008687700045741, 17.9628716461945 ] ] ] } },
{ "type": "Feature", "properties": { "difference_1990_2000": 0.0, "difference_1990_2010": 195.0, "difference_1990_2020": 193.0 }, "geometry": { "type": "Polygon", "coordinates": [ [ [ -92.999542752629182, 17.95878505992663 ], [ -92.994970278920874, 17.958785059926605 ], [ -92.994970278920874, 17.954698566987215 ], [ -92.999542752629182, 17.954698566987215 ], [ -92.999542752629182, 17.95878505992663 ] ] ] } },
{ "type": "Feature", "properties": { "difference_1990_2000": -3.0, "difference_1990_2010": 27.0, "difference_1990_2020": 27.0 }, "geometry": { "type": "Polygon", "coordinates": [ [ [ -92.999542752629182, 17.975131965238969 ], [ -92.994970278920874, 17.975131965238965 ], [ -92.994970278920874, 17.971045098823666 ], [ -92.999542752629182, 17.971045098823627 ], [ -92.999542752629182, 17.975131965238969 ] ] ] } },
{ "type": "Feature", "properties": { "difference_1990_2000": 124.0, "difference_1990_2010": 507.0, "difference_1990_2020": 447.0 }, "geometry": { "type": "Polygon", "coordinates": [ [ [ -92.999542752629182, 17.971045098823627 ], [ -92.994970278920874, 17.971045098823666 ], [ -92.994970278920874, 17.966958325817842 ], [ -92.999542752629182, 17.966958325817838 ], [ -92.999542752629182, 17.971045098823627 ] ] ] } },
{ "type": "Feature", "properties": { "difference_1990_2000": 192.0, "difference_1990_2010": 744.0, "difference_1990_2020": 515.0 }, "geometry": { "type": "Polygon", "coordinates": [ [ [ -92.999542752629182, 17.966958325817838 ], [ -92.994970278920874, 17.966958325817842 ], [ -92.994970278920874, 17.9628716461945 ], [ -92.999542752629182, 17.9628716461945 ], [ -92.999542752629182, 17.966958325817838 ] ] ] } },
{ "type": "Feature", "properties": { "difference_1990_2000": 174.0, "difference_1990_2010": 909.0, "difference_1990_2020": 698.0 }, "geometry": { "type": "Polygon", "coordinates": [ [ [ -92.999542752629182, 17.9628716461945 ], [ -92.994970278920874, 17.9628716461945 ], [ -92.994970278920874, 17.958785059926605 ], [ -92.999542752629182, 17.95878505992663 ], [ -92.999542752629182, 17.9628716461945 ] ] ] } },
{ "type": "Feature", "properties": { "difference_1990_2000": 213.0, "difference_1990_2010": 335.0, "difference_1990_2020": 386.0 }, "geometry": { "type": "Polygon", "coordinates": [ [ [ -92.990397805212638, 17.95878505992663 ], [ -92.985825331504358, 17.958785059926626 ], [ -92.985825331504358, 17.954698566987215 ], [ -92.990397805212638, 17.954698566987219 ], [ -92.990397805212638, 17.95878505992663 ] ] ] } },
{ "type": "Feature", "properties": { "difference_1990_2000": 50.0, "difference_1990_2010": 448.0, "difference_1990_2020": 484.0 }, "geometry": { "type": "Polygon", "coordinates": [ [ [ -92.990397805212638, 17.975131965238948 ], [ -92.985825331504358, 17.975131965238962 ], [ -92.985825331504358, 17.971045098823669 ], [ -92.990397805212638, 17.971045098823673 ], [ -92.990397805212638, 17.975131965238948 ] ] ] } },
{ "type": "Feature", "properties": { "difference_1990_2000": -1.0, "difference_1990_2010": 11.0, "difference_1990_2020": 11.0 }, "geometry": { "type": "Polygon", "coordinates": [ [ [ -92.990397805212638, 17.983305978406225 ], [ -92.985825331504358, 17.983305978406239 ], [ -92.985825331504358, 17.97921892509083 ], [ -92.990397805212638, 17.979218925090827 ], [ -92.990397805212638, 17.983305978406225 ] ] ] } },
{ "type": "Feature", "properties": { "difference_1990_2000": 139.0, "difference_1990_2010": 219.0, "difference_1990_2020": 253.0 }, "geometry": { "type": "Polygon", "coordinates": [ [ [ -92.990397805212638, 17.946525860985677 ], [ -92.985825331504358, 17.946525860985677 ], [ -92.985825331504358, 17.94243964786958 ], [ -92.990397805212638, 17.942439647869584 ], [ -92.990397805212638, 17.946525860985677 ] ] ] } },
{ "type": "Feature", "properties": { "difference_1990_2000": 174.0, "difference_1990_2010": 751.0, "difference_1990_2020": 751.0 }, "geometry": { "type": "Polygon", "coordinates": [ [ [ -92.990397805212638, 17.971045098823673 ], [ -92.985825331504358, 17.971045098823669 ], [ -92.985825331504358, 17.966958325817846 ], [ -92.990397805212638, 17.966958325817846 ], [ -92.990397805212638, 17.971045098823673 ] ] ] } },
{ "type": "Feature", "properties": { "difference_1990_2000": 261.0, "difference_1990_2010": 411.0, "difference_1990_2020": 473.0 }, "geometry": { "type": "Polygon", "coordinates": [ [ [ -92.990397805212638, 17.954698566987219 ], [ -92.985825331504358, 17.954698566987215 ], [ -92.985825331504358, 17.950612167349252 ], [ -92.990397805212638, 17.950612167349245 ], [ -92.990397805212638, 17.954698566987219 ] ] ] } },
{ "type": "Feature", "properties": { "difference_1990_2000": 39.0, "difference_1990_2010": 108.0, "difference_1990_2020": 112.0 }, "geometry": { "type": "Polygon", "coordinates": [ [ [ -92.990397805212638, 17.966958325817846 ], [ -92.985825331504358, 17.966958325817846 ], [ -92.985825331504358, 17.962871646194504 ], [ -92.990397805212638, 17.9628716461945 ], [ -92.990397805212638, 17.966958325817846 ] ] ] } },
{ "type": "Feature", "properties": { "difference_1990_2000": 134.0, "difference_1990_2010": 225.0, "difference_1990_2020": 248.0 }, "geometry": { "type": "Polygon", "coordinates": [ [ [ -92.990397805212638, 17.9628716461945 ], [ -92.985825331504358, 17.962871646194504 ], [ -92.985825331504358, 17.958785059926626 ], [ -92.990397805212638, 17.95878505992663 ], [ -92.990397805212638, 17.9628716461945 ] ] ] } },
{ "type": "Feature", "properties": { "difference_1990_2000": 15.0, "difference_1990_2010": 268.0, "difference_1990_2020": 277.0 }, "geometry": { "type": "Polygon", "coordinates": [ [ [ -92.990397805212638, 17.979218925090827 ], [ -92.985825331504358, 17.97921892509083 ], [ -92.985825331504358, 17.975131965238962 ], [ -92.990397805212638, 17.975131965238948 ], [ -92.990397805212638, 17.979218925090827 ] ] ] } },
{ "type": "Feature", "properties": { "difference_1990_2000": 217.0, "difference_1990_2010": 341.0, "difference_1990_2020": 393.0 }, "geometry": { "type": "Polygon", "coordinates": [ [ [ -92.990397805212638, 17.950612167349245 ], [ -92.985825331504358, 17.950612167349252 ], [ -92.985825331504358, 17.946525860985677 ], [ -92.990397805212638, 17.946525860985677 ], [ -92.990397805212638, 17.950612167349245 ] ] ] } },
{ "type": "Feature", "properties": { "difference_1990_2000": 31.0, "difference_1990_2010": 48.0, "difference_1990_2020": 56.0 }, "geometry": { "type": "Polygon", "coordinates": [ [ [ -92.981252857796079, 17.958785059926608 ], [ -92.9766803840878, 17.958785059926623 ], [ -92.9766803840878, 17.954698566987215 ], [ -92.981252857796079, 17.954698566987194 ], [ -92.981252857796079, 17.958785059926608 ] ] ] } },
{ "type": "Feature", "properties": { "difference_1990_2000": 111.0, "difference_1990_2010": 193.0, "difference_1990_2020": 130.0 }, "geometry": { "type": "Polygon", "coordinates": [ [ [ -92.981252857796079, 17.983305978406197 ], [ -92.9766803840878, 17.983305978406225 ], [ -92.9766803840878, 17.97921892509083 ], [ -92.981252857796079, 17.97921892509083 ], [ -92.981252857796079, 17.983305978406197 ] ] ] } },
{ "type": "Feature", "properties": { "difference_1990_2000": 2808.0, "difference_1990_2010": 3028.0, "difference_1990_2020": 3135.0 }, "geometry": { "type": "Polygon", "coordinates": [ [ [ -92.981252857796079, 17.975131965238969 ], [ -92.9766803840878, 17.975131965238951 ], [ -92.9766803840878, 17.97104509882363 ], [ -92.981252857796079, 17.971045098823669 ], [ -92.981252857796079, 17.975131965238969 ] ] ] } },
{ "type": "Feature", "properties": { "difference_1990_2000": 306.0, "difference_1990_2010": 441.0, "difference_1990_2020": 405.0 }, "geometry": { "type": "Polygon", "coordinates": [ [ [ -92.981252857796079, 17.971045098823669 ], [ -92.9766803840878, 17.97104509882363 ], [ -92.9766803840878, 17.966958325817842 ], [ -92.981252857796079, 17.966958325817846 ], [ -92.981252857796079, 17.971045098823669 ] ] ] } },
{ "type": "Feature", "properties": { "difference_1990_2000": 271.0, "difference_1990_2010": 426.0, "difference_1990_2020": 491.0 }, "geometry": { "type": "Polygon", "coordinates": [ [ [ -92.981252857796079, 17.966958325817846 ], [ -92.9766803840878, 17.966958325817842 ], [ -92.9766803840878, 17.962871646194483 ], [ -92.981252857796079, 17.962871646194483 ], [ -92.981252857796079, 17.966958325817846 ] ] ] } },
{ "type": "Feature", "properties": { "difference_1990_2000": 223.0, "difference_1990_2010": 350.0, "difference_1990_2020": 404.0 }, "geometry": { "type": "Polygon", "coordinates": [ [ [ -92.981252857796079, 17.962871646194483 ], [ -92.9766803840878, 17.962871646194483 ], [ -92.9766803840878, 17.958785059926623 ], [ -92.981252857796079, 17.958785059926608 ], [ -92.981252857796079, 17.962871646194483 ] ] ] } },
{ "type": "Feature", "properties": { "difference_1990_2000": 575.0, "difference_1990_2010": 709.0, "difference_1990_2020": 732.0 }, "geometry": { "type": "Polygon", "coordinates": [ [ [ -92.981252857796079, 17.97921892509083 ], [ -92.9766803840878, 17.97921892509083 ], [ -92.9766803840878, 17.975131965238951 ], [ -92.981252857796079, 17.975131965238969 ], [ -92.981252857796079, 17.97921892509083 ] ] ] } },
{ "type": "Feature", "properties": { "difference_1990_2000": 0.0, "difference_1990_2010": 0.0, "difference_1990_2020": 951.0 }, "geometry": { "type": "Polygon", "coordinates": [ [ [ -92.97210791037952, 18.020093668567871 ], [ -92.967535436671241, 18.020093668567874 ], [ -92.967535436671241, 18.016005772863132 ], [ -92.97210791037952, 18.016005772863149 ], [ -92.97210791037952, 18.020093668567871 ] ] ] } },
{ "type": "Feature", "properties": { "difference_1990_2000": 4.0, "difference_1990_2010": 0.0, "difference_1990_2020": 416.0 }, "geometry": { "type": "Polygon", "coordinates": [ [ [ -92.97210791037952, 18.011917970865465 ], [ -92.967535436671241, 18.011917970865479 ], [ -92.967535436671241, 18.007830262547785 ], [ -92.97210791037952, 18.007830262547802 ], [ -92.97210791037952, 18.011917970865465 ] ] ] } },
{ "type": "Feature", "properties": { "difference_1990_2000": -45.0, "difference_1990_2010": -6.0, "difference_1990_2020": -32.0 }, "geometry": { "type": "Polygon", "coordinates": [ [ [ -92.97210791037952, 17.995567699404194 ], [ -92.967535436671241, 17.995567699404194 ], [ -92.967535436671241, 17.991480365535871 ], [ -92.97210791037952, 17.991480365535843 ], [ -92.97210791037952, 17.995567699404194 ] ] ] } },
{ "type": "Feature", "properties": { "difference_1990_2000": 3.0, "difference_1990_2010": 0.0, "difference_1990_2020": 0.0 }, "geometry": { "type": "Polygon", "coordinates": [ [ [ -92.97210791037952, 18.003742647883097 ], [ -92.967535436671241, 18.003742647883097 ], [ -92.967535436671241, 17.999655126844225 ], [ -92.97210791037952, 17.999655126844225 ], [ -92.97210791037952, 18.003742647883097 ] ] ] } },
{ "type": "Feature", "properties": { "difference_1990_2000": -27.0, "difference_1990_2010": 25.0, "difference_1990_2020": -29.0 }, "geometry": { "type": "Polygon", "coordinates": [ [ [ -92.97210791037952, 17.991480365535843 ], [ -92.967535436671241, 17.991480365535871 ], [ -92.967535436671241, 17.987393125212218 ], [ -92.97210791037952, 17.987393125212215 ], [ -92.97210791037952, 17.991480365535843 ] ] ] } },
{ "type": "Feature", "properties": { "difference_1990_2000": 158.0, "difference_1990_2010": 182.0, "difference_1990_2020": -23.0 }, "geometry": { "type": "Polygon", "coordinates": [ [ [ -92.97210791037952, 17.975131965238965 ], [ -92.967535436671241, 17.975131965238965 ], [ -92.967535436671241, 17.971045098823673 ], [ -92.97210791037952, 17.971045098823669 ], [ -92.97210791037952, 17.975131965238965 ] ] ] } },
{ "type": "Feature", "properties": { "difference_1990_2000": 255.0, "difference_1990_2010": 226.0, "difference_1990_2020": 55.0 }, "geometry": { "type": "Polygon", "coordinates": [ [ [ -92.97210791037952, 17.983305978406239 ], [ -92.967535436671241, 17.983305978406218 ], [ -92.967535436671241, 17.97921892509083 ], [ -92.97210791037952, 17.97921892509083 ], [ -92.97210791037952, 17.983305978406239 ] ] ] } },
{ "type": "Feature", "properties": { "difference_1990_2000": 91.0, "difference_1990_2010": 115.0, "difference_1990_2020": -85.0 }, "geometry": { "type": "Polygon", "coordinates": [ [ [ -92.97210791037952, 17.971045098823669 ], [ -92.967535436671241, 17.971045098823673 ], [ -92.967535436671241, 17.966958325817842 ], [ -92.97210791037952, 17.966958325817838 ], [ -92.97210791037952, 17.971045098823669 ] ] ] } },
{ "type": "Feature", "properties": { "difference_1990_2000": 0.0, "difference_1990_2010": 0.0, "difference_1990_2020": 772.0 }, "geometry": { "type": "Polygon", "coordinates": [ [ [ -92.97210791037952, 18.016005772863149 ], [ -92.967535436671241, 18.016005772863132 ], [ -92.967535436671241, 18.011917970865479 ], [ -92.97210791037952, 18.011917970865465 ], [ -92.97210791037952, 18.016005772863149 ] ] ] } },
{ "type": "Feature", "properties": { "difference_1990_2000": 217.0, "difference_1990_2010": 239.0, "difference_1990_2020": 50.0 }, "geometry": { "type": "Polygon", "coordinates": [ [ [ -92.97210791037952, 17.97921892509083 ], [ -92.967535436671241, 17.97921892509083 ], [ -92.967535436671241, 17.975131965238965 ], [ -92.97210791037952, 17.975131965238965 ], [ -92.97210791037952, 17.97921892509083 ] ] ] } },
{ "type": "Feature", "properties": { "difference_1990_2000": 10.0, "difference_1990_2010": 0.0, "difference_1990_2020": 7.0 }, "geometry": { "type": "Polygon", "coordinates": [ [ [ -92.97210791037952, 18.007830262547802 ], [ -92.967535436671241, 18.007830262547785 ], [ -92.967535436671241, 18.003742647883097 ], [ -92.97210791037952, 18.003742647883097 ], [ -92.97210791037952, 18.007830262547802 ] ] ] } },
{ "type": "Feature", "properties": { "difference_1990_2000": 194.0, "difference_1990_2010": 186.0, "difference_1990_2020": 42.0 }, "geometry": { "type": "Polygon", "coordinates": [ [ [ -92.97210791037952, 17.987393125212215 ], [ -92.967535436671241, 17.987393125212218 ], [ -92.967535436671241, 17.983305978406218 ], [ -92.97210791037952, 17.983305978406239 ], [ -92.97210791037952, 17.987393125212215 ] ] ] } },
{ "type": "Feature", "properties": { "difference_1990_2000": 258.0, "difference_1990_2010": 918.0, "difference_1990_2020": 1352.0 }, "geometry": { "type": "Polygon", "coordinates": [ [ [ -92.962962962962976, 18.020093668567871 ], [ -92.958390489254697, 18.020093668567874 ], [ -92.958390489254697, 18.016005772863146 ], [ -92.962962962962976, 18.016005772863128 ], [ -92.962962962962976, 18.020093668567871 ] ] ] } },
{ "type": "Feature", "properties": { "difference_1990_2000": 56.0, "difference_1990_2010": 73.0, "difference_1990_2020": 58.0 }, "geometry": { "type": "Polygon", "coordinates": [ [ [ -92.962962962962976, 18.011917970865479 ], [ -92.958390489254697, 18.011917970865483 ], [ -92.958390489254697, 18.007830262547799 ], [ -92.962962962962976, 18.007830262547795 ], [ -92.962962962962976, 18.011917970865479 ] ] ] } },
{ "type": "Feature", "properties": { "difference_1990_2000": -6.0, "difference_1990_2010": 10.0, "difference_1990_2020": -17.0 }, "geometry": { "type": "Polygon", "coordinates": [ [ [ -92.962962962962976, 17.995567699404191 ], [ -92.958390489254697, 17.995567699404187 ], [ -92.958390489254697, 17.991480365535871 ], [ -92.962962962962976, 17.991480365535871 ], [ -92.962962962962976, 17.995567699404191 ] ] ] } },
{ "type": "Feature", "properties": { "difference_1990_2000": 38.0, "difference_1990_2010": 19.0, "difference_1990_2020": 10.0 }, "geometry": { "type": "Polygon", "coordinates": [ [ [ -92.962962962962976, 17.999655126844225 ], [ -92.958390489254697, 17.999655126844228 ], [ -92.958390489254697, 17.995567699404187 ], [ -92.962962962962976, 17.995567699404191 ], [ -92.962962962962976, 17.999655126844225 ] ] ] } },
{ "type": "Feature", "properties": { "difference_1990_2000": 82.0, "difference_1990_2010": 39.0, "difference_1990_2020": 18.0 }, "geometry": { "type": "Polygon", "coordinates": [ [ [ -92.962962962962976, 18.003742647883097 ], [ -92.958390489254697, 18.003742647883101 ], [ -92.958390489254697, 17.999655126844228 ], [ -92.962962962962976, 17.999655126844225 ], [ -92.962962962962976, 18.003742647883097 ] ] ] } },
{ "type": "Feature", "properties": { "difference_1990_2000": -275.0, "difference_1990_2010": -160.0, "difference_1990_2020": -89.0 }, "geometry": { "type": "Polygon", "coordinates": [ [ [ -92.962962962962976, 17.958785059926619 ], [ -92.958390489254697, 17.958785059926608 ], [ -92.958390489254697, 17.954698566987215 ], [ -92.962962962962976, 17.954698566987215 ], [ -92.962962962962976, 17.958785059926619 ] ] ] } },
{ "type": "Feature", "properties": { "difference_1990_2000": -84.0, "difference_1990_2010": -10.0, "difference_1990_2020": -63.0 }, "geometry": { "type": "Polygon", "coordinates": [ [ [ -92.962962962962976, 17.991480365535871 ], [ -92.958390489254697, 17.991480365535871 ], [ -92.958390489254697, 17.987393125212236 ], [ -92.962962962962976, 17.987393125212218 ], [ -92.962962962962976, 17.991480365535871 ] ] ] } },
{ "type": "Feature", "properties": { "difference_1990_2000": 377.0, "difference_1990_2010": -13.0, "difference_1990_2020": -61.0 }, "geometry": { "type": "Polygon", "coordinates": [ [ [ -92.962962962962976, 17.983305978406221 ], [ -92.958390489254697, 17.983305978406221 ], [ -92.958390489254697, 17.979218925090851 ], [ -92.962962962962976, 17.979218925090827 ], [ -92.962962962962976, 17.983305978406221 ] ] ] } },
{ "type": "Feature", "properties": { "difference_1990_2000": 2786.0, "difference_1990_2010": 3203.0, "difference_1990_2020": 3315.0 }, "geometry": { "type": "Polygon", "coordinates": [ [ [ -92.962962962962976, 18.024181658006746 ], [ -92.958390489254697, 18.02418165800675 ], [ -92.958390489254697, 18.020093668567874 ], [ -92.962962962962976, 18.020093668567871 ], [ -92.962962962962976, 18.024181658006746 ] ] ] } },
{ "type": "Feature", "properties": { "difference_1990_2000": 276.0, "difference_1990_2010": -13.0, "difference_1990_2020": -513.0 }, "geometry": { "type": "Polygon", "coordinates": [ [ [ -92.962962962962976, 17.975131965239001 ], [ -92.958390489254697, 17.975131965238969 ], [ -92.958390489254697, 17.971045098823673 ], [ -92.962962962962976, 17.971045098823669 ], [ -92.962962962962976, 17.975131965239001 ] ] ] } },
{ "type": "Feature", "properties": { "difference_1990_2000": -1.0, "difference_1990_2010": 0.0, "difference_1990_2020": 0.0 }, "geometry": { "type": "Polygon", "coordinates": [ [ [ -92.962962962962976, 17.94652586098567 ], [ -92.958390489254697, 17.946525860985677 ], [ -92.958390489254697, 17.942439647869584 ], [ -92.962962962962976, 17.94243964786958 ], [ -92.962962962962976, 17.94652586098567 ] ] ] } },
{ "type": "Feature", "properties": { "difference_1990_2000": -196.0, "difference_1990_2010": -80.0, "difference_1990_2020": -415.0 }, "geometry": { "type": "Polygon", "coordinates": [ [ [ -92.962962962962976, 17.971045098823669 ], [ -92.958390489254697, 17.971045098823673 ], [ -92.958390489254697, 17.966958325817846 ], [ -92.962962962962976, 17.966958325817878 ], [ -92.962962962962976, 17.971045098823669 ] ] ] } },
{ "type": "Feature", "properties": { "difference_1990_2000": -275.0, "difference_1990_2010": -160.0, "difference_1990_2020": -89.0 }, "geometry": { "type": "Polygon", "coordinates": [ [ [ -92.962962962962976, 17.954698566987215 ], [ -92.958390489254697, 17.954698566987215 ], [ -92.958390489254697, 17.950612167349242 ], [ -92.962962962962976, 17.950612167349245 ], [ -92.962962962962976, 17.954698566987215 ] ] ] } },
{ "type": "Feature", "properties": { "difference_1990_2000": 396.0, "difference_1990_2010": 798.0, "difference_1990_2020": 804.0 }, "geometry": { "type": "Polygon", "coordinates": [ [ [ -92.962962962962976, 18.016005772863128 ], [ -92.958390489254697, 18.016005772863146 ], [ -92.958390489254697, 18.011917970865483 ], [ -92.962962962962976, 18.011917970865479 ], [ -92.962962962962976, 18.016005772863128 ] ] ] } },
{ "type": "Feature", "properties": { "difference_1990_2000": -231.0, "difference_1990_2010": -6.0, "difference_1990_2020": -395.0 }, "geometry": { "type": "Polygon", "coordinates": [ [ [ -92.962962962962976, 17.966958325817878 ], [ -92.958390489254697, 17.966958325817846 ], [ -92.958390489254697, 17.962871646194497 ], [ -92.962962962962976, 17.962871646194529 ], [ -92.962962962962976, 17.966958325817878 ] ] ] } },
{ "type": "Feature", "properties": { "difference_1990_2000": 395.0, "difference_1990_2010": -33.0, "difference_1990_2020": -393.0 }, "geometry": { "type": "Polygon", "coordinates": [ [ [ -92.962962962962976, 17.979218925090827 ], [ -92.958390489254697, 17.979218925090851 ], [ -92.958390489254697, 17.975131965238969 ], [ -92.962962962962976, 17.975131965239001 ], [ -92.962962962962976, 17.979218925090827 ] ] ] } },
{ "type": "Feature", "properties": { "difference_1990_2000": -243.0, "difference_1990_2010": -100.0, "difference_1990_2020": -183.0 }, "geometry": { "type": "Polygon", "coordinates": [ [ [ -92.962962962962976, 17.962871646194529 ], [ -92.958390489254697, 17.962871646194497 ], [ -92.958390489254697, 17.958785059926608 ], [ -92.962962962962976, 17.958785059926619 ], [ -92.962962962962976, 17.962871646194529 ] ] ] } },
{ "type": "Feature", "properties": { "difference_1990_2000": -215.0, "difference_1990_2010": -124.0, "difference_1990_2020": -69.0 }, "geometry": { "type": "Polygon", "coordinates": [ [ [ -92.962962962962976, 17.950612167349245 ], [ -92.958390489254697, 17.950612167349242 ], [ -92.958390489254697, 17.946525860985677 ], [ -92.962962962962976, 17.94652586098567 ], [ -92.962962962962976, 17.950612167349245 ] ] ] } },
{ "type": "Feature", "properties": { "difference_1990_2000": 19.0, "difference_1990_2010": 1.0, "difference_1990_2020": 1.0 }, "geometry": { "type": "Polygon", "coordinates": [ [ [ -92.962962962962976, 18.007830262547795 ], [ -92.958390489254697, 18.007830262547799 ], [ -92.958390489254697, 18.003742647883101 ], [ -92.962962962962976, 18.003742647883097 ], [ -92.962962962962976, 18.007830262547795 ] ] ] } },
{ "type": "Feature", "properties": { "difference_1990_2000": 375.0, "difference_1990_2010": 178.0, "difference_1990_2020": 69.0 }, "geometry": { "type": "Polygon", "coordinates": [ [ [ -92.962962962962976, 17.987393125212218 ], [ -92.958390489254697, 17.987393125212236 ], [ -92.958390489254697, 17.983305978406221 ], [ -92.962962962962976, 17.983305978406221 ], [ -92.962962962962976, 17.987393125212218 ] ] ] } },
{ "type": "Feature", "properties": { "difference_1990_2000": 126.0, "difference_1990_2010": -83.0, "difference_1990_2020": -246.0 }, "geometry": { "type": "Polygon", "coordinates": [ [ [ -92.953818015546446, 18.020093668567835 ], [ -92.949245541838181, 18.020093668567878 ], [ -92.949245541838181, 18.016005772863132 ], [ -92.953818015546446, 18.016005772863128 ], [ -92.953818015546446, 18.020093668567835 ] ] ] } },
{ "type": "Feature", "properties": { "difference_1990_2000": -95.0, "difference_1990_2010": -152.0, "difference_1990_2020": -167.0 }, "geometry": { "type": "Polygon", "coordinates": [ [ [ -92.953818015546446, 18.011917970865483 ], [ -92.949245541838181, 18.011917970865468 ], [ -92.949245541838181, 18.007830262547785 ], [ -92.953818015546446, 18.007830262547806 ], [ -92.953818015546446, 18.011917970865483 ] ] ] } },
{ "type": "Feature", "properties": { "difference_1990_2000": 40.0, "difference_1990_2010": -81.0, "difference_1990_2020": -164.0 }, "geometry": { "type": "Polygon", "coordinates": [ [ [ -92.953818015546446, 17.995567699404191 ], [ -92.949245541838181, 17.995567699404191 ], [ -92.949245541838181, 17.991480365535867 ], [ -92.953818015546446, 17.991480365535867 ], [ -92.953818015546446, 17.995567699404191 ] ] ] } },
{ "type": "Feature", "properties": { "difference_1990_2000": 463.0, "difference_1990_2010": 264.0, "difference_1990_2020": 217.0 }, "geometry": { "type": "Polygon", "coordinates": [ [ [ -92.953818015546446, 17.999655126844228 ], [ -92.949245541838181, 17.99965512684421 ], [ -92.949245541838181, 17.995567699404191 ], [ -92.953818015546446, 17.995567699404191 ], [ -92.953818015546446, 17.999655126844228 ] ] ] } },
{ "type": "Feature", "properties": { "difference_1990_2000": 864.0, "difference_1990_2010": 594.0, "difference_1990_2020": 585.0 }, "geometry": { "type": "Polygon", "coordinates": [ [ [ -92.953818015546446, 18.003742647883101 ], [ -92.949245541838181, 18.003742647883101 ], [ -92.949245541838181, 17.99965512684421 ], [ -92.953818015546446, 17.999655126844228 ], [ -92.953818015546446, 18.003742647883101 ] ] ] } },
{ "type": "Feature", "properties": { "difference_1990_2000": -214.0, "difference_1990_2010": 127.0, "difference_1990_2020": 142.0 }, "geometry": { "type": "Polygon", "coordinates": [ [ [ -92.953818015546446, 17.958785059926608 ], [ -92.949245541838181, 17.958785059926608 ], [ -92.949245541838181, 17.954698566987215 ], [ -92.953818015546446, 17.954698566987215 ], [ -92.953818015546446, 17.958785059926608 ] ] ] } },
{ "type": "Feature", "properties": { "difference_1990_2000": 35.0, "difference_1990_2010": -85.0, "difference_1990_2020": -169.0 }, "geometry": { "type": "Polygon", "coordinates": [ [ [ -92.953818015546446, 17.991480365535867 ], [ -92.949245541838181, 17.991480365535867 ], [ -92.949245541838181, 17.987393125212218 ], [ -92.953818015546446, 17.987393125212211 ], [ -92.953818015546446, 17.991480365535867 ] ] ] } },
{ "type": "Feature", "properties": { "difference_1990_2000": 615.0, "difference_1990_2010": -100.0, "difference_1990_2020": -325.0 }, "geometry": { "type": "Polygon", "coordinates": [ [ [ -92.953818015546446, 17.983305978406221 ], [ -92.949245541838181, 17.983305978406221 ], [ -92.949245541838181, 17.979218925090787 ], [ -92.953818015546446, 17.97921892509083 ], [ -92.953818015546446, 17.983305978406221 ] ] ] } },
{ "type": "Feature", "properties": { "difference_1990_2000": 2809.0, "difference_1990_2010": 2335.0, "difference_1990_2020": 2020.0 }, "geometry": { "type": "Polygon", "coordinates": [ [ [ -92.953818015546446, 17.975131965238965 ], [ -92.949245541838181, 17.975131965238948 ], [ -92.949245541838181, 17.971045098823673 ], [ -92.953818015546446, 17.971045098823669 ], [ -92.953818015546446, 17.975131965238965 ] ] ] } },
{ "type": "Feature", "properties": { "difference_1990_2000": 52.0, "difference_1990_2010": -8.0, "difference_1990_2020": -61.0 }, "geometry": { "type": "Polygon", "coordinates": [ [ [ -92.953818015546446, 18.02418165800675 ], [ -92.949245541838181, 18.024181658006754 ], [ -92.949245541838181, 18.020093668567878 ], [ -92.953818015546446, 18.020093668567835 ], [ -92.953818015546446, 18.02418165800675 ] ] ] } },
{ "type": "Feature", "properties": { "difference_1990_2000": -259.0, "difference_1990_2010": -150.0, "difference_1990_2020": -83.0 }, "geometry": { "type": "Polygon", "coordinates": [ [ [ -92.953818015546446, 17.946525860985673 ], [ -92.949245541838181, 17.946525860985652 ], [ -92.949245541838181, 17.942439647869584 ], [ -92.953818015546446, 17.94243964786958 ], [ -92.953818015546446, 17.946525860985673 ] ] ] } },
{ "type": "Feature", "properties": { "difference_1990_2000": 1823.0, "difference_1990_2010": 1542.0, "difference_1990_2020": 1278.0 }, "geometry": { "type": "Polygon", "coordinates": [ [ [ -92.953818015546446, 17.971045098823669 ], [ -92.949245541838181, 17.971045098823673 ], [ -92.949245541838181, 17.966958325817842 ], [ -92.953818015546446, 17.966958325817846 ], [ -92.953818015546446, 17.971045098823669 ] ] ] } },
{ "type": "Feature", "properties": { "difference_1990_2000": -275.0, "difference_1990_2010": -160.0, "difference_1990_2020": -89.0 }, "geometry": { "type": "Polygon", "coordinates": [ [ [ -92.953818015546446, 17.954698566987215 ], [ -92.949245541838181, 17.954698566987215 ], [ -92.949245541838181, 17.950612167349224 ], [ -92.953818015546446, 17.95061216734922 ], [ -92.953818015546446, 17.954698566987215 ] ] ] } },
{ "type": "Feature", "properties": { "difference_1990_2000": 999.0, "difference_1990_2010": 933.0, "difference_1990_2020": 738.0 }, "geometry": { "type": "Polygon", "coordinates": [ [ [ -92.953818015546446, 17.966958325817846 ], [ -92.949245541838181, 17.966958325817842 ], [ -92.949245541838181, 17.962871646194532 ], [ -92.953818015546446, 17.9628716461945 ], [ -92.953818015546446, 17.966958325817846 ] ] ] } },
{ "type": "Feature", "properties": { "difference_1990_2000": 85.0, "difference_1990_2010": -95.0, "difference_1990_2020": -231.0 }, "geometry": { "type": "Polygon", "coordinates": [ [ [ -92.953818015546446, 18.016005772863128 ], [ -92.949245541838181, 18.016005772863132 ], [ -92.949245541838181, 18.011917970865468 ], [ -92.953818015546446, 18.011917970865483 ], [ -92.953818015546446, 18.016005772863128 ] ] ] } },
{ "type": "Feature", "properties": { "difference_1990_2000": 524.0, "difference_1990_2010": 794.0, "difference_1990_2020": 650.0 }, "geometry": { "type": "Polygon", "coordinates": [ [ [ -92.953818015546446, 17.9628716461945 ], [ -92.949245541838181, 17.962871646194532 ], [ -92.949245541838181, 17.958785059926608 ], [ -92.953818015546446, 17.958785059926608 ], [ -92.953818015546446, 17.9628716461945 ] ] ] } },
{ "type": "Feature", "properties": { "difference_1990_2000": 1575.0, "difference_1990_2010": 1257.0, "difference_1990_2020": 1077.0 }, "geometry": { "type": "Polygon", "coordinates": [ [ [ -92.953818015546446, 17.97921892509083 ], [ -92.949245541838181, 17.979218925090787 ], [ -92.949245541838181, 17.975131965238948 ], [ -92.953818015546446, 17.975131965238965 ], [ -92.953818015546446, 17.97921892509083 ] ] ] } },
{ "type": "Feature", "properties": { "difference_1990_2000": -275.0, "difference_1990_2010": -160.0, "difference_1990_2020": -89.0 }, "geometry": { "type": "Polygon", "coordinates": [ [ [ -92.953818015546446, 17.95061216734922 ], [ -92.949245541838181, 17.950612167349224 ], [ -92.949245541838181, 17.946525860985652 ], [ -92.953818015546446, 17.946525860985673 ], [ -92.953818015546446, 17.95061216734922 ] ] ] } },
{ "type": "Feature", "properties": { "difference_1990_2000": 54.0, "difference_1990_2010": -22.0, "difference_1990_2020": -16.0 }, "geometry": { "type": "Polygon", "coordinates": [ [ [ -92.953818015546446, 18.007830262547806 ], [ -92.949245541838181, 18.007830262547785 ], [ -92.949245541838181, 18.003742647883101 ], [ -92.953818015546446, 18.003742647883101 ], [ -92.953818015546446, 18.007830262547806 ] ] ] } },
{ "type": "Feature", "properties": { "difference_1990_2000": 84.0, "difference_1990_2010": -206.0, "difference_1990_2020": -299.0 }, "geometry": { "type": "Polygon", "coordinates": [ [ [ -92.953818015546446, 17.987393125212211 ], [ -92.949245541838181, 17.987393125212218 ], [ -92.949245541838181, 17.983305978406221 ], [ -92.953818015546446, 17.983305978406221 ], [ -92.953818015546446, 17.987393125212211 ] ] ] } }
]
}
