{
"type": "FeatureCollection",
"name": "M30.02",
"crs": { "type": "name", "properties": { "name": "urn:ogc:def:crs:OGC:1.3:CRS84" } },
"features": [
{ "type": "Feature", "properties": { "difference_1990_2000": 1.0, "difference_1990_2010": 0.0, "difference_1990_2020": 1.0 }, "geometry": { "type": "Polygon", "coordinates": [ [ [ -97.018747142203935, 18.917648790297225 ], [ -97.014174668495656, 18.917648790297225 ], [ -97.014174668495656, 18.913539711284638 ], [ -97.018747142203935, 18.91353971128466 ], [ -97.018747142203935, 18.917648790297225 ] ] ] } },
{ "type": "Feature", "properties": { "difference_1990_2000": 132.0, "difference_1990_2010": 0.0, "difference_1990_2020": 194.0 }, "geometry": { "type": "Polygon", "coordinates": [ [ [ -97.018747142203935, 18.925867247722202 ], [ -97.014174668495656, 18.925867247722199 ], [ -97.014174668495656, 18.921757969100319 ], [ -97.018747142203935, 18.921757969100291 ], [ -97.018747142203935, 18.925867247722202 ] ] ] } },
{ "type": "Feature", "properties": { "difference_1990_2000": 263.0, "difference_1990_2010": 0.0, "difference_1990_2020": 380.0 }, "geometry": { "type": "Polygon", "coordinates": [ [ [ -97.018747142203935, 18.921757969100291 ], [ -97.014174668495656, 18.921757969100319 ], [ -97.014174668495656, 18.917648790297225 ], [ -97.018747142203935, 18.917648790297225 ], [ -97.018747142203935, 18.921757969100291 ] ] ] } },
{ "type": "Feature", "properties": { "difference_1990_2000": 314.0, "difference_1990_2010": 0.0, "difference_1990_2020": 408.0 }, "geometry": { "type": "Polygon", "coordinates": [ [ [ -97.009602194787405, 18.921757969100355 ], [ -97.00502972107914, 18.921757969100319 ], [ -97.00502972107914, 18.917648790297225 ], [ -97.009602194787405, 18.917648790297228 ], [ -97.009602194787405, 18.921757969100355 ] ] ] } },
{ "type": "Feature", "properties": { "difference_1990_2000": 10.0, "difference_1990_2010": 0.0, "difference_1990_2020": -36.0 }, "geometry": { "type": "Polygon", "coordinates": [ [ [ -97.009602194787405, 18.897104392574974 ], [ -97.00502972107914, 18.897104392574974 ], [ -97.00502972107914, 18.892995812091637 ], [ -97.009602194787405, 18.892995812091637 ], [ -97.009602194787405, 18.897104392574974 ] ] ] } },
{ "type": "Feature", "properties": { "difference_1990_2000": 314.0, "difference_1990_2010": 0.0, "difference_1990_2020": 419.0 }, "geometry": { "type": "Polygon", "coordinates": [ [ [ -97.009602194787405, 18.917648790297228 ], [ -97.00502972107914, 18.917648790297225 ], [ -97.00502972107914, 18.913539711284656 ], [ -97.009602194787405, 18.91353971128466 ], [ -97.009602194787405, 18.917648790297228 ] ] ] } },
{ "type": "Feature", "properties": { "difference_1990_2000": 109.0, "difference_1990_2010": 0.0, "difference_1990_2020": 154.0 }, "geometry": { "type": "Polygon", "coordinates": [ [ [ -97.009602194787405, 18.905321852518139 ], [ -97.00502972107914, 18.905321852518114 ], [ -97.00502972107914, 18.901213072707769 ], [ -97.009602194787405, 18.901213072707748 ], [ -97.009602194787405, 18.905321852518139 ] ] ] } },
{ "type": "Feature", "properties": { "difference_1990_2000": 45.0, "difference_1990_2010": 0.0, "difference_1990_2020": 61.0 }, "geometry": { "type": "Polygon", "coordinates": [ [ [ -97.009602194787405, 18.925867247722202 ], [ -97.00502972107914, 18.925867247722206 ], [ -97.00502972107914, 18.921757969100319 ], [ -97.009602194787405, 18.921757969100355 ], [ -97.009602194787405, 18.925867247722202 ] ] ] } },
{ "type": "Feature", "properties": { "difference_1990_2000": 151.0, "difference_1990_2010": 0.0, "difference_1990_2020": 212.0 }, "geometry": { "type": "Polygon", "coordinates": [ [ [ -97.009602194787405, 18.91353971128466 ], [ -97.00502972107914, 18.913539711284656 ], [ -97.00502972107914, 18.90943073203437 ], [ -97.009602194787405, 18.90943073203437 ], [ -97.009602194787405, 18.91353971128466 ] ] ] } },
{ "type": "Feature", "properties": { "difference_1990_2000": 117.0, "difference_1990_2010": 0.0, "difference_1990_2020": 171.0 }, "geometry": { "type": "Polygon", "coordinates": [ [ [ -97.009602194787405, 18.90943073203437 ], [ -97.00502972107914, 18.90943073203437 ], [ -97.00502972107914, 18.905321852518114 ], [ -97.009602194787405, 18.905321852518139 ], [ -97.009602194787405, 18.90943073203437 ] ] ] } },
{ "type": "Feature", "properties": { "difference_1990_2000": -355.0, "difference_1990_2010": 0.0, "difference_1990_2020": -700.0 }, "geometry": { "type": "Polygon", "coordinates": [ [ [ -97.009602194787405, 18.901213072707748 ], [ -97.00502972107914, 18.901213072707769 ], [ -97.00502972107914, 18.897104392574974 ], [ -97.009602194787405, 18.897104392574974 ], [ -97.009602194787405, 18.901213072707748 ] ] ] } },
{ "type": "Feature", "properties": { "difference_1990_2000": 9.0, "difference_1990_2010": 0.0, "difference_1990_2020": -33.0 }, "geometry": { "type": "Polygon", "coordinates": [ [ [ -97.000457247370846, 18.892995812091641 ], [ -96.995884773662553, 18.892995812091634 ], [ -96.995884773662553, 18.888887331229398 ], [ -97.000457247370846, 18.888887331229441 ], [ -97.000457247370846, 18.892995812091641 ] ] ] } },
{ "type": "Feature", "properties": { "difference_1990_2000": 14.0, "difference_1990_2010": 0.0, "difference_1990_2020": -39.0 }, "geometry": { "type": "Polygon", "coordinates": [ [ [ -97.000457247370846, 18.897104392574967 ], [ -96.995884773662553, 18.897104392574974 ], [ -96.995884773662553, 18.892995812091634 ], [ -97.000457247370846, 18.892995812091641 ], [ -97.000457247370846, 18.897104392574967 ] ] ] } },
{ "type": "Feature", "properties": { "difference_1990_2000": -52.0, "difference_1990_2010": 0.0, "difference_1990_2020": -53.0 }, "geometry": { "type": "Polygon", "coordinates": [ [ [ -97.000457247370846, 18.917648790297225 ], [ -96.995884773662553, 18.917648790297182 ], [ -96.995884773662553, 18.913539711284656 ], [ -97.000457247370846, 18.91353971128466 ], [ -97.000457247370846, 18.917648790297225 ] ] ] } },
{ "type": "Feature", "properties": { "difference_1990_2000": -138.0, "difference_1990_2010": 0.0, "difference_1990_2020": -407.0 }, "geometry": { "type": "Polygon", "coordinates": [ [ [ -97.000457247370846, 18.905321852518142 ], [ -96.995884773662553, 18.905321852518146 ], [ -96.995884773662553, 18.901213072707769 ], [ -97.000457247370846, 18.901213072707804 ], [ -97.000457247370846, 18.905321852518142 ] ] ] } },
{ "type": "Feature", "properties": { "difference_1990_2000": -156.0, "difference_1990_2010": 0.0, "difference_1990_2020": -159.0 }, "geometry": { "type": "Polygon", "coordinates": [ [ [ -97.000457247370846, 18.91353971128466 ], [ -96.995884773662553, 18.913539711284656 ], [ -96.995884773662553, 18.909430732034409 ], [ -97.000457247370846, 18.909430732034426 ], [ -97.000457247370846, 18.91353971128466 ] ] ] } },
{ "type": "Feature", "properties": { "difference_1990_2000": -156.0, "difference_1990_2010": 0.0, "difference_1990_2020": -159.0 }, "geometry": { "type": "Polygon", "coordinates": [ [ [ -97.000457247370846, 18.909430732034426 ], [ -96.995884773662553, 18.909430732034409 ], [ -96.995884773662553, 18.905321852518146 ], [ -97.000457247370846, 18.905321852518142 ], [ -97.000457247370846, 18.909430732034426 ] ] ] } },
{ "type": "Feature", "properties": { "difference_1990_2000": -42.0, "difference_1990_2010": 0.0, "difference_1990_2020": -330.0 }, "geometry": { "type": "Polygon", "coordinates": [ [ [ -97.000457247370846, 18.901213072707804 ], [ -96.995884773662553, 18.901213072707769 ], [ -96.995884773662553, 18.897104392574974 ], [ -97.000457247370846, 18.897104392574967 ], [ -97.000457247370846, 18.901213072707804 ] ] ] } },
{ "type": "Feature", "properties": { "difference_1990_2000": 16.0, "difference_1990_2010": 0.0, "difference_1990_2020": 36.0 }, "geometry": { "type": "Polygon", "coordinates": [ [ [ -96.991312299954274, 18.892995812091637 ], [ -96.986739826245994, 18.892995812091634 ], [ -96.986739826245994, 18.888887331229387 ], [ -96.991312299954274, 18.888887331229402 ], [ -96.991312299954274, 18.892995812091637 ] ] ] } },
{ "type": "Feature", "properties": { "difference_1990_2000": 37.0, "difference_1990_2010": 0.0, "difference_1990_2020": 174.0 }, "geometry": { "type": "Polygon", "coordinates": [ [ [ -96.991312299954274, 18.897104392574985 ], [ -96.986739826245994, 18.897104392574985 ], [ -96.986739826245994, 18.892995812091634 ], [ -96.991312299954274, 18.892995812091637 ], [ -96.991312299954274, 18.897104392574985 ] ] ] } },
{ "type": "Feature", "properties": { "difference_1990_2000": 1.0, "difference_1990_2010": 0.0, "difference_1990_2020": 2.0 }, "geometry": { "type": "Polygon", "coordinates": [ [ [ -96.991312299954274, 18.917648790297228 ], [ -96.986739826245994, 18.917648790297225 ], [ -96.986739826245994, 18.91353971128466 ], [ -96.991312299954274, 18.913539711284653 ], [ -96.991312299954274, 18.917648790297228 ] ] ] } },
{ "type": "Feature", "properties": { "difference_1990_2000": -76.0, "difference_1990_2010": 0.0, "difference_1990_2020": -49.0 }, "geometry": { "type": "Polygon", "coordinates": [ [ [ -96.991312299954274, 18.905321852518142 ], [ -96.986739826245994, 18.905321852518142 ], [ -96.986739826245994, 18.901213072707769 ], [ -96.991312299954274, 18.901213072707751 ], [ -96.991312299954274, 18.905321852518142 ] ] ] } },
{ "type": "Feature", "properties": { "difference_1990_2000": 6.0, "difference_1990_2010": 0.0, "difference_1990_2020": 11.0 }, "geometry": { "type": "Polygon", "coordinates": [ [ [ -96.991312299954274, 18.913539711284653 ], [ -96.986739826245994, 18.91353971128466 ], [ -96.986739826245994, 18.909430732034402 ], [ -96.991312299954274, 18.90943073203437 ], [ -96.991312299954274, 18.913539711284653 ] ] ] } },
{ "type": "Feature", "properties": { "difference_1990_2000": -18.0, "difference_1990_2010": 0.0, "difference_1990_2020": -19.0 }, "geometry": { "type": "Polygon", "coordinates": [ [ [ -96.991312299954274, 18.90943073203437 ], [ -96.986739826245994, 18.909430732034402 ], [ -96.986739826245994, 18.905321852518142 ], [ -96.991312299954274, 18.905321852518142 ], [ -96.991312299954274, 18.90943073203437 ] ] ] } },
{ "type": "Feature", "properties": { "difference_1990_2000": 51.0, "difference_1990_2010": 0.0, "difference_1990_2020": 277.0 }, "geometry": { "type": "Polygon", "coordinates": [ [ [ -96.991312299954274, 18.901213072707751 ], [ -96.986739826245994, 18.901213072707769 ], [ -96.986739826245994, 18.897104392574985 ], [ -96.991312299954274, 18.897104392574985 ], [ -96.991312299954274, 18.901213072707751 ] ] ] } },
{ "type": "Feature", "properties": { "difference_1990_2000": -85.0, "difference_1990_2010": 0.0, "difference_1990_2020": -58.0 }, "geometry": { "type": "Polygon", "coordinates": [ [ [ -96.982167352537715, 18.892995812091641 ], [ -96.977594878829436, 18.89299581209163 ], [ -96.977594878829436, 18.888887331229398 ], [ -96.982167352537715, 18.888887331229391 ], [ -96.982167352537715, 18.892995812091641 ] ] ] } },
{ "type": "Feature", "properties": { "difference_1990_2000": -157.0, "difference_1990_2010": 0.0, "difference_1990_2020": -107.0 }, "geometry": { "type": "Polygon", "coordinates": [ [ [ -96.982167352537715, 18.89710439257497 ], [ -96.977594878829436, 18.89710439257497 ], [ -96.977594878829436, 18.89299581209163 ], [ -96.982167352537715, 18.892995812091641 ], [ -96.982167352537715, 18.89710439257497 ] ] ] } },
{ "type": "Feature", "properties": { "difference_1990_2000": 50.0, "difference_1990_2010": 0.0, "difference_1990_2020": 104.0 }, "geometry": { "type": "Polygon", "coordinates": [ [ [ -96.982167352537715, 18.917648790297218 ], [ -96.977594878829436, 18.917648790297225 ], [ -96.977594878829436, 18.913539711284656 ], [ -96.982167352537715, 18.913539711284663 ], [ -96.982167352537715, 18.917648790297218 ] ] ] } },
{ "type": "Feature", "properties": { "difference_1990_2000": 25.0, "difference_1990_2010": 0.0, "difference_1990_2020": 135.0 }, "geometry": { "type": "Polygon", "coordinates": [ [ [ -96.982167352537715, 18.905321852518163 ], [ -96.977594878829436, 18.905321852518142 ], [ -96.977594878829436, 18.901213072707744 ], [ -96.982167352537715, 18.901213072707744 ], [ -96.982167352537715, 18.905321852518163 ] ] ] } },
{ "type": "Feature", "properties": { "difference_1990_2000": 0.0, "difference_1990_2010": 0.0, "difference_1990_2020": 1121.0 }, "geometry": { "type": "Polygon", "coordinates": [ [ [ -96.982167352537715, 18.888887331229391 ], [ -96.977594878829436, 18.888887331229398 ], [ -96.977594878829436, 18.884778949960179 ], [ -96.982167352537715, 18.884778949960179 ], [ -96.982167352537715, 18.888887331229391 ] ] ] } },
{ "type": "Feature", "properties": { "difference_1990_2000": 127.0, "difference_1990_2010": 0.0, "difference_1990_2020": 264.0 }, "geometry": { "type": "Polygon", "coordinates": [ [ [ -96.982167352537715, 18.913539711284663 ], [ -96.977594878829436, 18.913539711284656 ], [ -96.977594878829436, 18.909430732034366 ], [ -96.982167352537715, 18.90943073203437 ], [ -96.982167352537715, 18.913539711284663 ] ] ] } },
{ "type": "Feature", "properties": { "difference_1990_2000": 127.0, "difference_1990_2010": 0.0, "difference_1990_2020": 264.0 }, "geometry": { "type": "Polygon", "coordinates": [ [ [ -96.982167352537715, 18.90943073203437 ], [ -96.977594878829436, 18.909430732034366 ], [ -96.977594878829436, 18.905321852518142 ], [ -96.982167352537715, 18.905321852518163 ], [ -96.982167352537715, 18.90943073203437 ] ] ] } },
{ "type": "Feature", "properties": { "difference_1990_2000": 0.0, "difference_1990_2010": 0.0, "difference_1990_2020": 1155.0 }, "geometry": { "type": "Polygon", "coordinates": [ [ [ -96.982167352537715, 18.884778949960179 ], [ -96.977594878829436, 18.884778949960179 ], [ -96.977594878829436, 18.880670668255732 ], [ -96.982167352537715, 18.880670668255725 ], [ -96.982167352537715, 18.884778949960179 ] ] ] } },
{ "type": "Feature", "properties": { "difference_1990_2000": -175.0, "difference_1990_2010": 0.0, "difference_1990_2020": -119.0 }, "geometry": { "type": "Polygon", "coordinates": [ [ [ -96.982167352537715, 18.901213072707744 ], [ -96.977594878829436, 18.901213072707744 ], [ -96.977594878829436, 18.89710439257497 ], [ -96.982167352537715, 18.89710439257497 ], [ -96.982167352537715, 18.901213072707744 ] ] ] } },
{ "type": "Feature", "properties": { "difference_1990_2000": 49.0, "difference_1990_2010": 0.0, "difference_1990_2020": 321.0 }, "geometry": { "type": "Polygon", "coordinates": [ [ [ -96.973022405121185, 18.892995812091637 ], [ -96.968449931412906, 18.892995812091641 ], [ -96.968449931412906, 18.888887331229398 ], [ -96.973022405121185, 18.888887331229398 ], [ -96.973022405121185, 18.892995812091637 ] ] ] } },
{ "type": "Feature", "properties": { "difference_1990_2000": -1515.0, "difference_1990_2010": 0.0, "difference_1990_2020": -1594.0 }, "geometry": { "type": "Polygon", "coordinates": [ [ [ -96.973022405121185, 18.89710439257497 ], [ -96.968449931412906, 18.897104392574974 ], [ -96.968449931412906, 18.892995812091641 ], [ -96.973022405121185, 18.892995812091637 ], [ -96.973022405121185, 18.89710439257497 ] ] ] } },
{ "type": "Feature", "properties": { "difference_1990_2000": 0.0, "difference_1990_2010": 0.0, "difference_1990_2020": 741.0 }, "geometry": { "type": "Polygon", "coordinates": [ [ [ -96.973022405121185, 18.917648790297239 ], [ -96.968449931412906, 18.917648790297189 ], [ -96.968449931412906, 18.91353971128466 ], [ -96.973022405121185, 18.91353971128466 ], [ -96.973022405121185, 18.917648790297239 ] ] ] } },
{ "type": "Feature", "properties": { "difference_1990_2000": -367.0, "difference_1990_2010": 0.0, "difference_1990_2020": -187.0 }, "geometry": { "type": "Polygon", "coordinates": [ [ [ -96.973022405121185, 18.905321852518142 ], [ -96.968449931412906, 18.905321852518142 ], [ -96.968449931412906, 18.901213072707769 ], [ -96.973022405121185, 18.901213072707769 ], [ -96.973022405121185, 18.905321852518142 ] ] ] } },
{ "type": "Feature", "properties": { "difference_1990_2000": 892.0, "difference_1990_2010": 0.0, "difference_1990_2020": 1801.0 }, "geometry": { "type": "Polygon", "coordinates": [ [ [ -96.973022405121185, 18.880670668255725 ], [ -96.968449931412906, 18.880670668255732 ], [ -96.968449931412906, 18.876562486087884 ], [ -96.973022405121185, 18.876562486087884 ], [ -96.973022405121185, 18.880670668255725 ] ] ] } },
{ "type": "Feature", "properties": { "difference_1990_2000": 1679.0, "difference_1990_2010": 0.0, "difference_1990_2020": 2112.0 }, "geometry": { "type": "Polygon", "coordinates": [ [ [ -96.973022405121185, 18.888887331229398 ], [ -96.968449931412906, 18.888887331229398 ], [ -96.968449931412906, 18.884778949960179 ], [ -96.973022405121185, 18.884778949960179 ], [ -96.973022405121185, 18.888887331229398 ] ] ] } },
{ "type": "Feature", "properties": { "difference_1990_2000": 0.0, "difference_1990_2010": 0.0, "difference_1990_2020": 182.0 }, "geometry": { "type": "Polygon", "coordinates": [ [ [ -96.973022405121185, 18.91353971128466 ], [ -96.968449931412906, 18.91353971128466 ], [ -96.968449931412906, 18.909430732034405 ], [ -96.973022405121185, 18.909430732034412 ], [ -96.973022405121185, 18.91353971128466 ] ] ] } },
{ "type": "Feature", "properties": { "difference_1990_2000": 1603.0, "difference_1990_2010": 0.0, "difference_1990_2020": 3080.0 }, "geometry": { "type": "Polygon", "coordinates": [ [ [ -96.973022405121185, 18.884778949960179 ], [ -96.968449931412906, 18.884778949960179 ], [ -96.968449931412906, 18.880670668255732 ], [ -96.973022405121185, 18.880670668255725 ], [ -96.973022405121185, 18.884778949960179 ] ] ] } },
{ "type": "Feature", "properties": { "difference_1990_2000": -12.0, "difference_1990_2010": 0.0, "difference_1990_2020": 89.0 }, "geometry": { "type": "Polygon", "coordinates": [ [ [ -96.973022405121185, 18.909430732034412 ], [ -96.968449931412906, 18.909430732034405 ], [ -96.968449931412906, 18.905321852518142 ], [ -96.973022405121185, 18.905321852518142 ], [ -96.973022405121185, 18.909430732034412 ] ] ] } },
{ "type": "Feature", "properties": { "difference_1990_2000": 288.0, "difference_1990_2010": 0.0, "difference_1990_2020": 398.0 }, "geometry": { "type": "Polygon", "coordinates": [ [ [ -96.973022405121185, 18.876562486087884 ], [ -96.968449931412906, 18.876562486087884 ], [ -96.968449931412906, 18.872454403428435 ], [ -96.973022405121185, 18.872454403428435 ], [ -96.973022405121185, 18.876562486087884 ] ] ] } },
{ "type": "Feature", "properties": { "difference_1990_2000": -1740.0, "difference_1990_2010": 0.0, "difference_1990_2020": -1799.0 }, "geometry": { "type": "Polygon", "coordinates": [ [ [ -96.973022405121185, 18.901213072707769 ], [ -96.968449931412906, 18.901213072707769 ], [ -96.968449931412906, 18.897104392574974 ], [ -96.973022405121185, 18.89710439257497 ], [ -96.973022405121185, 18.901213072707769 ] ] ] } },
{ "type": "Feature", "properties": { "difference_1990_2000": 545.0, "difference_1990_2010": 0.0, "difference_1990_2020": 802.0 }, "geometry": { "type": "Polygon", "coordinates": [ [ [ -96.963877457704641, 18.892995812091637 ], [ -96.959304983996361, 18.892995812091634 ], [ -96.959304983996361, 18.888887331229384 ], [ -96.963877457704641, 18.888887331229398 ], [ -96.963877457704641, 18.892995812091637 ] ] ] } },
{ "type": "Feature", "properties": { "difference_1990_2000": 325.0, "difference_1990_2010": 0.0, "difference_1990_2020": 395.0 }, "geometry": { "type": "Polygon", "coordinates": [ [ [ -96.963877457704641, 18.897104392574967 ], [ -96.959304983996361, 18.897104392574974 ], [ -96.959304983996361, 18.892995812091634 ], [ -96.963877457704641, 18.892995812091637 ], [ -96.963877457704641, 18.897104392574967 ] ] ] } },
{ "type": "Feature", "properties": { "difference_1990_2000": 0.0, "difference_1990_2010": 0.0, "difference_1990_2020": 12.0 }, "geometry": { "type": "Polygon", "coordinates": [ [ [ -96.963877457704641, 18.917648790297225 ], [ -96.959304983996361, 18.917648790297225 ], [ -96.959304983996361, 18.913539711284656 ], [ -96.963877457704641, 18.91353971128466 ], [ -96.963877457704641, 18.917648790297225 ] ] ] } },
{ "type": "Feature", "properties": { "difference_1990_2000": -1543.0, "difference_1990_2010": 0.0, "difference_1990_2020": -1377.0 }, "geometry": { "type": "Polygon", "coordinates": [ [ [ -96.963877457704641, 18.905321852518146 ], [ -96.959304983996361, 18.905321852518139 ], [ -96.959304983996361, 18.901213072707751 ], [ -96.963877457704641, 18.901213072707773 ], [ -96.963877457704641, 18.905321852518146 ] ] ] } },
{ "type": "Feature", "properties": { "difference_1990_2000": 948.0, "difference_1990_2010": 0.0, "difference_1990_2020": 1066.0 }, "geometry": { "type": "Polygon", "coordinates": [ [ [ -96.963877457704641, 18.880670668255728 ], [ -96.959304983996361, 18.880670668255725 ], [ -96.959304983996361, 18.876562486087884 ], [ -96.963877457704641, 18.876562486087884 ], [ -96.963877457704641, 18.880670668255728 ] ] ] } },
{ "type": "Feature", "properties": { "difference_1990_2000": 290.0, "difference_1990_2010": 0.0, "difference_1990_2020": 849.0 }, "geometry": { "type": "Polygon", "coordinates": [ [ [ -96.963877457704641, 18.888887331229398 ], [ -96.959304983996361, 18.888887331229384 ], [ -96.959304983996361, 18.884778949960179 ], [ -96.963877457704641, 18.884778949960179 ], [ -96.963877457704641, 18.888887331229398 ] ] ] } },
{ "type": "Feature", "properties": { "difference_1990_2000": 175.0, "difference_1990_2010": 0.0, "difference_1990_2020": 460.0 }, "geometry": { "type": "Polygon", "coordinates": [ [ [ -96.963877457704641, 18.91353971128466 ], [ -96.959304983996361, 18.913539711284656 ], [ -96.959304983996361, 18.909430732034402 ], [ -96.963877457704641, 18.909430732034402 ], [ -96.963877457704641, 18.91353971128466 ] ] ] } },
{ "type": "Feature", "properties": { "difference_1990_2000": 479.0, "difference_1990_2010": 0.0, "difference_1990_2020": 810.0 }, "geometry": { "type": "Polygon", "coordinates": [ [ [ -96.963877457704641, 18.884778949960179 ], [ -96.959304983996361, 18.884778949960179 ], [ -96.959304983996361, 18.880670668255725 ], [ -96.963877457704641, 18.880670668255728 ], [ -96.963877457704641, 18.884778949960179 ] ] ] } },
{ "type": "Feature", "properties": { "difference_1990_2000": -249.0, "difference_1990_2010": 0.0, "difference_1990_2020": -153.0 }, "geometry": { "type": "Polygon", "coordinates": [ [ [ -96.963877457704641, 18.909430732034402 ], [ -96.959304983996361, 18.909430732034402 ], [ -96.959304983996361, 18.905321852518139 ], [ -96.963877457704641, 18.905321852518146 ], [ -96.963877457704641, 18.909430732034402 ] ] ] } },
{ "type": "Feature", "properties": { "difference_1990_2000": 433.0, "difference_1990_2010": 0.0, "difference_1990_2020": 513.0 }, "geometry": { "type": "Polygon", "coordinates": [ [ [ -96.963877457704641, 18.876562486087884 ], [ -96.959304983996361, 18.876562486087884 ], [ -96.959304983996361, 18.872454403428407 ], [ -96.963877457704641, 18.872454403428435 ], [ -96.963877457704641, 18.876562486087884 ] ] ] } },
{ "type": "Feature", "properties": { "difference_1990_2000": -230.0, "difference_1990_2010": 0.0, "difference_1990_2020": -109.0 }, "geometry": { "type": "Polygon", "coordinates": [ [ [ -96.963877457704641, 18.901213072707773 ], [ -96.959304983996361, 18.901213072707751 ], [ -96.959304983996361, 18.897104392574974 ], [ -96.963877457704641, 18.897104392574967 ], [ -96.963877457704641, 18.901213072707773 ] ] ] } },
{ "type": "Feature", "properties": { "difference_1990_2000": 169.0, "difference_1990_2010": 0.0, "difference_1990_2020": 350.0 }, "geometry": { "type": "Polygon", "coordinates": [ [ [ -96.954732510288082, 18.892995812091637 ], [ -96.950160036579817, 18.892995812091591 ], [ -96.950160036579817, 18.888887331229398 ], [ -96.954732510288082, 18.888887331229398 ], [ -96.954732510288082, 18.892995812091637 ] ] ] } },
{ "type": "Feature", "properties": { "difference_1990_2000": 83.0, "difference_1990_2010": 0.0, "difference_1990_2020": -42.0 }, "geometry": { "type": "Polygon", "coordinates": [ [ [ -96.954732510288082, 18.897104392574981 ], [ -96.950160036579817, 18.897104392574985 ], [ -96.950160036579817, 18.892995812091591 ], [ -96.954732510288082, 18.892995812091637 ], [ -96.954732510288082, 18.897104392574981 ] ] ] } },
{ "type": "Feature", "properties": { "difference_1990_2000": 278.0, "difference_1990_2010": 0.0, "difference_1990_2020": 278.0 }, "geometry": { "type": "Polygon", "coordinates": [ [ [ -96.954732510288082, 18.917648790297221 ], [ -96.950160036579817, 18.917648790297225 ], [ -96.950160036579817, 18.913539711284663 ], [ -96.954732510288082, 18.913539711284656 ], [ -96.954732510288082, 18.917648790297221 ] ] ] } },
{ "type": "Feature", "properties": { "difference_1990_2000": -222.0, "difference_1990_2010": 0.0, "difference_1990_2020": -397.0 }, "geometry": { "type": "Polygon", "coordinates": [ [ [ -96.954732510288082, 18.905321852518139 ], [ -96.950160036579817, 18.905321852518142 ], [ -96.950160036579817, 18.901213072707769 ], [ -96.954732510288082, 18.901213072707769 ], [ -96.954732510288082, 18.905321852518139 ] ] ] } },
{ "type": "Feature", "properties": { "difference_1990_2000": 3.0, "difference_1990_2010": 0.0, "difference_1990_2020": 14.0 }, "geometry": { "type": "Polygon", "coordinates": [ [ [ -96.954732510288082, 18.880670668255732 ], [ -96.950160036579817, 18.880670668255725 ], [ -96.950160036579817, 18.876562486087881 ], [ -96.954732510288082, 18.876562486087884 ], [ -96.954732510288082, 18.880670668255732 ] ] ] } },
{ "type": "Feature", "properties": { "difference_1990_2000": 236.0, "difference_1990_2010": 0.0, "difference_1990_2020": 645.0 }, "geometry": { "type": "Polygon", "coordinates": [ [ [ -96.954732510288082, 18.888887331229398 ], [ -96.950160036579817, 18.888887331229398 ], [ -96.950160036579817, 18.884778949960179 ], [ -96.954732510288082, 18.884778949960179 ], [ -96.954732510288082, 18.888887331229398 ] ] ] } },
{ "type": "Feature", "properties": { "difference_1990_2000": 150.0, "difference_1990_2010": 0.0, "difference_1990_2020": 286.0 }, "geometry": { "type": "Polygon", "coordinates": [ [ [ -96.954732510288082, 18.925867247722241 ], [ -96.950160036579817, 18.925867247722199 ], [ -96.950160036579817, 18.921757969100319 ], [ -96.954732510288082, 18.921757969100319 ], [ -96.954732510288082, 18.925867247722241 ] ] ] } },
{ "type": "Feature", "properties": { "difference_1990_2000": 110.0, "difference_1990_2010": 0.0, "difference_1990_2020": 123.0 }, "geometry": { "type": "Polygon", "coordinates": [ [ [ -96.954732510288082, 18.913539711284656 ], [ -96.950160036579817, 18.913539711284663 ], [ -96.950160036579817, 18.909430732034405 ], [ -96.954732510288082, 18.909430732034405 ], [ -96.954732510288082, 18.913539711284656 ] ] ] } },
{ "type": "Feature", "properties": { "difference_1990_2000": 90.0, "difference_1990_2010": 0.0, "difference_1990_2020": 345.0 }, "geometry": { "type": "Polygon", "coordinates": [ [ [ -96.954732510288082, 18.884778949960179 ], [ -96.950160036579817, 18.884778949960179 ], [ -96.950160036579817, 18.880670668255725 ], [ -96.954732510288082, 18.880670668255732 ], [ -96.954732510288082, 18.884778949960179 ] ] ] } },
{ "type": "Feature", "properties": { "difference_1990_2000": 108.0, "difference_1990_2010": 0.0, "difference_1990_2020": 120.0 }, "geometry": { "type": "Polygon", "coordinates": [ [ [ -96.954732510288082, 18.909430732034405 ], [ -96.950160036579817, 18.909430732034405 ], [ -96.950160036579817, 18.905321852518142 ], [ -96.954732510288082, 18.905321852518139 ], [ -96.954732510288082, 18.909430732034405 ] ] ] } },
{ "type": "Feature", "properties": { "difference_1990_2000": -77.0, "difference_1990_2010": 0.0, "difference_1990_2020": -204.0 }, "geometry": { "type": "Polygon", "coordinates": [ [ [ -96.954732510288082, 18.901213072707769 ], [ -96.950160036579817, 18.901213072707769 ], [ -96.950160036579817, 18.897104392574985 ], [ -96.954732510288082, 18.897104392574981 ], [ -96.954732510288082, 18.901213072707769 ] ] ] } },
{ "type": "Feature", "properties": { "difference_1990_2000": 458.0, "difference_1990_2010": 0.0, "difference_1990_2020": 492.0 }, "geometry": { "type": "Polygon", "coordinates": [ [ [ -96.954732510288082, 18.921757969100319 ], [ -96.950160036579817, 18.921757969100319 ], [ -96.950160036579817, 18.917648790297225 ], [ -96.954732510288082, 18.917648790297221 ], [ -96.954732510288082, 18.921757969100319 ] ] ] } },
{ "type": "Feature", "properties": { "difference_1990_2000": -78.0, "difference_1990_2010": 0.0, "difference_1990_2020": -303.0 }, "geometry": { "type": "Polygon", "coordinates": [ [ [ -96.945587562871523, 18.892995812091634 ], [ -96.941015089163244, 18.892995812091634 ], [ -96.941015089163244, 18.888887331229398 ], [ -96.945587562871523, 18.888887331229398 ], [ -96.945587562871523, 18.892995812091634 ] ] ] } },
{ "type": "Feature", "properties": { "difference_1990_2000": -306.0, "difference_1990_2010": 0.0, "difference_1990_2020": -631.0 }, "geometry": { "type": "Polygon", "coordinates": [ [ [ -96.945587562871523, 18.897104392574967 ], [ -96.941015089163244, 18.897104392574974 ], [ -96.941015089163244, 18.892995812091634 ], [ -96.945587562871523, 18.892995812091634 ], [ -96.945587562871523, 18.897104392574967 ] ] ] } },
{ "type": "Feature", "properties": { "difference_1990_2000": 145.0, "difference_1990_2010": 0.0, "difference_1990_2020": 279.0 }, "geometry": { "type": "Polygon", "coordinates": [ [ [ -96.945587562871523, 18.917648790297239 ], [ -96.941015089163244, 18.917648790297186 ], [ -96.941015089163244, 18.913539711284656 ], [ -96.945587562871523, 18.913539711284656 ], [ -96.945587562871523, 18.917648790297239 ] ] ] } },
{ "type": "Feature", "properties": { "difference_1990_2000": 61.0, "difference_1990_2010": 0.0, "difference_1990_2020": 20.0 }, "geometry": { "type": "Polygon", "coordinates": [ [ [ -96.945587562871523, 18.905321852518139 ], [ -96.941015089163244, 18.905321852518146 ], [ -96.941015089163244, 18.901213072707744 ], [ -96.945587562871523, 18.901213072707769 ], [ -96.945587562871523, 18.905321852518139 ] ] ] } },
{ "type": "Feature", "properties": { "difference_1990_2000": 30.0, "difference_1990_2010": 0.0, "difference_1990_2020": 31.0 }, "geometry": { "type": "Polygon", "coordinates": [ [ [ -96.945587562871523, 18.880670668255732 ], [ -96.941015089163244, 18.880670668255732 ], [ -96.941015089163244, 18.876562486087884 ], [ -96.945587562871523, 18.876562486087884 ], [ -96.945587562871523, 18.880670668255732 ] ] ] } },
{ "type": "Feature", "properties": { "difference_1990_2000": -15.0, "difference_1990_2010": 0.0, "difference_1990_2020": -206.0 }, "geometry": { "type": "Polygon", "coordinates": [ [ [ -96.945587562871523, 18.888887331229398 ], [ -96.941015089163244, 18.888887331229398 ], [ -96.941015089163244, 18.884778949960179 ], [ -96.945587562871523, 18.884778949960179 ], [ -96.945587562871523, 18.888887331229398 ] ] ] } },
{ "type": "Feature", "properties": { "difference_1990_2000": 436.0, "difference_1990_2010": 0.0, "difference_1990_2020": 662.0 }, "geometry": { "type": "Polygon", "coordinates": [ [ [ -96.945587562871523, 18.913539711284656 ], [ -96.941015089163244, 18.913539711284656 ], [ -96.941015089163244, 18.90943073203437 ], [ -96.945587562871523, 18.909430732034402 ], [ -96.945587562871523, 18.913539711284656 ] ] ] } },
{ "type": "Feature", "properties": { "difference_1990_2000": -20.0, "difference_1990_2010": 0.0, "difference_1990_2020": -67.0 }, "geometry": { "type": "Polygon", "coordinates": [ [ [ -96.945587562871523, 18.884778949960179 ], [ -96.941015089163244, 18.884778949960179 ], [ -96.941015089163244, 18.880670668255732 ], [ -96.945587562871523, 18.880670668255732 ], [ -96.945587562871523, 18.884778949960179 ] ] ] } },
{ "type": "Feature", "properties": { "difference_1990_2000": 34.0, "difference_1990_2010": 0.0, "difference_1990_2020": 303.0 }, "geometry": { "type": "Polygon", "coordinates": [ [ [ -96.945587562871523, 18.909430732034402 ], [ -96.941015089163244, 18.90943073203437 ], [ -96.941015089163244, 18.905321852518146 ], [ -96.945587562871523, 18.905321852518139 ], [ -96.945587562871523, 18.909430732034402 ] ] ] } },
{ "type": "Feature", "properties": { "difference_1990_2000": 681.0, "difference_1990_2010": 0.0, "difference_1990_2020": 884.0 }, "geometry": { "type": "Polygon", "coordinates": [ [ [ -96.945587562871523, 18.876562486087884 ], [ -96.941015089163244, 18.876562486087884 ], [ -96.941015089163244, 18.872454403428407 ], [ -96.945587562871523, 18.872454403428456 ], [ -96.945587562871523, 18.876562486087884 ] ] ] } },
{ "type": "Feature", "properties": { "difference_1990_2000": -146.0, "difference_1990_2010": 0.0, "difference_1990_2020": -403.0 }, "geometry": { "type": "Polygon", "coordinates": [ [ [ -96.945587562871523, 18.901213072707769 ], [ -96.941015089163244, 18.901213072707744 ], [ -96.941015089163244, 18.897104392574974 ], [ -96.945587562871523, 18.897104392574967 ], [ -96.945587562871523, 18.901213072707769 ] ] ] } },
{ "type": "Feature", "properties": { "difference_1990_2000": 494.0, "difference_1990_2010": 0.0, "difference_1990_2020": 589.0 }, "geometry": { "type": "Polygon", "coordinates": [ [ [ -96.945587562871523, 18.872454403428456 ], [ -96.941015089163244, 18.872454403428407 ], [ -96.941015089163244, 18.868346420249125 ], [ -96.945587562871523, 18.868346420249143 ], [ -96.945587562871523, 18.872454403428456 ] ] ] } },
{ "type": "Feature", "properties": { "difference_1990_2000": 1.0, "difference_1990_2010": 0.0, "difference_1990_2020": 45.0 }, "geometry": { "type": "Polygon", "coordinates": [ [ [ -96.945587562871523, 18.921757969100319 ], [ -96.941015089163244, 18.921757969100316 ], [ -96.941015089163244, 18.917648790297186 ], [ -96.945587562871523, 18.917648790297239 ], [ -96.945587562871523, 18.921757969100319 ] ] ] } },
{ "type": "Feature", "properties": { "difference_1990_2000": -555.0, "difference_1990_2010": 0.0, "difference_1990_2020": -1104.0 }, "geometry": { "type": "Polygon", "coordinates": [ [ [ -96.936442615454965, 18.892995812091637 ], [ -96.931870141746685, 18.892995812091637 ], [ -96.931870141746685, 18.888887331229398 ], [ -96.936442615454965, 18.888887331229398 ], [ -96.936442615454965, 18.892995812091637 ] ] ] } },
{ "type": "Feature", "properties": { "difference_1990_2000": -571.0, "difference_1990_2010": 0.0, "difference_1990_2020": -1192.0 }, "geometry": { "type": "Polygon", "coordinates": [ [ [ -96.936442615454965, 18.897104392574974 ], [ -96.931870141746685, 18.89710439257497 ], [ -96.931870141746685, 18.892995812091637 ], [ -96.936442615454965, 18.892995812091637 ], [ -96.936442615454965, 18.897104392574974 ] ] ] } },
{ "type": "Feature", "properties": { "difference_1990_2000": 140.0, "difference_1990_2010": 0.0, "difference_1990_2020": 534.0 }, "geometry": { "type": "Polygon", "coordinates": [ [ [ -96.936442615454965, 18.917648790297228 ], [ -96.931870141746685, 18.917648790297221 ], [ -96.931870141746685, 18.91353971128466 ], [ -96.936442615454965, 18.913539711284663 ], [ -96.936442615454965, 18.917648790297228 ] ] ] } },
{ "type": "Feature", "properties": { "difference_1990_2000": 277.0, "difference_1990_2010": 0.0, "difference_1990_2020": 416.0 }, "geometry": { "type": "Polygon", "coordinates": [ [ [ -96.936442615454965, 18.905321852518146 ], [ -96.931870141746685, 18.905321852518142 ], [ -96.931870141746685, 18.901213072707748 ], [ -96.936442615454965, 18.901213072707769 ], [ -96.936442615454965, 18.905321852518146 ] ] ] } },
{ "type": "Feature", "properties": { "difference_1990_2000": -42.0, "difference_1990_2010": 0.0, "difference_1990_2020": -300.0 }, "geometry": { "type": "Polygon", "coordinates": [ [ [ -96.936442615454965, 18.880670668255728 ], [ -96.931870141746685, 18.880670668255732 ], [ -96.931870141746685, 18.876562486087884 ], [ -96.936442615454965, 18.876562486087884 ], [ -96.936442615454965, 18.880670668255728 ] ] ] } },
{ "type": "Feature", "properties": { "difference_1990_2000": -279.0, "difference_1990_2010": 0.0, "difference_1990_2020": -672.0 }, "geometry": { "type": "Polygon", "coordinates": [ [ [ -96.936442615454965, 18.888887331229398 ], [ -96.931870141746685, 18.888887331229398 ], [ -96.931870141746685, 18.884778949960179 ], [ -96.936442615454965, 18.88477894996014 ], [ -96.936442615454965, 18.888887331229398 ] ] ] } },
{ "type": "Feature", "properties": { "difference_1990_2000": 21.0, "difference_1990_2010": 0.0, "difference_1990_2020": 143.0 }, "geometry": { "type": "Polygon", "coordinates": [ [ [ -96.936442615454965, 18.868346420249146 ], [ -96.931870141746685, 18.868346420249143 ], [ -96.931870141746685, 18.864238536521984 ], [ -96.936442615454965, 18.864238536521992 ], [ -96.936442615454965, 18.868346420249146 ] ] ] } },
{ "type": "Feature", "properties": { "difference_1990_2000": -173.0, "difference_1990_2010": 0.0, "difference_1990_2020": -486.0 }, "geometry": { "type": "Polygon", "coordinates": [ [ [ -96.936442615454965, 18.88477894996014 ], [ -96.931870141746685, 18.884778949960179 ], [ -96.931870141746685, 18.880670668255732 ], [ -96.936442615454965, 18.880670668255728 ], [ -96.936442615454965, 18.88477894996014 ] ] ] } },
{ "type": "Feature", "properties": { "difference_1990_2000": 7.0, "difference_1990_2010": 0.0, "difference_1990_2020": 1216.0 }, "geometry": { "type": "Polygon", "coordinates": [ [ [ -96.936442615454965, 18.913539711284663 ], [ -96.931870141746685, 18.91353971128466 ], [ -96.931870141746685, 18.90943073203437 ], [ -96.936442615454965, 18.909430732034402 ], [ -96.936442615454965, 18.913539711284663 ] ] ] } },
{ "type": "Feature", "properties": { "difference_1990_2000": 192.0, "difference_1990_2010": 0.0, "difference_1990_2020": 1622.0 }, "geometry": { "type": "Polygon", "coordinates": [ [ [ -96.936442615454965, 18.909430732034402 ], [ -96.931870141746685, 18.90943073203437 ], [ -96.931870141746685, 18.905321852518142 ], [ -96.936442615454965, 18.905321852518146 ], [ -96.936442615454965, 18.909430732034402 ] ] ] } },
{ "type": "Feature", "properties": { "difference_1990_2000": -2.0, "difference_1990_2010": 0.0, "difference_1990_2020": 164.0 }, "geometry": { "type": "Polygon", "coordinates": [ [ [ -96.936442615454965, 18.876562486087884 ], [ -96.931870141746685, 18.876562486087884 ], [ -96.931870141746685, 18.872454403428407 ], [ -96.936442615454965, 18.87245440342841 ], [ -96.936442615454965, 18.876562486087884 ] ] ] } },
{ "type": "Feature", "properties": { "difference_1990_2000": 353.0, "difference_1990_2010": 0.0, "difference_1990_2020": 1754.0 }, "geometry": { "type": "Polygon", "coordinates": [ [ [ -96.936442615454965, 18.87245440342841 ], [ -96.931870141746685, 18.872454403428407 ], [ -96.931870141746685, 18.868346420249143 ], [ -96.936442615454965, 18.868346420249146 ], [ -96.936442615454965, 18.87245440342841 ] ] ] } },
{ "type": "Feature", "properties": { "difference_1990_2000": -201.0, "difference_1990_2010": 0.0, "difference_1990_2020": -680.0 }, "geometry": { "type": "Polygon", "coordinates": [ [ [ -96.936442615454965, 18.901213072707769 ], [ -96.931870141746685, 18.901213072707748 ], [ -96.931870141746685, 18.89710439257497 ], [ -96.936442615454965, 18.897104392574974 ], [ -96.936442615454965, 18.901213072707769 ] ] ] } },
{ "type": "Feature", "properties": { "difference_1990_2000": -347.0, "difference_1990_2010": 0.0, "difference_1990_2020": -1192.0 }, "geometry": { "type": "Polygon", "coordinates": [ [ [ -96.92729766803842, 18.892995812091637 ], [ -96.922725194330155, 18.892995812091641 ], [ -96.922725194330155, 18.888887331229398 ], [ -96.92729766803842, 18.888887331229398 ], [ -96.92729766803842, 18.892995812091637 ] ] ] } },
{ "type": "Feature", "properties": { "difference_1990_2000": -555.0, "difference_1990_2010": 0.0, "difference_1990_2020": -1510.0 }, "geometry": { "type": "Polygon", "coordinates": [ [ [ -96.92729766803842, 18.897104392574974 ], [ -96.922725194330155, 18.897104392574974 ], [ -96.922725194330155, 18.892995812091641 ], [ -96.92729766803842, 18.892995812091637 ], [ -96.92729766803842, 18.897104392574974 ] ] ] } },
{ "type": "Feature", "properties": { "difference_1990_2000": -923.0, "difference_1990_2010": 0.0, "difference_1990_2020": -1024.0 }, "geometry": { "type": "Polygon", "coordinates": [ [ [ -96.92729766803842, 18.905321852518142 ], [ -96.922725194330155, 18.905321852518146 ], [ -96.922725194330155, 18.901213072707769 ], [ -96.92729766803842, 18.901213072707719 ], [ -96.92729766803842, 18.905321852518142 ] ] ] } },
{ "type": "Feature", "properties": { "difference_1990_2000": -82.0, "difference_1990_2010": 0.0, "difference_1990_2020": -293.0 }, "geometry": { "type": "Polygon", "coordinates": [ [ [ -96.92729766803842, 18.880670668255735 ], [ -96.922725194330155, 18.880670668255728 ], [ -96.922725194330155, 18.876562486087884 ], [ -96.92729766803842, 18.876562486087881 ], [ -96.92729766803842, 18.880670668255735 ] ] ] } },
{ "type": "Feature", "properties": { "difference_1990_2000": -302.0, "difference_1990_2010": 0.0, "difference_1990_2020": -857.0 }, "geometry": { "type": "Polygon", "coordinates": [ [ [ -96.92729766803842, 18.888887331229398 ], [ -96.922725194330155, 18.888887331229398 ], [ -96.922725194330155, 18.884778949960179 ], [ -96.92729766803842, 18.884778949960179 ], [ -96.92729766803842, 18.888887331229398 ] ] ] } },
{ "type": "Feature", "properties": { "difference_1990_2000": 9.0, "difference_1990_2010": 0.0, "difference_1990_2020": 1434.0 }, "geometry": { "type": "Polygon", "coordinates": [ [ [ -96.92729766803842, 18.868346420249129 ], [ -96.922725194330155, 18.86834642024915 ], [ -96.922725194330155, 18.864238536521988 ], [ -96.92729766803842, 18.864238536521938 ], [ -96.92729766803842, 18.868346420249129 ] ] ] } },
{ "type": "Feature", "properties": { "difference_1990_2000": 240.0, "difference_1990_2010": 0.0, "difference_1990_2020": 354.0 }, "geometry": { "type": "Polygon", "coordinates": [ [ [ -96.92729766803842, 18.913539711284663 ], [ -96.922725194330155, 18.913539711284663 ], [ -96.922725194330155, 18.909430732034426 ], [ -96.92729766803842, 18.90943073203437 ], [ -96.92729766803842, 18.913539711284663 ] ] ] } },
{ "type": "Feature", "properties": { "difference_1990_2000": 208.0, "difference_1990_2010": 0.0, "difference_1990_2020": 346.0 }, "geometry": { "type": "Polygon", "coordinates": [ [ [ -96.92729766803842, 18.90943073203437 ], [ -96.922725194330155, 18.909430732034426 ], [ -96.922725194330155, 18.905321852518146 ], [ -96.92729766803842, 18.905321852518142 ], [ -96.92729766803842, 18.90943073203437 ] ] ] } },
{ "type": "Feature", "properties": { "difference_1990_2000": -258.0, "difference_1990_2010": 0.0, "difference_1990_2020": -595.0 }, "geometry": { "type": "Polygon", "coordinates": [ [ [ -96.92729766803842, 18.884778949960179 ], [ -96.922725194330155, 18.884778949960179 ], [ -96.922725194330155, 18.880670668255728 ], [ -96.92729766803842, 18.880670668255735 ], [ -96.92729766803842, 18.884778949960179 ] ] ] } },
{ "type": "Feature", "properties": { "difference_1990_2000": 108.0, "difference_1990_2010": 0.0, "difference_1990_2020": -31.0 }, "geometry": { "type": "Polygon", "coordinates": [ [ [ -96.92729766803842, 18.876562486087881 ], [ -96.922725194330155, 18.876562486087884 ], [ -96.922725194330155, 18.872454403428431 ], [ -96.92729766803842, 18.872454403428407 ], [ -96.92729766803842, 18.876562486087881 ] ] ] } },
{ "type": "Feature", "properties": { "difference_1990_2000": -923.0, "difference_1990_2010": 0.0, "difference_1990_2020": -1110.0 }, "geometry": { "type": "Polygon", "coordinates": [ [ [ -96.92729766803842, 18.901213072707719 ], [ -96.922725194330155, 18.901213072707769 ], [ -96.922725194330155, 18.897104392574974 ], [ -96.92729766803842, 18.897104392574974 ], [ -96.92729766803842, 18.901213072707719 ] ] ] } },
{ "type": "Feature", "properties": { "difference_1990_2000": 198.0, "difference_1990_2010": 0.0, "difference_1990_2020": 407.0 }, "geometry": { "type": "Polygon", "coordinates": [ [ [ -96.92729766803842, 18.872454403428435 ], [ -96.922725194330155, 18.872454403428431 ], [ -96.922725194330155, 18.86834642024915 ], [ -96.92729766803842, 18.868346420249129 ], [ -96.92729766803842, 18.872454403428435 ] ] ] } },
{ "type": "Feature", "properties": { "difference_1990_2000": 1.0, "difference_1990_2010": 0.0, "difference_1990_2020": 89.0 }, "geometry": { "type": "Polygon", "coordinates": [ [ [ -96.92729766803842, 18.864238536521938 ], [ -96.922725194330155, 18.864238536521988 ], [ -96.922725194330155, 18.860130752218602 ], [ -96.92729766803842, 18.860130752218584 ], [ -96.92729766803842, 18.864238536521938 ] ] ] } },
{ "type": "Feature", "properties": { "difference_1990_2000": 95.0, "difference_1990_2010": 253.0, "difference_1990_2020": 365.0 }, "geometry": { "type": "Polygon", "coordinates": [ [ [ -96.918152720621876, 18.860130752218549 ], [ -96.913580246913597, 18.860130752218598 ], [ -96.913580246913597, 18.856023067310922 ], [ -96.918152720621876, 18.856023067310915 ], [ -96.918152720621876, 18.860130752218549 ] ] ] } },
{ "type": "Feature", "properties": { "difference_1990_2000": 0.0, "difference_1990_2010": 0.0, "difference_1990_2020": 1.0 }, "geometry": { "type": "Polygon", "coordinates": [ [ [ -96.918152720621876, 18.892995812091634 ], [ -96.913580246913597, 18.892995812091637 ], [ -96.913580246913597, 18.888887331229387 ], [ -96.918152720621876, 18.888887331229398 ], [ -96.918152720621876, 18.892995812091634 ] ] ] } },
{ "type": "Feature", "properties": { "difference_1990_2000": 98.0, "difference_1990_2010": -66.0, "difference_1990_2020": 357.0 }, "geometry": { "type": "Polygon", "coordinates": [ [ [ -96.918152720621876, 18.864238536521984 ], [ -96.913580246913597, 18.864238536521992 ], [ -96.913580246913597, 18.860130752218598 ], [ -96.918152720621876, 18.860130752218549 ], [ -96.918152720621876, 18.864238536521984 ] ] ] } },
{ "type": "Feature", "properties": { "difference_1990_2000": -129.0, "difference_1990_2010": 0.0, "difference_1990_2020": -479.0 }, "geometry": { "type": "Polygon", "coordinates": [ [ [ -96.918152720621876, 18.880670668255728 ], [ -96.913580246913597, 18.880670668255732 ], [ -96.913580246913597, 18.876562486087884 ], [ -96.918152720621876, 18.876562486087899 ], [ -96.918152720621876, 18.880670668255728 ] ] ] } },
{ "type": "Feature", "properties": { "difference_1990_2000": 10.0, "difference_1990_2010": 0.0, "difference_1990_2020": 387.0 }, "geometry": { "type": "Polygon", "coordinates": [ [ [ -96.918152720621876, 18.888887331229398 ], [ -96.913580246913597, 18.888887331229387 ], [ -96.913580246913597, 18.884778949960179 ], [ -96.918152720621876, 18.884778949960179 ], [ -96.918152720621876, 18.888887331229398 ] ] ] } },
{ "type": "Feature", "properties": { "difference_1990_2000": -34.0, "difference_1990_2010": 0.0, "difference_1990_2020": -84.0 }, "geometry": { "type": "Polygon", "coordinates": [ [ [ -96.918152720621876, 18.868346420249143 ], [ -96.913580246913597, 18.868346420249143 ], [ -96.913580246913597, 18.864238536521992 ], [ -96.918152720621876, 18.864238536521984 ], [ -96.918152720621876, 18.868346420249143 ] ] ] } },
{ "type": "Feature", "properties": { "difference_1990_2000": 87.0, "difference_1990_2010": 0.0, "difference_1990_2020": 185.0 }, "geometry": { "type": "Polygon", "coordinates": [ [ [ -96.918152720621876, 18.884778949960179 ], [ -96.913580246913597, 18.884778949960179 ], [ -96.913580246913597, 18.880670668255732 ], [ -96.918152720621876, 18.880670668255728 ], [ -96.918152720621876, 18.884778949960179 ] ] ] } },
{ "type": "Feature", "properties": { "difference_1990_2000": -165.0, "difference_1990_2010": 0.0, "difference_1990_2020": -192.0 }, "geometry": { "type": "Polygon", "coordinates": [ [ [ -96.918152720621876, 18.876562486087899 ], [ -96.913580246913597, 18.876562486087884 ], [ -96.913580246913597, 18.872454403428431 ], [ -96.918152720621876, 18.872454403428403 ], [ -96.918152720621876, 18.876562486087899 ] ] ] } },
{ "type": "Feature", "properties": { "difference_1990_2000": 119.0, "difference_1990_2010": 0.0, "difference_1990_2020": 85.0 }, "geometry": { "type": "Polygon", "coordinates": [ [ [ -96.918152720621876, 18.872454403428403 ], [ -96.913580246913597, 18.872454403428431 ], [ -96.913580246913597, 18.868346420249143 ], [ -96.918152720621876, 18.868346420249143 ], [ -96.918152720621876, 18.872454403428403 ] ] ] } },
{ "type": "Feature", "properties": { "difference_1990_2000": -2821.0, "difference_1990_2010": 0.0, "difference_1990_2020": -2809.0 }, "geometry": { "type": "Polygon", "coordinates": [ [ [ -97.014174668495656, 18.905321852518114 ], [ -97.009602194787405, 18.905321852518139 ], [ -97.009602194787405, 18.901213072707748 ], [ -97.014174668495656, 18.901213072707751 ], [ -97.014174668495656, 18.905321852518114 ] ] ] } },
{ "type": "Feature", "properties": { "difference_1990_2000": -387.0, "difference_1990_2010": 0.0, "difference_1990_2020": -335.0 }, "geometry": { "type": "Polygon", "coordinates": [ [ [ -97.014174668495656, 18.917648790297225 ], [ -97.009602194787405, 18.917648790297228 ], [ -97.009602194787405, 18.91353971128466 ], [ -97.014174668495656, 18.913539711284638 ], [ -97.014174668495656, 18.917648790297225 ] ] ] } },
{ "type": "Feature", "properties": { "difference_1990_2000": 374.0, "difference_1990_2010": 0.0, "difference_1990_2020": 1283.0 }, "geometry": { "type": "Polygon", "coordinates": [ [ [ -97.014174668495656, 18.925867247722199 ], [ -97.009602194787405, 18.925867247722202 ], [ -97.009602194787405, 18.921757969100355 ], [ -97.014174668495656, 18.921757969100319 ], [ -97.014174668495656, 18.925867247722199 ] ] ] } },
{ "type": "Feature", "properties": { "difference_1990_2000": -1727.0, "difference_1990_2010": 0.0, "difference_1990_2020": -1716.0 }, "geometry": { "type": "Polygon", "coordinates": [ [ [ -97.014174668495656, 18.913539711284638 ], [ -97.009602194787405, 18.91353971128466 ], [ -97.009602194787405, 18.90943073203437 ], [ -97.014174668495656, 18.909430732034366 ], [ -97.014174668495656, 18.913539711284638 ] ] ] } },
{ "type": "Feature", "properties": { "difference_1990_2000": -1246.0, "difference_1990_2010": 0.0, "difference_1990_2020": -1214.0 }, "geometry": { "type": "Polygon", "coordinates": [ [ [ -97.014174668495656, 18.909430732034366 ], [ -97.009602194787405, 18.90943073203437 ], [ -97.009602194787405, 18.905321852518139 ], [ -97.014174668495656, 18.905321852518114 ], [ -97.014174668495656, 18.909430732034366 ] ] ] } },
{ "type": "Feature", "properties": { "difference_1990_2000": 21.0, "difference_1990_2010": 0.0, "difference_1990_2020": 80.0 }, "geometry": { "type": "Polygon", "coordinates": [ [ [ -97.014174668495656, 18.929976626191049 ], [ -97.009602194787405, 18.929976626191113 ], [ -97.009602194787405, 18.925867247722202 ], [ -97.014174668495656, 18.925867247722199 ], [ -97.014174668495656, 18.929976626191049 ] ] ] } },
{ "type": "Feature", "properties": { "difference_1990_2000": 446.0, "difference_1990_2010": 0.0, "difference_1990_2020": 760.0 }, "geometry": { "type": "Polygon", "coordinates": [ [ [ -97.014174668495656, 18.921757969100319 ], [ -97.009602194787405, 18.921757969100355 ], [ -97.009602194787405, 18.917648790297228 ], [ -97.014174668495656, 18.917648790297225 ], [ -97.014174668495656, 18.921757969100319 ] ] ] } },
{ "type": "Feature", "properties": { "difference_1990_2000": 2.0, "difference_1990_2010": 0.0, "difference_1990_2020": -10.0 }, "geometry": { "type": "Polygon", "coordinates": [ [ [ -97.00502972107914, 18.892995812091637 ], [ -97.000457247370846, 18.892995812091641 ], [ -97.000457247370846, 18.888887331229441 ], [ -97.00502972107914, 18.888887331229395 ], [ -97.00502972107914, 18.892995812091637 ] ] ] } },
{ "type": "Feature", "properties": { "difference_1990_2000": 12.0, "difference_1990_2010": 0.0, "difference_1990_2020": -46.0 }, "geometry": { "type": "Polygon", "coordinates": [ [ [ -97.00502972107914, 18.897104392574974 ], [ -97.000457247370846, 18.897104392574967 ], [ -97.000457247370846, 18.892995812091641 ], [ -97.00502972107914, 18.892995812091637 ], [ -97.00502972107914, 18.897104392574974 ] ] ] } },
{ "type": "Feature", "properties": { "difference_1990_2000": 101.0, "difference_1990_2010": 0.0, "difference_1990_2020": -1.0 }, "geometry": { "type": "Polygon", "coordinates": [ [ [ -97.00502972107914, 18.905321852518114 ], [ -97.000457247370846, 18.905321852518142 ], [ -97.000457247370846, 18.901213072707804 ], [ -97.00502972107914, 18.901213072707751 ], [ -97.00502972107914, 18.905321852518114 ] ] ] } },
{ "type": "Feature", "properties": { "difference_1990_2000": 206.0, "difference_1990_2010": 0.0, "difference_1990_2020": 266.0 }, "geometry": { "type": "Polygon", "coordinates": [ [ [ -97.00502972107914, 18.917648790297225 ], [ -97.000457247370846, 18.917648790297225 ], [ -97.000457247370846, 18.91353971128466 ], [ -97.00502972107914, 18.913539711284656 ], [ -97.00502972107914, 18.917648790297225 ] ] ] } },
{ "type": "Feature", "properties": { "difference_1990_2000": 42.0, "difference_1990_2010": 0.0, "difference_1990_2020": 80.0 }, "geometry": { "type": "Polygon", "coordinates": [ [ [ -97.00502972107914, 18.909430732034355 ], [ -97.000457247370846, 18.909430732034426 ], [ -97.000457247370846, 18.905321852518142 ], [ -97.00502972107914, 18.905321852518114 ], [ -97.00502972107914, 18.909430732034355 ] ] ] } },
{ "type": "Feature", "properties": { "difference_1990_2000": 78.0, "difference_1990_2010": 0.0, "difference_1990_2020": 124.0 }, "geometry": { "type": "Polygon", "coordinates": [ [ [ -97.00502972107914, 18.913539711284656 ], [ -97.000457247370846, 18.91353971128466 ], [ -97.000457247370846, 18.909430732034426 ], [ -97.00502972107914, 18.909430732034355 ], [ -97.00502972107914, 18.913539711284656 ] ] ] } },
{ "type": "Feature", "properties": { "difference_1990_2000": 70.0, "difference_1990_2010": 0.0, "difference_1990_2020": -239.0 }, "geometry": { "type": "Polygon", "coordinates": [ [ [ -97.00502972107914, 18.901213072707751 ], [ -97.000457247370846, 18.901213072707804 ], [ -97.000457247370846, 18.897104392574967 ], [ -97.00502972107914, 18.897104392574974 ], [ -97.00502972107914, 18.901213072707751 ] ] ] } },
{ "type": "Feature", "properties": { "difference_1990_2000": 10.0, "difference_1990_2010": 0.0, "difference_1990_2020": 12.0 }, "geometry": { "type": "Polygon", "coordinates": [ [ [ -97.00502972107914, 18.921757969100319 ], [ -97.000457247370846, 18.921757969100319 ], [ -97.000457247370846, 18.917648790297225 ], [ -97.00502972107914, 18.917648790297225 ], [ -97.00502972107914, 18.921757969100319 ] ] ] } },
{ "type": "Feature", "properties": { "difference_1990_2000": 24.0, "difference_1990_2010": 0.0, "difference_1990_2020": 36.0 }, "geometry": { "type": "Polygon", "coordinates": [ [ [ -96.995884773662553, 18.892995812091634 ], [ -96.991312299954274, 18.892995812091637 ], [ -96.991312299954274, 18.888887331229402 ], [ -96.995884773662553, 18.888887331229398 ], [ -96.995884773662553, 18.892995812091634 ] ] ] } },
{ "type": "Feature", "properties": { "difference_1990_2000": 64.0, "difference_1990_2010": 0.0, "difference_1990_2020": 144.0 }, "geometry": { "type": "Polygon", "coordinates": [ [ [ -96.995884773662553, 18.897104392574974 ], [ -96.991312299954274, 18.897104392574985 ], [ -96.991312299954274, 18.892995812091637 ], [ -96.995884773662553, 18.892995812091634 ], [ -96.995884773662553, 18.897104392574974 ] ] ] } },
{ "type": "Feature", "properties": { "difference_1990_2000": -142.0, "difference_1990_2010": 0.0, "difference_1990_2020": -258.0 }, "geometry": { "type": "Polygon", "coordinates": [ [ [ -96.995884773662553, 18.905321852518146 ], [ -96.991312299954274, 18.905321852518142 ], [ -96.991312299954274, 18.901213072707751 ], [ -96.995884773662553, 18.901213072707769 ], [ -96.995884773662553, 18.905321852518146 ] ] ] } },
{ "type": "Feature", "properties": { "difference_1990_2000": -87.0, "difference_1990_2010": 0.0, "difference_1990_2020": -88.0 }, "geometry": { "type": "Polygon", "coordinates": [ [ [ -96.995884773662553, 18.913539711284656 ], [ -96.991312299954274, 18.913539711284653 ], [ -96.991312299954274, 18.90943073203437 ], [ -96.995884773662553, 18.909430732034409 ], [ -96.995884773662553, 18.913539711284656 ] ] ] } },
{ "type": "Feature", "properties": { "difference_1990_2000": -146.0, "difference_1990_2010": 0.0, "difference_1990_2020": -149.0 }, "geometry": { "type": "Polygon", "coordinates": [ [ [ -96.995884773662553, 18.909430732034409 ], [ -96.991312299954274, 18.90943073203437 ], [ -96.991312299954274, 18.905321852518142 ], [ -96.995884773662553, 18.905321852518146 ], [ -96.995884773662553, 18.909430732034409 ] ] ] } },
{ "type": "Feature", "properties": { "difference_1990_2000": 26.0, "difference_1990_2010": 0.0, "difference_1990_2020": -12.0 }, "geometry": { "type": "Polygon", "coordinates": [ [ [ -96.995884773662553, 18.901213072707769 ], [ -96.991312299954274, 18.901213072707751 ], [ -96.991312299954274, 18.897104392574985 ], [ -96.995884773662553, 18.897104392574974 ], [ -96.995884773662553, 18.901213072707769 ] ] ] } },
{ "type": "Feature", "properties": { "difference_1990_2000": 0.0, "difference_1990_2010": 0.0, "difference_1990_2020": 34.0 }, "geometry": { "type": "Polygon", "coordinates": [ [ [ -96.986739826246023, 18.897104392574985 ], [ -96.982167352537715, 18.89710439257497 ], [ -96.982167352537715, 18.892995812091641 ], [ -96.986739826246023, 18.892995812091634 ], [ -96.986739826246023, 18.897104392574985 ] ] ] } },
{ "type": "Feature", "properties": { "difference_1990_2000": 66.0, "difference_1990_2010": 0.0, "difference_1990_2020": 137.0 }, "geometry": { "type": "Polygon", "coordinates": [ [ [ -96.986739826246023, 18.917648790297225 ], [ -96.982167352537715, 18.917648790297218 ], [ -96.982167352537715, 18.913539711284663 ], [ -96.986739826246023, 18.91353971128466 ], [ -96.986739826246023, 18.917648790297225 ] ] ] } },
{ "type": "Feature", "properties": { "difference_1990_2000": 27.0, "difference_1990_2010": 0.0, "difference_1990_2020": 65.0 }, "geometry": { "type": "Polygon", "coordinates": [ [ [ -96.986739826246023, 18.905321852518142 ], [ -96.982167352537715, 18.905321852518163 ], [ -96.982167352537715, 18.901213072707744 ], [ -96.986739826246023, 18.901213072707769 ], [ -96.986739826246023, 18.905321852518142 ] ] ] } },
{ "type": "Feature", "properties": { "difference_1990_2000": 105.0, "difference_1990_2010": 0.0, "difference_1990_2020": 219.0 }, "geometry": { "type": "Polygon", "coordinates": [ [ [ -96.986739826246023, 18.91353971128466 ], [ -96.982167352537715, 18.913539711284663 ], [ -96.982167352537715, 18.90943073203437 ], [ -96.986739826246023, 18.909430732034402 ], [ -96.986739826246023, 18.91353971128466 ] ] ] } },
{ "type": "Feature", "properties": { "difference_1990_2000": 40.0, "difference_1990_2010": 0.0, "difference_1990_2020": 84.0 }, "geometry": { "type": "Polygon", "coordinates": [ [ [ -96.986739826246023, 18.909430732034402 ], [ -96.982167352537715, 18.90943073203437 ], [ -96.982167352537715, 18.905321852518163 ], [ -96.986739826246023, 18.905321852518142 ], [ -96.986739826246023, 18.909430732034402 ] ] ] } },
{ "type": "Feature", "properties": { "difference_1990_2000": 30.0, "difference_1990_2010": 0.0, "difference_1990_2020": 248.0 }, "geometry": { "type": "Polygon", "coordinates": [ [ [ -96.986739826246023, 18.901213072707769 ], [ -96.982167352537715, 18.901213072707744 ], [ -96.982167352537715, 18.89710439257497 ], [ -96.986739826246023, 18.897104392574985 ], [ -96.986739826246023, 18.901213072707769 ] ] ] } },
{ "type": "Feature", "properties": { "difference_1990_2000": -172.0, "difference_1990_2010": 0.0, "difference_1990_2020": -117.0 }, "geometry": { "type": "Polygon", "coordinates": [ [ [ -96.977594878829478, 18.89299581209163 ], [ -96.973022405121185, 18.892995812091637 ], [ -96.973022405121185, 18.888887331229398 ], [ -96.977594878829478, 18.888887331229402 ], [ -96.977594878829478, 18.89299581209163 ] ] ] } },
{ "type": "Feature", "properties": { "difference_1990_2000": -424.0, "difference_1990_2010": 0.0, "difference_1990_2020": -400.0 }, "geometry": { "type": "Polygon", "coordinates": [ [ [ -96.977594878829478, 18.89710439257497 ], [ -96.973022405121185, 18.89710439257497 ], [ -96.973022405121185, 18.892995812091637 ], [ -96.977594878829478, 18.89299581209163 ], [ -96.977594878829478, 18.89710439257497 ] ] ] } },
{ "type": "Feature", "properties": { "difference_1990_2000": 6.0, "difference_1990_2010": 0.0, "difference_1990_2020": 12.0 }, "geometry": { "type": "Polygon", "coordinates": [ [ [ -96.977594878829478, 18.917648790297239 ], [ -96.973022405121185, 18.917648790297239 ], [ -96.973022405121185, 18.91353971128466 ], [ -96.977594878829478, 18.91353971128466 ], [ -96.977594878829478, 18.917648790297239 ] ] ] } },
{ "type": "Feature", "properties": { "difference_1990_2000": 34.0, "difference_1990_2010": 0.0, "difference_1990_2020": 158.0 }, "geometry": { "type": "Polygon", "coordinates": [ [ [ -96.977594878829478, 18.905321852518142 ], [ -96.973022405121185, 18.905321852518142 ], [ -96.973022405121185, 18.901213072707769 ], [ -96.977594878829478, 18.901213072707769 ], [ -96.977594878829478, 18.905321852518142 ] ] ] } },
{ "type": "Feature", "properties": { "difference_1990_2000": 36.0, "difference_1990_2010": 0.0, "difference_1990_2020": 261.0 }, "geometry": { "type": "Polygon", "coordinates": [ [ [ -96.977594878829478, 18.880670668255732 ], [ -96.973022405121185, 18.880670668255725 ], [ -96.973022405121185, 18.876562486087884 ], [ -96.977594878829478, 18.876562486087884 ], [ -96.977594878829478, 18.880670668255732 ] ] ] } },
{ "type": "Feature", "properties": { "difference_1990_2000": 739.0, "difference_1990_2010": 0.0, "difference_1990_2020": 1299.0 }, "geometry": { "type": "Polygon", "coordinates": [ [ [ -96.977594878829478, 18.888887331229402 ], [ -96.973022405121185, 18.888887331229398 ], [ -96.973022405121185, 18.884778949960179 ], [ -96.977594878829478, 18.884778949960179 ], [ -96.977594878829478, 18.888887331229402 ] ] ] } },
{ "type": "Feature", "properties": { "difference_1990_2000": 83.0, "difference_1990_2010": 0.0, "difference_1990_2020": 172.0 }, "geometry": { "type": "Polygon", "coordinates": [ [ [ -96.977594878829478, 18.91353971128466 ], [ -96.973022405121185, 18.91353971128466 ], [ -96.973022405121185, 18.909430732034412 ], [ -96.977594878829478, 18.909430732034423 ], [ -96.977594878829478, 18.91353971128466 ] ] ] } },
{ "type": "Feature", "properties": { "difference_1990_2000": 856.0, "difference_1990_2010": 0.0, "difference_1990_2020": 2367.0 }, "geometry": { "type": "Polygon", "coordinates": [ [ [ -96.977594878829478, 18.884778949960179 ], [ -96.973022405121185, 18.884778949960179 ], [ -96.973022405121185, 18.880670668255725 ], [ -96.977594878829478, 18.880670668255732 ], [ -96.977594878829478, 18.884778949960179 ] ] ] } },
{ "type": "Feature", "properties": { "difference_1990_2000": 137.0, "difference_1990_2010": 0.0, "difference_1990_2020": 283.0 }, "geometry": { "type": "Polygon", "coordinates": [ [ [ -96.977594878829478, 18.909430732034423 ], [ -96.973022405121185, 18.909430732034412 ], [ -96.973022405121185, 18.905321852518142 ], [ -96.977594878829478, 18.905321852518142 ], [ -96.977594878829478, 18.909430732034423 ] ] ] } },
{ "type": "Feature", "properties": { "difference_1990_2000": -1116.0, "difference_1990_2010": 0.0, "difference_1990_2020": -1179.0 }, "geometry": { "type": "Polygon", "coordinates": [ [ [ -96.977594878829478, 18.901213072707769 ], [ -96.973022405121185, 18.901213072707769 ], [ -96.973022405121185, 18.89710439257497 ], [ -96.977594878829478, 18.89710439257497 ], [ -96.977594878829478, 18.901213072707769 ] ] ] } },
{ "type": "Feature", "properties": { "difference_1990_2000": 340.0, "difference_1990_2010": 0.0, "difference_1990_2020": 882.0 }, "geometry": { "type": "Polygon", "coordinates": [ [ [ -96.968449931412906, 18.892995812091641 ], [ -96.963877457704626, 18.892995812091637 ], [ -96.963877457704626, 18.888887331229398 ], [ -96.968449931412906, 18.888887331229398 ], [ -96.968449931412906, 18.892995812091641 ] ] ] } },
{ "type": "Feature", "properties": { "difference_1990_2000": 318.0, "difference_1990_2010": 0.0, "difference_1990_2020": 384.0 }, "geometry": { "type": "Polygon", "coordinates": [ [ [ -96.968449931412906, 18.897104392574974 ], [ -96.963877457704626, 18.897104392574967 ], [ -96.963877457704626, 18.892995812091637 ], [ -96.968449931412906, 18.892995812091641 ], [ -96.968449931412906, 18.897104392574974 ] ] ] } },
{ "type": "Feature", "properties": { "difference_1990_2000": 0.0, "difference_1990_2010": 0.0, "difference_1990_2020": 1795.0 }, "geometry": { "type": "Polygon", "coordinates": [ [ [ -96.968449931412906, 18.917648790297189 ], [ -96.963877457704626, 18.917648790297225 ], [ -96.963877457704626, 18.91353971128466 ], [ -96.968449931412906, 18.91353971128466 ], [ -96.968449931412906, 18.917648790297189 ] ] ] } },
{ "type": "Feature", "properties": { "difference_1990_2000": -4239.0, "difference_1990_2010": 0.0, "difference_1990_2020": -4125.0 }, "geometry": { "type": "Polygon", "coordinates": [ [ [ -96.968449931412906, 18.905321852518142 ], [ -96.963877457704626, 18.905321852518146 ], [ -96.963877457704626, 18.901213072707773 ], [ -96.968449931412906, 18.901213072707769 ], [ -96.968449931412906, 18.905321852518142 ] ] ] } },
{ "type": "Feature", "properties": { "difference_1990_2000": 1165.0, "difference_1990_2010": 0.0, "difference_1990_2020": 1485.0 }, "geometry": { "type": "Polygon", "coordinates": [ [ [ -96.968449931412906, 18.880670668255732 ], [ -96.963877457704626, 18.880670668255728 ], [ -96.963877457704626, 18.876562486087884 ], [ -96.968449931412906, 18.876562486087884 ], [ -96.968449931412906, 18.880670668255732 ] ] ] } },
{ "type": "Feature", "properties": { "difference_1990_2000": 912.0, "difference_1990_2010": 0.0, "difference_1990_2020": 1239.0 }, "geometry": { "type": "Polygon", "coordinates": [ [ [ -96.968449931412906, 18.888887331229398 ], [ -96.963877457704626, 18.888887331229398 ], [ -96.963877457704626, 18.884778949960179 ], [ -96.968449931412906, 18.884778949960179 ], [ -96.968449931412906, 18.888887331229398 ] ] ] } },
{ "type": "Feature", "properties": { "difference_1990_2000": 54.0, "difference_1990_2010": 0.0, "difference_1990_2020": 1017.0 }, "geometry": { "type": "Polygon", "coordinates": [ [ [ -96.968449931412906, 18.91353971128466 ], [ -96.963877457704626, 18.91353971128466 ], [ -96.963877457704626, 18.909430732034402 ], [ -96.968449931412906, 18.909430732034405 ], [ -96.968449931412906, 18.91353971128466 ] ] ] } },
{ "type": "Feature", "properties": { "difference_1990_2000": 3009.0, "difference_1990_2010": 0.0, "difference_1990_2020": 2689.0 }, "geometry": { "type": "Polygon", "coordinates": [ [ [ -96.968449931412906, 18.884778949960179 ], [ -96.963877457704626, 18.884778949960179 ], [ -96.963877457704626, 18.880670668255728 ], [ -96.968449931412906, 18.880670668255732 ], [ -96.968449931412906, 18.884778949960179 ] ] ] } },
{ "type": "Feature", "properties": { "difference_1990_2000": -1355.0, "difference_1990_2010": 0.0, "difference_1990_2020": -1550.0 }, "geometry": { "type": "Polygon", "coordinates": [ [ [ -96.968449931412906, 18.909430732034405 ], [ -96.963877457704626, 18.909430732034402 ], [ -96.963877457704626, 18.905321852518146 ], [ -96.968449931412906, 18.905321852518142 ], [ -96.968449931412906, 18.909430732034405 ] ] ] } },
{ "type": "Feature", "properties": { "difference_1990_2000": 779.0, "difference_1990_2010": 0.0, "difference_1990_2020": 949.0 }, "geometry": { "type": "Polygon", "coordinates": [ [ [ -96.968449931412906, 18.876562486087884 ], [ -96.963877457704626, 18.876562486087884 ], [ -96.963877457704626, 18.872454403428435 ], [ -96.968449931412906, 18.872454403428435 ], [ -96.968449931412906, 18.876562486087884 ] ] ] } },
{ "type": "Feature", "properties": { "difference_1990_2000": -1936.0, "difference_1990_2010": 0.0, "difference_1990_2020": -1824.0 }, "geometry": { "type": "Polygon", "coordinates": [ [ [ -96.968449931412906, 18.901213072707769 ], [ -96.963877457704626, 18.901213072707773 ], [ -96.963877457704626, 18.897104392574967 ], [ -96.968449931412906, 18.897104392574974 ], [ -96.968449931412906, 18.901213072707769 ] ] ] } },
{ "type": "Feature", "properties": { "difference_1990_2000": 234.0, "difference_1990_2010": 0.0, "difference_1990_2020": 602.0 }, "geometry": { "type": "Polygon", "coordinates": [ [ [ -96.959304983996347, 18.892995812091634 ], [ -96.954732510288054, 18.892995812091637 ], [ -96.954732510288054, 18.888887331229398 ], [ -96.959304983996347, 18.888887331229387 ], [ -96.959304983996347, 18.892995812091634 ] ] ] } },
{ "type": "Feature", "properties": { "difference_1990_2000": 166.0, "difference_1990_2010": 0.0, "difference_1990_2020": 137.0 }, "geometry": { "type": "Polygon", "coordinates": [ [ [ -96.959304983996347, 18.897104392574974 ], [ -96.954732510288054, 18.897104392574981 ], [ -96.954732510288054, 18.892995812091637 ], [ -96.959304983996347, 18.892995812091634 ], [ -96.959304983996347, 18.897104392574974 ] ] ] } },
{ "type": "Feature", "properties": { "difference_1990_2000": 52.0, "difference_1990_2010": 0.0, "difference_1990_2020": 58.0 }, "geometry": { "type": "Polygon", "coordinates": [ [ [ -96.959304983996347, 18.917648790297228 ], [ -96.954732510288054, 18.917648790297218 ], [ -96.954732510288054, 18.913539711284656 ], [ -96.959304983996347, 18.913539711284656 ], [ -96.959304983996347, 18.917648790297228 ] ] ] } },
{ "type": "Feature", "properties": { "difference_1990_2000": 15.0, "difference_1990_2010": 0.0, "difference_1990_2020": 50.0 }, "geometry": { "type": "Polygon", "coordinates": [ [ [ -96.959304983996347, 18.905321852518146 ], [ -96.954732510288054, 18.905321852518139 ], [ -96.954732510288054, 18.901213072707748 ], [ -96.959304983996347, 18.901213072707719 ], [ -96.959304983996347, 18.905321852518146 ] ] ] } },
{ "type": "Feature", "properties": { "difference_1990_2000": 88.0, "difference_1990_2010": 0.0, "difference_1990_2020": 98.0 }, "geometry": { "type": "Polygon", "coordinates": [ [ [ -96.959304983996347, 18.880670668255725 ], [ -96.954732510288054, 18.880670668255732 ], [ -96.954732510288054, 18.876562486087884 ], [ -96.959304983996347, 18.876562486087884 ], [ -96.959304983996347, 18.880670668255725 ] ] ] } },
{ "type": "Feature", "properties": { "difference_1990_2000": 245.0, "difference_1990_2010": 0.0, "difference_1990_2020": 668.0 }, "geometry": { "type": "Polygon", "coordinates": [ [ [ -96.959304983996347, 18.888887331229387 ], [ -96.954732510288054, 18.888887331229398 ], [ -96.954732510288054, 18.884778949960179 ], [ -96.959304983996347, 18.884778949960179 ], [ -96.959304983996347, 18.888887331229387 ] ] ] } },
{ "type": "Feature", "properties": { "difference_1990_2000": 82.0, "difference_1990_2010": 0.0, "difference_1990_2020": 91.0 }, "geometry": { "type": "Polygon", "coordinates": [ [ [ -96.959304983996347, 18.913539711284656 ], [ -96.954732510288054, 18.913539711284656 ], [ -96.954732510288054, 18.90943073203437 ], [ -96.959304983996347, 18.90943073203437 ], [ -96.959304983996347, 18.913539711284656 ] ] ] } },
{ "type": "Feature", "properties": { "difference_1990_2000": 212.0, "difference_1990_2010": 0.0, "difference_1990_2020": 297.0 }, "geometry": { "type": "Polygon", "coordinates": [ [ [ -96.959304983996347, 18.90943073203437 ], [ -96.954732510288054, 18.90943073203437 ], [ -96.954732510288054, 18.905321852518139 ], [ -96.959304983996347, 18.905321852518146 ], [ -96.959304983996347, 18.90943073203437 ] ] ] } },
{ "type": "Feature", "properties": { "difference_1990_2000": 192.0, "difference_1990_2010": 0.0, "difference_1990_2020": 563.0 }, "geometry": { "type": "Polygon", "coordinates": [ [ [ -96.959304983996347, 18.884778949960179 ], [ -96.954732510288054, 18.884778949960179 ], [ -96.954732510288054, 18.880670668255732 ], [ -96.959304983996347, 18.880670668255725 ], [ -96.959304983996347, 18.884778949960179 ] ] ] } },
{ "type": "Feature", "properties": { "difference_1990_2000": 99.0, "difference_1990_2010": 0.0, "difference_1990_2020": 86.0 }, "geometry": { "type": "Polygon", "coordinates": [ [ [ -96.959304983996347, 18.901213072707719 ], [ -96.954732510288054, 18.901213072707748 ], [ -96.954732510288054, 18.897104392574981 ], [ -96.959304983996347, 18.897104392574974 ], [ -96.959304983996347, 18.901213072707719 ] ] ] } },
{ "type": "Feature", "properties": { "difference_1990_2000": -13.0, "difference_1990_2010": 0.0, "difference_1990_2020": -166.0 }, "geometry": { "type": "Polygon", "coordinates": [ [ [ -96.950160036579817, 18.897104392574985 ], [ -96.945587562871523, 18.897104392574967 ], [ -96.945587562871523, 18.892995812091634 ], [ -96.950160036579817, 18.892995812091591 ], [ -96.950160036579817, 18.897104392574985 ] ] ] } },
{ "type": "Feature", "properties": { "difference_1990_2000": 619.0, "difference_1990_2010": 0.0, "difference_1990_2020": 703.0 }, "geometry": { "type": "Polygon", "coordinates": [ [ [ -96.950160036579817, 18.917648790297225 ], [ -96.945587562871523, 18.917648790297239 ], [ -96.945587562871523, 18.913539711284656 ], [ -96.950160036579817, 18.913539711284663 ], [ -96.950160036579817, 18.917648790297225 ] ] ] } },
{ "type": "Feature", "properties": { "difference_1990_2000": 67.0, "difference_1990_2010": 0.0, "difference_1990_2020": 27.0 }, "geometry": { "type": "Polygon", "coordinates": [ [ [ -96.950160036579817, 18.905321852518142 ], [ -96.945587562871523, 18.905321852518139 ], [ -96.945587562871523, 18.901213072707769 ], [ -96.950160036579817, 18.901213072707769 ], [ -96.950160036579817, 18.905321852518142 ] ] ] } },
{ "type": "Feature", "properties": { "difference_1990_2000": 19.0, "difference_1990_2010": 0.0, "difference_1990_2020": 225.0 }, "geometry": { "type": "Polygon", "coordinates": [ [ [ -96.950160036579817, 18.880670668255725 ], [ -96.945587562871523, 18.880670668255732 ], [ -96.945587562871523, 18.876562486087884 ], [ -96.950160036579817, 18.876562486087881 ], [ -96.950160036579817, 18.880670668255725 ] ] ] } },
{ "type": "Feature", "properties": { "difference_1990_2000": 63.0, "difference_1990_2010": 0.0, "difference_1990_2020": 42.0 }, "geometry": { "type": "Polygon", "coordinates": [ [ [ -96.950160036579817, 18.888887331229398 ], [ -96.945587562871523, 18.888887331229398 ], [ -96.945587562871523, 18.884778949960179 ], [ -96.950160036579817, 18.884778949960179 ], [ -96.950160036579817, 18.888887331229398 ] ] ] } },
{ "type": "Feature", "properties": { "difference_1990_2000": 14.0, "difference_1990_2010": 0.0, "difference_1990_2020": 27.0 }, "geometry": { "type": "Polygon", "coordinates": [ [ [ -96.950160036579817, 18.925867247722199 ], [ -96.945587562871523, 18.925867247722241 ], [ -96.945587562871523, 18.921757969100319 ], [ -96.950160036579817, 18.921757969100319 ], [ -96.950160036579817, 18.925867247722199 ] ] ] } },
{ "type": "Feature", "properties": { "difference_1990_2000": 551.0, "difference_1990_2010": 0.0, "difference_1990_2020": 532.0 }, "geometry": { "type": "Polygon", "coordinates": [ [ [ -96.950160036579817, 18.913539711284663 ], [ -96.945587562871523, 18.913539711284656 ], [ -96.945587562871523, 18.909430732034402 ], [ -96.950160036579817, 18.909430732034405 ], [ -96.950160036579817, 18.913539711284663 ] ] ] } },
{ "type": "Feature", "properties": { "difference_1990_2000": 101.0, "difference_1990_2010": 0.0, "difference_1990_2020": 400.0 }, "geometry": { "type": "Polygon", "coordinates": [ [ [ -96.950160036579817, 18.884778949960179 ], [ -96.945587562871523, 18.884778949960179 ], [ -96.945587562871523, 18.880670668255732 ], [ -96.950160036579817, 18.880670668255725 ], [ -96.950160036579817, 18.884778949960179 ] ] ] } },
{ "type": "Feature", "properties": { "difference_1990_2000": 97.0, "difference_1990_2010": 0.0, "difference_1990_2020": 110.0 }, "geometry": { "type": "Polygon", "coordinates": [ [ [ -96.950160036579817, 18.909430732034405 ], [ -96.945587562871523, 18.909430732034402 ], [ -96.945587562871523, 18.905321852518139 ], [ -96.950160036579817, 18.905321852518142 ], [ -96.950160036579817, 18.909430732034405 ] ] ] } },
{ "type": "Feature", "properties": { "difference_1990_2000": 98.0, "difference_1990_2010": 0.0, "difference_1990_2020": 172.0 }, "geometry": { "type": "Polygon", "coordinates": [ [ [ -96.950160036579817, 18.876562486087881 ], [ -96.945587562871523, 18.876562486087884 ], [ -96.945587562871523, 18.872454403428456 ], [ -96.950160036579817, 18.872454403428435 ], [ -96.950160036579817, 18.876562486087881 ] ] ] } },
{ "type": "Feature", "properties": { "difference_1990_2000": -194.0, "difference_1990_2010": 0.0, "difference_1990_2020": -470.0 }, "geometry": { "type": "Polygon", "coordinates": [ [ [ -96.950160036579817, 18.901213072707769 ], [ -96.945587562871523, 18.901213072707769 ], [ -96.945587562871523, 18.897104392574967 ], [ -96.950160036579817, 18.897104392574985 ], [ -96.950160036579817, 18.901213072707769 ] ] ] } },
{ "type": "Feature", "properties": { "difference_1990_2000": -173.0, "difference_1990_2010": 0.0, "difference_1990_2020": -272.0 }, "geometry": { "type": "Polygon", "coordinates": [ [ [ -96.950160036579817, 18.892995812091591 ], [ -96.945587562871523, 18.892995812091634 ], [ -96.945587562871523, 18.888887331229398 ], [ -96.950160036579817, 18.888887331229398 ], [ -96.950160036579817, 18.892995812091591 ] ] ] } },
{ "type": "Feature", "properties": { "difference_1990_2000": 324.0, "difference_1990_2010": 0.0, "difference_1990_2020": 583.0 }, "geometry": { "type": "Polygon", "coordinates": [ [ [ -96.950160036579817, 18.921757969100319 ], [ -96.945587562871523, 18.921757969100319 ], [ -96.945587562871523, 18.917648790297239 ], [ -96.950160036579817, 18.917648790297225 ], [ -96.950160036579817, 18.921757969100319 ] ] ] } },
{ "type": "Feature", "properties": { "difference_1990_2000": -211.0, "difference_1990_2010": 0.0, "difference_1990_2020": -535.0 }, "geometry": { "type": "Polygon", "coordinates": [ [ [ -96.941015089163258, 18.892995812091634 ], [ -96.936442615454979, 18.892995812091637 ], [ -96.936442615454979, 18.888887331229398 ], [ -96.941015089163258, 18.888887331229398 ], [ -96.941015089163258, 18.892995812091634 ] ] ] } },
{ "type": "Feature", "properties": { "difference_1990_2000": -578.0, "difference_1990_2010": 0.0, "difference_1990_2020": -1177.0 }, "geometry": { "type": "Polygon", "coordinates": [ [ [ -96.941015089163258, 18.897104392574974 ], [ -96.936442615454979, 18.897104392574974 ], [ -96.936442615454979, 18.892995812091637 ], [ -96.941015089163258, 18.892995812091634 ], [ -96.941015089163258, 18.897104392574974 ] ] ] } },
{ "type": "Feature", "properties": { "difference_1990_2000": 27.0, "difference_1990_2010": 0.0, "difference_1990_2020": -52.0 }, "geometry": { "type": "Polygon", "coordinates": [ [ [ -96.941015089163258, 18.905321852518146 ], [ -96.936442615454979, 18.905321852518146 ], [ -96.936442615454979, 18.901213072707769 ], [ -96.941015089163258, 18.901213072707769 ], [ -96.941015089163258, 18.905321852518146 ] ] ] } },
{ "type": "Feature", "properties": { "difference_1990_2000": 176.0, "difference_1990_2010": 0.0, "difference_1990_2020": 191.0 }, "geometry": { "type": "Polygon", "coordinates": [ [ [ -96.941015089163258, 18.880670668255732 ], [ -96.936442615454979, 18.880670668255728 ], [ -96.936442615454979, 18.876562486087884 ], [ -96.941015089163258, 18.876562486087888 ], [ -96.941015089163258, 18.880670668255732 ] ] ] } },
{ "type": "Feature", "properties": { "difference_1990_2000": -23.0, "difference_1990_2010": 0.0, "difference_1990_2020": -76.0 }, "geometry": { "type": "Polygon", "coordinates": [ [ [ -96.941015089163258, 18.888887331229398 ], [ -96.936442615454979, 18.888887331229398 ], [ -96.936442615454979, 18.88477894996014 ], [ -96.941015089163258, 18.884778949960182 ], [ -96.941015089163258, 18.888887331229398 ] ] ] } },
{ "type": "Feature", "properties": { "difference_1990_2000": 2.0, "difference_1990_2010": 0.0, "difference_1990_2020": 191.0 }, "geometry": { "type": "Polygon", "coordinates": [ [ [ -96.941015089163258, 18.913539711284656 ], [ -96.936442615454979, 18.913539711284663 ], [ -96.936442615454979, 18.909430732034402 ], [ -96.941015089163258, 18.909430732034405 ], [ -96.941015089163258, 18.913539711284656 ] ] ] } },
{ "type": "Feature", "properties": { "difference_1990_2000": -65.0, "difference_1990_2010": 0.0, "difference_1990_2020": -209.0 }, "geometry": { "type": "Polygon", "coordinates": [ [ [ -96.941015089163258, 18.884778949960182 ], [ -96.936442615454979, 18.88477894996014 ], [ -96.936442615454979, 18.880670668255728 ], [ -96.941015089163258, 18.880670668255732 ], [ -96.941015089163258, 18.884778949960182 ] ] ] } },
{ "type": "Feature", "properties": { "difference_1990_2000": 22.0, "difference_1990_2010": 0.0, "difference_1990_2020": 598.0 }, "geometry": { "type": "Polygon", "coordinates": [ [ [ -96.941015089163258, 18.909430732034405 ], [ -96.936442615454979, 18.909430732034402 ], [ -96.936442615454979, 18.905321852518146 ], [ -96.941015089163258, 18.905321852518146 ], [ -96.941015089163258, 18.909430732034405 ] ] ] } },
{ "type": "Feature", "properties": { "difference_1990_2000": 417.0, "difference_1990_2010": 0.0, "difference_1990_2020": 498.0 }, "geometry": { "type": "Polygon", "coordinates": [ [ [ -96.941015089163258, 18.876562486087888 ], [ -96.936442615454979, 18.876562486087884 ], [ -96.936442615454979, 18.87245440342841 ], [ -96.941015089163258, 18.872454403428407 ], [ -96.941015089163258, 18.876562486087888 ] ] ] } },
{ "type": "Feature", "properties": { "difference_1990_2000": 509.0, "difference_1990_2010": 0.0, "difference_1990_2020": 1136.0 }, "geometry": { "type": "Polygon", "coordinates": [ [ [ -96.941015089163258, 18.872454403428407 ], [ -96.936442615454979, 18.87245440342841 ], [ -96.936442615454979, 18.868346420249146 ], [ -96.941015089163258, 18.868346420249125 ], [ -96.941015089163258, 18.872454403428407 ] ] ] } },
{ "type": "Feature", "properties": { "difference_1990_2000": -199.0, "difference_1990_2010": 0.0, "difference_1990_2020": -483.0 }, "geometry": { "type": "Polygon", "coordinates": [ [ [ -96.941015089163258, 18.901213072707769 ], [ -96.936442615454979, 18.901213072707769 ], [ -96.936442615454979, 18.897104392574974 ], [ -96.941015089163258, 18.897104392574974 ], [ -96.941015089163258, 18.901213072707769 ] ] ] } },
{ "type": "Feature", "properties": { "difference_1990_2000": -548.0, "difference_1990_2010": 0.0, "difference_1990_2020": -1254.0 }, "geometry": { "type": "Polygon", "coordinates": [ [ [ -96.9318701417467, 18.892995812091637 ], [ -96.92729766803842, 18.892995812091637 ], [ -96.92729766803842, 18.888887331229398 ], [ -96.9318701417467, 18.888887331229398 ], [ -96.9318701417467, 18.892995812091637 ] ] ] } },
{ "type": "Feature", "properties": { "difference_1990_2000": -665.0, "difference_1990_2010": 0.0, "difference_1990_2020": -1534.0 }, "geometry": { "type": "Polygon", "coordinates": [ [ [ -96.9318701417467, 18.89710439257497 ], [ -96.92729766803842, 18.897104392574974 ], [ -96.92729766803842, 18.892995812091637 ], [ -96.9318701417467, 18.892995812091637 ], [ -96.9318701417467, 18.89710439257497 ] ] ] } },
{ "type": "Feature", "properties": { "difference_1990_2000": 138.0, "difference_1990_2010": 0.0, "difference_1990_2020": 204.0 }, "geometry": { "type": "Polygon", "coordinates": [ [ [ -96.9318701417467, 18.917648790297221 ], [ -96.92729766803842, 18.917648790297228 ], [ -96.92729766803842, 18.913539711284663 ], [ -96.9318701417467, 18.91353971128466 ], [ -96.9318701417467, 18.917648790297221 ] ] ] } },
{ "type": "Feature", "properties": { "difference_1990_2000": 412.0, "difference_1990_2010": 0.0, "difference_1990_2020": 63.0 }, "geometry": { "type": "Polygon", "coordinates": [ [ [ -96.9318701417467, 18.905321852518142 ], [ -96.92729766803842, 18.905321852518142 ], [ -96.92729766803842, 18.901213072707719 ], [ -96.9318701417467, 18.901213072707748 ], [ -96.9318701417467, 18.905321852518142 ] ] ] } },
{ "type": "Feature", "properties": { "difference_1990_2000": -103.0, "difference_1990_2010": 0.0, "difference_1990_2020": -423.0 }, "geometry": { "type": "Polygon", "coordinates": [ [ [ -96.9318701417467, 18.880670668255732 ], [ -96.92729766803842, 18.880670668255735 ], [ -96.92729766803842, 18.876562486087881 ], [ -96.9318701417467, 18.876562486087884 ], [ -96.9318701417467, 18.880670668255732 ] ] ] } },
{ "type": "Feature", "properties": { "difference_1990_2000": -488.0, "difference_1990_2010": 0.0, "difference_1990_2020": -1020.0 }, "geometry": { "type": "Polygon", "coordinates": [ [ [ -96.9318701417467, 18.888887331229398 ], [ -96.92729766803842, 18.888887331229398 ], [ -96.92729766803842, 18.884778949960179 ], [ -96.9318701417467, 18.884778949960179 ], [ -96.9318701417467, 18.888887331229398 ] ] ] } },
{ "type": "Feature", "properties": { "difference_1990_2000": 42.0, "difference_1990_2010": 0.0, "difference_1990_2020": 832.0 }, "geometry": { "type": "Polygon", "coordinates": [ [ [ -96.9318701417467, 18.868346420249146 ], [ -96.92729766803842, 18.868346420249129 ], [ -96.92729766803842, 18.864238536521938 ], [ -96.9318701417467, 18.864238536521984 ], [ -96.9318701417467, 18.868346420249146 ] ] ] } },
{ "type": "Feature", "properties": { "difference_1990_2000": 1003.0, "difference_1990_2010": 0.0, "difference_1990_2020": 1307.0 }, "geometry": { "type": "Polygon", "coordinates": [ [ [ -96.9318701417467, 18.91353971128466 ], [ -96.92729766803842, 18.913539711284663 ], [ -96.92729766803842, 18.90943073203437 ], [ -96.9318701417467, 18.90943073203437 ], [ -96.9318701417467, 18.91353971128466 ] ] ] } },
{ "type": "Feature", "properties": { "difference_1990_2000": 1175.0, "difference_1990_2010": 0.0, "difference_1990_2020": 1302.0 }, "geometry": { "type": "Polygon", "coordinates": [ [ [ -96.9318701417467, 18.90943073203437 ], [ -96.92729766803842, 18.90943073203437 ], [ -96.92729766803842, 18.905321852518142 ], [ -96.9318701417467, 18.905321852518142 ], [ -96.9318701417467, 18.90943073203437 ] ] ] } },
{ "type": "Feature", "properties": { "difference_1990_2000": -376.0, "difference_1990_2010": 0.0, "difference_1990_2020": -717.0 }, "geometry": { "type": "Polygon", "coordinates": [ [ [ -96.9318701417467, 18.884778949960179 ], [ -96.92729766803842, 18.884778949960179 ], [ -96.92729766803842, 18.880670668255735 ], [ -96.9318701417467, 18.880670668255732 ], [ -96.9318701417467, 18.884778949960179 ] ] ] } },
{ "type": "Feature", "properties": { "difference_1990_2000": -177.0, "difference_1990_2010": 0.0, "difference_1990_2020": -498.0 }, "geometry": { "type": "Polygon", "coordinates": [ [ [ -96.9318701417467, 18.876562486087884 ], [ -96.92729766803842, 18.876562486087881 ], [ -96.92729766803842, 18.872454403428407 ], [ -96.9318701417467, 18.872454403428407 ], [ -96.9318701417467, 18.876562486087884 ] ] ] } },
{ "type": "Feature", "properties": { "difference_1990_2000": 138.0, "difference_1990_2010": 0.0, "difference_1990_2020": 811.0 }, "geometry": { "type": "Polygon", "coordinates": [ [ [ -96.9318701417467, 18.872454403428407 ], [ -96.92729766803842, 18.872454403428435 ], [ -96.92729766803842, 18.868346420249129 ], [ -96.9318701417467, 18.868346420249146 ], [ -96.9318701417467, 18.872454403428407 ] ] ] } },
{ "type": "Feature", "properties": { "difference_1990_2000": -117.0, "difference_1990_2010": 0.0, "difference_1990_2020": -648.0 }, "geometry": { "type": "Polygon", "coordinates": [ [ [ -96.9318701417467, 18.901213072707748 ], [ -96.92729766803842, 18.901213072707719 ], [ -96.92729766803842, 18.897104392574974 ], [ -96.9318701417467, 18.89710439257497 ], [ -96.9318701417467, 18.901213072707748 ] ] ] } },
{ "type": "Feature", "properties": { "difference_1990_2000": -49.0, "difference_1990_2010": 0.0, "difference_1990_2020": 782.0 }, "geometry": { "type": "Polygon", "coordinates": [ [ [ -96.922725194330155, 18.892995812091641 ], [ -96.918152720621862, 18.892995812091634 ], [ -96.918152720621862, 18.888887331229398 ], [ -96.922725194330155, 18.888887331229398 ], [ -96.922725194330155, 18.892995812091641 ] ] ] } },
{ "type": "Feature", "properties": { "difference_1990_2000": 122.0, "difference_1990_2010": 159.0, "difference_1990_2020": 455.0 }, "geometry": { "type": "Polygon", "coordinates": [ [ [ -96.922725194330155, 18.864238536521988 ], [ -96.918152720621862, 18.864238536521984 ], [ -96.918152720621862, 18.860130752218549 ], [ -96.922725194330155, 18.860130752218602 ], [ -96.922725194330155, 18.864238536521988 ] ] ] } },
{ "type": "Feature", "properties": { "difference_1990_2000": 86.0, "difference_1990_2010": 163.0, "difference_1990_2020": 274.0 }, "geometry": { "type": "Polygon", "coordinates": [ [ [ -96.922725194330155, 18.860130752218602 ], [ -96.918152720621862, 18.860130752218549 ], [ -96.918152720621862, 18.856023067310915 ], [ -96.922725194330155, 18.856023067310918 ], [ -96.922725194330155, 18.860130752218602 ] ] ] } },
{ "type": "Feature", "properties": { "difference_1990_2000": -283.0, "difference_1990_2010": 0.0, "difference_1990_2020": -715.0 }, "geometry": { "type": "Polygon", "coordinates": [ [ [ -96.922725194330155, 18.897104392574974 ], [ -96.918152720621862, 18.897104392574967 ], [ -96.918152720621862, 18.892995812091634 ], [ -96.922725194330155, 18.892995812091641 ], [ -96.922725194330155, 18.897104392574974 ] ] ] } },
{ "type": "Feature", "properties": { "difference_1990_2000": -2.0, "difference_1990_2010": 0.0, "difference_1990_2020": -2.0 }, "geometry": { "type": "Polygon", "coordinates": [ [ [ -96.922725194330155, 18.905321852518146 ], [ -96.918152720621862, 18.905321852518142 ], [ -96.918152720621862, 18.901213072707748 ], [ -96.922725194330155, 18.901213072707769 ], [ -96.922725194330155, 18.905321852518146 ] ] ] } },
{ "type": "Feature", "properties": { "difference_1990_2000": -300.0, "difference_1990_2010": 0.0, "difference_1990_2020": -492.0 }, "geometry": { "type": "Polygon", "coordinates": [ [ [ -96.922725194330155, 18.880670668255728 ], [ -96.918152720621862, 18.880670668255728 ], [ -96.918152720621862, 18.876562486087899 ], [ -96.922725194330155, 18.876562486087884 ], [ -96.922725194330155, 18.880670668255728 ] ] ] } },
{ "type": "Feature", "properties": { "difference_1990_2000": -59.0, "difference_1990_2010": 0.0, "difference_1990_2020": 833.0 }, "geometry": { "type": "Polygon", "coordinates": [ [ [ -96.922725194330155, 18.888887331229398 ], [ -96.918152720621862, 18.888887331229398 ], [ -96.918152720621862, 18.884778949960179 ], [ -96.922725194330155, 18.884778949960179 ], [ -96.922725194330155, 18.888887331229398 ] ] ] } },
{ "type": "Feature", "properties": { "difference_1990_2000": -51.0, "difference_1990_2010": -487.0, "difference_1990_2020": 553.0 }, "geometry": { "type": "Polygon", "coordinates": [ [ [ -96.922725194330155, 18.86834642024915 ], [ -96.918152720621862, 18.868346420249143 ], [ -96.918152720621862, 18.864238536521984 ], [ -96.922725194330155, 18.864238536521988 ], [ -96.922725194330155, 18.86834642024915 ] ] ] } },
{ "type": "Feature", "properties": { "difference_1990_2000": -245.0, "difference_1990_2010": 0.0, "difference_1990_2020": -399.0 }, "geometry": { "type": "Polygon", "coordinates": [ [ [ -96.922725194330155, 18.884778949960179 ], [ -96.918152720621862, 18.884778949960179 ], [ -96.918152720621862, 18.880670668255728 ], [ -96.922725194330155, 18.880670668255728 ], [ -96.922725194330155, 18.884778949960179 ] ] ] } },
{ "type": "Feature", "properties": { "difference_1990_2000": 248.0, "difference_1990_2010": 0.0, "difference_1990_2020": 234.0 }, "geometry": { "type": "Polygon", "coordinates": [ [ [ -96.922725194330155, 18.876562486087884 ], [ -96.918152720621862, 18.876562486087899 ], [ -96.918152720621862, 18.872454403428403 ], [ -96.922725194330155, 18.872454403428431 ], [ -96.922725194330155, 18.876562486087884 ] ] ] } },
{ "type": "Feature", "properties": { "difference_1990_2000": -90.0, "difference_1990_2010": 0.0, "difference_1990_2020": -97.0 }, "geometry": { "type": "Polygon", "coordinates": [ [ [ -96.922725194330155, 18.901213072707769 ], [ -96.918152720621862, 18.901213072707748 ], [ -96.918152720621862, 18.897104392574967 ], [ -96.922725194330155, 18.897104392574974 ], [ -96.922725194330155, 18.901213072707769 ] ] ] } },
{ "type": "Feature", "properties": { "difference_1990_2000": 5.0, "difference_1990_2010": 0.0, "difference_1990_2020": 176.0 }, "geometry": { "type": "Polygon", "coordinates": [ [ [ -96.922725194330155, 18.872454403428431 ], [ -96.918152720621862, 18.872454403428403 ], [ -96.918152720621862, 18.868346420249143 ], [ -96.922725194330155, 18.86834642024915 ], [ -96.922725194330155, 18.872454403428431 ] ] ] } }
]
}
